PK,NOMBRE,DESCRIPCION-ENTIDAD,TRANSPORTE,ACCESIBILIDAD,CONTENT-URL,NOMBRE-VIA,CLASE-VIAL,NUM,LOCALIDAD,PROVINCIA,CODIGO-POSTAL,BARRIO,DISTRITO,COORDENADA-X,COORDENADA-Y,LATITUD,LONGITUD,TELEFONO,Column
6831483,Bululú 2120,," Metro: Palos de la Frontera (línea 3)  Bus: 6, 8, 19, 45, 47, 55, 59, 85, 86, 247  Cercanías: Delicias y Atocha ",0,http://www.madrid.es/vgn-ext-templating/v/index.jsp?vgnextchannel=9e4c43db40317010VgnVCM100000dc0ca8c0RCRD&vgnextoid=11fee3831910d310VgnVCM1000000b205a0aRCRD,CANARIAS,CALLE,16,MADRID,MADRID,28045,PALOS DE MOGUER,ARGANZUELA,441005,4472813,40.401958738062355,-3.6965212526388838,913 600 193 (Información y reservas) , 
124469,Centro de Enseñanza Réplika Teatro. Academia del Actor,," Metro: Guzmán el Bueno  (líneas 6, 7)  Bus: 44, 45, 127, C1, C2, F ",0,http://www.madrid.es/vgn-ext-templating/v/index.jsp?vgnextchannel=9e4c43db40317010VgnVCM100000dc0ca8c0RCRD&vgnextoid=4d86051c8d91f010VgnVCM1000000b205a0aRCRD,PEDRO JUSTO DORADO DELLMANS,CALLE,8,MADRID,MADRID,28040,CIUDAD UNIVERSITARIA,MONCLOA-ARAVACA,439716,4478011,40.448692123387005,-3.7122040788250885,915 350 570, 
2201,Centro de Nuevos Creadores (Sala Mirador)," El Centro de Nuevos Creadores cuenta desde el año 1985 con producciones propias y con un espacio de exhibición: El Teatro CNC- Sala Mirador. Este teatro ofrece una programación estable durante todo el año que combina teatro, danza, música, proyecciones audiovisuales y muestras de jóvenes estudiantes.  "," Metro: Lavapiés (línea 3), Embajadores (línea 3)  Bus: 27, 34, 36, 41, 119, C1, C2, E1, M1  Renfe: Embajadores ",1,http://www.madrid.es/vgn-ext-templating/v/index.jsp?vgnextchannel=9e4c43db40317010VgnVCM100000dc0ca8c0RCRD&vgnextoid=cc0055004e91f010VgnVCM2000000c205a0aRCRD,DOCTOR FOURQUET,CALLE,31,MADRID,MADRID,28012,EMBAJADORES,CENTRO,440807,4473381,40.40706148755647,-3.6989073365849734,915 289 504, 
7869361,DT Espacio Escénico,"DT Espacio Escénico es un lugar para exhibir espectáculos con lenguaje escénico mixto y utilización de escenarios no convencionales. Ofrece una programación continuada y varios ciclos de teatro, danza y cabaret"," Metro: Gran Vía (líneas 1, 3)  Bus: 1, 2, 3, 46, 74, 146, M2 ",0,http://www.madrid.es/vgn-ext-templating/v/index.jsp?vgnextchannel=9e4c43db40317010VgnVCM100000dc0ca8c0RCRD&vgnextoid=e9e472de9f53b410VgnVCM1000000b205a0aRCRD,REINA,CALLE,9,MADRID,MADRID,28004,JUSTICIA,CENTRO,440702,4474863,40.42040457289982,-3.700283103997518,915 217 155 , 
7093521,Escuela y Sala de teatro. La Usina,"Este local es a su vez una sala teatral y un espacio de formación donde todos sus profesores son profesionales del ámbito teatral, ya sean actores, directores o dramaturgos. Se caracteriza por ser un lugar de creación e investigación, donde los alumnos pueden desarrollar con libertad y autonomía sus propios proyectos teatrales, y en su programación ocupan un lugar destacado las obras dedicadas al público infantil. "," Metro: Embajadores (línea 3)  Bus: 6, 55, 59, 60, 78, 85, 148, E1  Renfe: Embajadores ",0,http://www.madrid.es/vgn-ext-templating/v/index.jsp?vgnextchannel=9e4c43db40317010VgnVCM100000dc0ca8c0RCRD&vgnextoid=2f408e01a3201410VgnVCM2000000c205a0aRCRD,PALOS DE LA FRONTERA,CALLE,4,MADRID,MADRID,28012,PALOS DE MOGUER,ARGANZUELA,440699,4472889,40.40262160672369,-3.700134139930537,914 684 754, 
7875358,Espacio Labruc," Espacio Labruc es un lugar de creación, experimentación, investigación y formación escénica y visual ubicado en el barrio madrileño de Malasaña que nace con la intención de difundir la creación y el pensamiento contemporáneos. Centra su actividad en el comisariado de artes escénicas y visuales como plataforma de exhibición de piezas de pequeño formato, sin dejar de lado la performance, los conciertos acústicos o la danza contemporánea. "," Metro: Bilbao (líneas 1, 4), Alonso Martínez (líneas 4, 5, 10)  Bus: 40, 149, M2 ",0,http://www.madrid.es/vgn-ext-templating/v/index.jsp?vgnextchannel=9e4c43db40317010VgnVCM100000dc0ca8c0RCRD&vgnextoid=824ac6f83ef4b410VgnVCM1000000b205a0aRCRD,PALMA,CALLE,18,MADRID,MADRID,28004,UNIVERSIDAD,CENTRO,440471,4475517,40.426279583153445,-3.7030672051282876,, 
8158007,Extensión AVAM. Matadero Madrid," La Asociación de Artistas Visuales de Madrid dispone de un espacio en Matadero destinado a  la participación, debate y visibilidad de las producciones de los artistas. "," Metro :  Legazpi (líneas 6, 3)  Bus: 6 , 8 , 18 , 19 , 45 , 78 , 148  Renfe: Embajadores ",1,http://www.madrid.es/vgn-ext-templating/v/index.jsp?vgnextchannel=9e4c43db40317010VgnVCM100000dc0ca8c0RCRD&vgnextoid=cebd27f53e7de410VgnVCM1000000b205a0aRCRD,CHOPERA,PASEO,14,MADRID,MADRID,28045,CHOPERA,ARGANZUELA,440934,4471754,40.39241367848808,-3.697259467865366,, 
8158008,Factoría cultural. Matadero Madrid," El nuevo vivero de industrias creativas, con capacidad para más de 100 puestos de trabajo, ofrece a los emprendedores creativos la posibilidad de llevar a cabo sus proyectos en un espacio flexible y multidisciplinar, en el entorno privilegiado de Matadero Madrid. "," Metro :  Legazpi (líneas 6, 3)  Bus: 6 , 8 , 18 , 19 , 45 , 78 , 148  Renfe: Embajadores ",1,http://www.madrid.es/vgn-ext-templating/v/index.jsp?vgnextchannel=9e4c43db40317010VgnVCM100000dc0ca8c0RCRD&vgnextoid=e91f27f53e7de410VgnVCM1000000b205a0aRCRD,CHOPERA,PASEO,14,MADRID,MADRID,28045,CHOPERA,ARGANZUELA,440934,4471754,40.39241367848808,-3.697259467865366,"636 54 68 50                                
", 
1915,Fernán Gómez. Centro Cultural de la Villa,," Metro: Colón (línea 4), Serrano (línea 4)  Bus: 1, 5, 9, 14, 19, 21, 27, 45,  51, 53,  74, 150  Renfe: Recoletos ",1,http://www.madrid.es/vgn-ext-templating/v/index.jsp?vgnextchannel=9e4c43db40317010VgnVCM100000dc0ca8c0RCRD&vgnextoid=ba663d0b5e71c010VgnVCM1000000b205a0aRCRD,COLON,PLAZA,4,MADRID,MADRID,28001,RECOLETOS,SALAMANCA,441585,4475358,40.424926347610764,-3.6899208519663427,"914 362 540 Ext. 200 (Información general) / Ext. 208 (precios grupos, Amigos del Fernán Gómez y promociones)                         
", 
99245,Karpas Teatro," Karpas es una pequeña sala, con 60 butacas, que ofrece producciones propias y de compañías invitadas. Además, colabora y participa en certámenes y festivales. Nace como teatro de cámara independiente en los años 70. Sus fundadores fueron Julio Pascual y Javier Franquelo, dos profesionales del mimo. Su escuela-taller forma cada año en el arte de la interpretación a jóvenes actores.  "," Metro: Anton Martín (línea 1), Atocha (línea 1)  Bus: 6, 26, 32 ",0,http://www.madrid.es/vgn-ext-templating/v/index.jsp?vgnextchannel=9e4c43db40317010VgnVCM100000dc0ca8c0RCRD&vgnextoid=7a8c8c7c0f91f010VgnVCM1000000b205a0aRCRD,SANTA ISABEL,CALLE,19,MADRID,MADRID,28012,EMBAJADORES,CENTRO,440912,4473757,40.41045615490087,-3.6977049393895824,915 396 236, 
7875393,Kubik Fabrik," &shy;&shy;&shy;Situada en una antigua nave industrial en el barrio de Usera,  la sala de teatro Kubik Fabrik es un espacio innovador que acoge proyectos de carácter local realizados por compañías y artistas alternativos. Por su escenario han pasado espectáculos recién salidos del horno y que más tarde se han ido estrenando en otras salas de la capital.   Además, la sala es un espacio que fomenta la integración a través de la exhibición de obras de compañías que trabajan con personas discapacitadas como La fundación de psicoballet Maite León.  Kubik Fabrik también ha producido sus propias obras entre las que destacan Metro cúbico, El gran atasco o Los mundos posibles. "," Metro. Plaza Elíptica (líneas 6, 11)  Bus: 6, 60, 81  Renfe: Hospital 12 de Octubre ",0,http://www.madrid.es/vgn-ext-templating/v/index.jsp?vgnextchannel=9e4c43db40317010VgnVCM100000dc0ca8c0RCRD&vgnextoid=cfcfc6f83ef4b410VgnVCM1000000b205a0aRCRD,PRIMITIVA GA&Ntilde;AN,CALLE,5,MADRID,MADRID,28026,PRADOLONGO,USERA,439908,4470485,40.38091743834921,-3.7092161504993135,917 921 025, 
6599384,Microteatro Por Dinero," Un nuevo concepto de formato teatral: micro obras de entre diez y quince minutos, sobre un mismo tema, representadas en espacios pequeños para menos de quince espectadores por pase y seis sesiones al día. De esta forma, el espectador puede elegir tanto el tiempo que quiere pasar en el teatro, según el número de obras que quiera ver, como el precio que quiere pagar, ya que cada visita a una sala se paga de forma individual. Microteatro es también un espacio multifuncional en el centro de Madrid donde también se puede asistir a microteatro infantil, conciertos, proyección de películas inéditas, arte, experimentación, alquiler de espacios para todo tipo de eventos, un bar... todo esto en un local que en su día fue un burdel y que ahora es un centro para la cultura y el ocio. "," Metro: Callao (líneas 3, 5), Gran Vía (líneas 1, 5), Santo Domingo (línea 2)  Bus: 1, 2, 3, 44, 46, 74, 75, 133, 147, 148 ",0,http://www.madrid.es/vgn-ext-templating/v/index.jsp?vgnextchannel=9e4c43db40317010VgnVCM100000dc0ca8c0RCRD&vgnextoid=5546a391f9a2a310VgnVCM1000000b205a0aRCRD,LORETO Y CHICOTE,CALLE,9,MADRID,MADRID,28004,UNIVERSIDAD,CENTRO,440382,4474990,40.42152574011699,-3.7040668231939438,915 218 874, 
7875696,Multiespacio La Strada,," Metro: Quevedo (línea 2)  Bus: 16, 61, 149 ",0,http://www.madrid.es/vgn-ext-templating/v/index.jsp?vgnextchannel=9e4c43db40317010VgnVCM100000dc0ca8c0RCRD&vgnextoid=e305a81ac725b410VgnVCM1000000b205a0aRCRD,MAGALLANES,CALLE,23,MADRID,MADRID,28015,ARAPILES,CHAMBERI,440250,4476525,40.435344224129665,-3.705767250398437,"914 464 849   
", 
6963121,Naves del Español," Espacio escénico ubicado en el  Matadero Madrid,  gestionado por el Teatro Español y concebido por el creador de espacios escénicos Jean Guy Lecat. Las naves forman un conjunto dotado de gran flexibilidad, que permite el funcionamiento autónomo de tres espacios interconectados. "," Metro :  Legazpi (líneas 6, 3)  Bus: 6 , 8 , 18 , 19 , 45 , 78 , 148  Renfe: Embajadores ",1,http://www.madrid.es/vgn-ext-templating/v/index.jsp?vgnextchannel=9e4c43db40317010VgnVCM100000dc0ca8c0RCRD&vgnextoid=4582ee06ea5ee310VgnVCM2000000c205a0aRCRD,CHOPERA,PASEO,14,MADRID,MADRID,28045,CHOPERA,ARGANZUELA,440934,4471754,40.39241367848808,-3.697259467865366,"914 730 957 (taquilla)                                
", 
109277,Nuevo Teatro Alcalá," La sala nació bajo el nombre de Coliseo Pardiñas en 1927 y fue obra de Luis Ferrero. Posteriormente se llamó Coliseo Alcalá  y transcurridos unos años Teatro Alcalá Palace.  Bajo este último nombre el teatro vivió años de esplendor  y por su programación no faltaban importantes zarzuelas y más destacadas figuras del flamenco. Durante la década de los 70 se estrenó el musical &quot;Jesucristo Superstar&quot;, exitoso a la vez que polémico.  En los años ochenta tuvo que cerrar y no fue abierto hasta el año 2001.  Después de catorce años el empresario Alejandro Romay, junto con la arquitecta Margarita Massó, levantó el actual Nuevo Teatro Alcalá donde antes se erguía el antiguo Teatro Alcalá Palace.  El nuevo teatro cuenta con dos salas. La más importante es la más grande con su estilo y disposición tradicional a la italiana, su gran patio de butacas y la distribución de los espacios la convierten en un sala única con buena visibilidad en todos sus ángulos. La siguiente sala es un espacio polivalente de teatro y está ubicada en el subsuelo del edificio. Tiene una disposición y estilo más modernos, perfecta para acoger obras de corte más vanguardista. "," Metro: Príncipe de Vergara (líneas 2, 9), Goya (líneas 2, 4)  Bus: 2, 15, 28, 29, 30, 43, 63, 146, C1 ",1,http://www.madrid.es/vgn-ext-templating/v/index.jsp?vgnextchannel=9e4c43db40317010VgnVCM100000dc0ca8c0RCRD&vgnextoid=b18d8c7c0f91f010VgnVCM1000000b205a0aRCRD,JORGE JUAN,CALLE,62,MADRID,MADRID,28009,GOYA,SALAMANCA,442573,4475181,40.42340075550414,-3.678258596986864,914 264 779 , 
7875490,Off de la Latina," Este espacio cultural se encuentra situado en pleno corazón de Madrid, en el barrio de La Latina. En él se puede disfrutar de diferentes espectáculos de teatro, danza y música, en especial jazz y flamenco. El local tiene una superficie de 320 metros cuadrados repartidos en tres zonas bien diferenciadas: la planta principal, donde se encuentra en bar, la cava alta donde se sitúa el teatro, y la cava baja, antigua carbonería del siglo XVII reservada para los eventos más íntimos y especiales.  "," Metro: La Latina (línea 5)  Bus: 3, 31, 50, 60, 65, 148 ",0,http://www.madrid.es/vgn-ext-templating/v/index.jsp?vgnextchannel=9e4c43db40317010VgnVCM100000dc0ca8c0RCRD&vgnextoid=23b5c6f83ef4b410VgnVCM1000000b205a0aRCRD,MANCEBOS,CALLE,4,MADRID,MADRID,28005,PALACIO,CENTRO,439702,4473943,40.41204479812585,-3.7119825698992885,911 691 419, 
7093690,Sala Azarte,," Metro: Chueca (línea 5)  Bus: 1, 2, 3, 46, 74, 146, M2 ",0,http://www.madrid.es/vgn-ext-templating/v/index.jsp?vgnextchannel=9e4c43db40317010VgnVCM100000dc0ca8c0RCRD&vgnextoid=e2708ff0d6201410VgnVCM2000000c205a0aRCRD,SAN MARCOS,CALLE,19,MADRID,MADRID,28004,JUSTICIA,CENTRO,440866,4474973,40.42140719770071,-3.698360306512048,915 226 768 (reserva de localidades), 
7093712,Sala Clan,," Metro: Acacias (línea 5), Embajadores (línea 3)  Bus: 34, 36, 41, 60, 62, 116, 118, 119, 148, C1, C2  Renfe: Embajadores ",0,http://www.madrid.es/vgn-ext-templating/v/index.jsp?vgnextchannel=9e4c43db40317010VgnVCM100000dc0ca8c0RCRD&vgnextoid=ec938ff0d6201410VgnVCM2000000c205a0aRCRD,TOLEDO,RONDA,20,MADRID,MADRID,28005,ACACIAS,ARGANZUELA,440142,4473208,40.405455383460954,-3.706727738985041,915 288 401, 
1983,Sala el Montacargas,Sala de teatro alternativo," Metro: Puerta del Ángel (Línea 6)  Bus: 31, 33, 36, 39, 65, 138 ",0,http://www.madrid.es/vgn-ext-templating/v/index.jsp?vgnextchannel=9e4c43db40317010VgnVCM100000dc0ca8c0RCRD&vgnextoid=8a2a8c7c0f91f010VgnVCM1000000b205a0aRCRD,ANTILLON,CALLE,19,MADRID,MADRID,28011,PUERTA DEL ANGEL,LATINA,438350,4473924,40.411774419017874,-3.727914502030771,915 261 173, 
7093511,Sala La Escalera de Jacob," Situado en Lavapiés, es un espacio con vocación intercultural en el que tienen cabida todo tipo de expresiones artísticas concebidas para un público exigente y alejadas de los circuitos convencionales. Teatro, cine, conciertos, exposiciones, etc. "," Metro: Tirso de Molina (línea 1), Antón Martín (línea 1), Lavapiés (línea 3)  Bus: 6, 26, 32, 65, M1 ",0,http://www.madrid.es/vgn-ext-templating/v/index.jsp?vgnextchannel=9e4c43db40317010VgnVCM100000dc0ca8c0RCRD&vgnextoid=3e4c8e01a3201410VgnVCM2000000c205a0aRCRD,LAVAPIES,CALLE,11,MADRID,MADRID,28012,EMBAJADORES,CENTRO,440479,4473845,40.41121799500783,-3.7028161421960313,695 263 509, 
7246631,Sala La Pensión de las Pulgas,," Metro: Antón Martín (línea 1)  Bus: 6, 26, 32 ",0,http://www.madrid.es/vgn-ext-templating/v/index.jsp?vgnextchannel=9e4c43db40317010VgnVCM100000dc0ca8c0RCRD&vgnextoid=d448051dbc673410VgnVCM2000000c205a0aRCRD,HUERTAS,CALLE,48,MADRID,MADRID,28014,CORTES,CENTRO,440961,4474065,40.413234253652156,-3.6971561016982775,638 752 812, 
147666,Sala La Puerta Estrecha,," Metro: Lavapiés (línea 3), Embajadores (líneas 3)  Bus: 27, 34, 36, 41, 60, 78, 116, 118, 119, 148, C1, C2, E1, M1  Renfe: Embajadores ",0,http://www.madrid.es/vgn-ext-templating/v/index.jsp?vgnextchannel=9e4c43db40317010VgnVCM100000dc0ca8c0RCRD&vgnextoid=c6af8c89dd91f010VgnVCM2000000c205a0aRCRD,AMPARO,CALLE,94,MADRID,MADRID,28012,EMBAJADORES,CENTRO,440668,4473302,40.406339903345966,-3.700538007164605,914 672 224, 
8055850,Sala Maravillas Club,"La antigua sala Nasty, en pleno barrio de Malasaña, es hoy un local dedicado a las artes escénicas. Mientras su Espacio Artefacto ofrece microteatro, clásicos indies o teatro para niños y adolescentes, el espacio Stand The Pace programa música en vivo, con actuaciones de grupos de rock y pop indie, y conciertos en formato íntimo de solistas y dúos. Esta sala también ofrece sesiones temáticas de música como PartyMonster, MarnieClub, Viva Las Vegas, Hard Candy (BCN) o Gran Ganga."," Metro: Noviciado (línea 2), Tribunal (línea 1, 10)  Bus: 3, 40, 147, 149, M2 ",0,http://www.madrid.es/vgn-ext-templating/v/index.jsp?vgnextchannel=9e4c43db40317010VgnVCM100000dc0ca8c0RCRD&vgnextoid=796e95730ea7d410VgnVCM2000000c205a0aRCRD,SAN VICENTE FERRER,CALLE,33,MADRID,MADRID,28004,UNIVERSIDAD,CENTRO,440363,4475460,40.42576743226599,-3.704323244994768,674 256 152, 
8055932,Sala Milagros," Esta sala se ha especializado en teatro radiofónico por lo que cuidan especialmente el sonido con una amplia gama de micrófonos y también con una cúpula de sonido envolvente para los conciertos en directo, que hace que los espectadores sientan que están dentro de la banda de música.  Desde La Sala Milagros buscan apoyar a los nuevos creadores produciendo espectáculos originales y novedosos. Aquí se quieren apoyar nuevas propuestas y ese es el empeño de esta sala que nace con el respaldo de Tholma, la emisora de radio por internet Aire y también de una asociación de vecinos. "," Bus: 23, 116 ",0,http://www.madrid.es/vgn-ext-templating/v/index.jsp?vgnextchannel=9e4c43db40317010VgnVCM100000dc0ca8c0RCRD&vgnextoid=100604393ea7d410VgnVCM1000000b205a0aRCRD,INMACULADA CONCEPCION,CALLE,35,MADRID,MADRID,28019,COMILLAS,CARABANCHEL,439654,4471691,40.39176330264349,-3.7123227018660074,600 402 818, 
7246699,Sala Nave 73,"Espacio multicultural, situado en el barrio de Embajadores, que ofrece una programación variada de conciertos que van desde el jazz o el blues hasta el indie. Cuenta además con una pequeña galeria de exposiciones donde se muestra la obra de autores nacionales e internacionales."," Metro: Embajadores (línea 3), Palos de la Frontera (línea 3)  Bus: 8, 19, 45, 47, 60, 78, 86, 148 ",0,http://www.madrid.es/vgn-ext-templating/v/index.jsp?vgnextchannel=9e4c43db40317010VgnVCM100000dc0ca8c0RCRD&vgnextoid=5d5b051dbc673410VgnVCM2000000c205a0aRCRD,PALOS DE LA FRONTERA,CALLE,5,MADRID,MADRID,28012,PALOS DE MOGUER,ARGANZUELA,440821,4472948,40.40316180456706,-3.6987020172137433,917 049 583, 
161000,Sala Tarambana,"La compañía Tarambana ofrece en su sala todo tipo de espectáculos y producciones para todo tipo de público, con música, danza o teatro infantil."," Metro: Carabanchel (línea 5)  Bus: 17, 34, 35 ",0,http://www.madrid.es/vgn-ext-templating/v/index.jsp?vgnextchannel=9e4c43db40317010VgnVCM100000dc0ca8c0RCRD&vgnextoid=53cf8c89dd91f010VgnVCM2000000c205a0aRCRD,DOLORES ARMENGOT,CALLE,31,MADRID,MADRID,28025,VISTA ALEGRE,CARABANCHEL,437027,4471052,40.38580301942374,-3.7432218183125814,914 618 334, 
2203,Sala Triángulo,"Espacio escénico para la comunicación, creación, formación y difusión de la cultura, el arte y el ocio alternativos, actual (en tiempo y acción) y abierto. Es sede y referencia obligada para todas aquellas compañias de pequeño y mediando formato, nacionales e internacionales, que quieran trabajar en Madrid."," Metro: Lavapiés (línea 3), Antón Martín (línea 1)  Bus: 10, 26, 27, 36, 37, 57, 119 ",0,http://www.madrid.es/vgn-ext-templating/v/index.jsp?vgnextchannel=9e4c43db40317010VgnVCM100000dc0ca8c0RCRD&vgnextoid=06b208231f91f010VgnVCM2000000c205a0aRCRD,ZURITA,CALLE,20,MADRID,MADRID,28012,EMBAJADORES,CENTRO,440791,4473671,40.40967281072633,-3.699122921978145,915 306 891, 
6832040,Sala Tú," Esta sala de teatro dedicada a los espectáculos de pequeño y mediano formato, está situada en el corazón de Malasaña y es gestionada de manera privada por  profesionales de las artes escénicas. El espacio cuenta con una pequeña sala para las representaciones y un café-ambigú donde tomar algo después.  Además de una programación regular de obras de teatro y diversos espectáculos tanto para público adulto como infantil, SALA TÚ ofrece formación para actores  a través de cursos trimestrales y &lsquo;master classes' de interpretación, canto o danza.  "," Metro: Tribunal (líneas 1, 10), Bilbao (líneas 1, 4), Noviciado (línea 2)  Bus: 3, 21, 40, 147, 149 ",0,http://www.madrid.es/vgn-ext-templating/v/index.jsp?vgnextchannel=9e4c43db40317010VgnVCM100000dc0ca8c0RCRD&vgnextoid=5425b88ddf10d310VgnVCM1000000b205a0aRCRD,VELARDE,CALLE,15,MADRID,MADRID,28004,UNIVERSIDAD,CENTRO,440446,4475575,40.42680028110073,-3.703367344935001,910 176 802 , 
7091883,Tablao Flamenco Café de Chinitas," Descendiente del malagueño primer Café Chinitas del siglo pasado, este local ofrece un novísimo tablao flamenco acompañado con una cocina selecta "," Metro: Santo Domingo (línea 2), Ópera (líneas 2, 5)  Bus: 1, 2, 3, 25, 39, 44, 46, 74, 75, 133, 138, 146, 147, 148, C1, C2 ",0,http://www.madrid.es/vgn-ext-templating/v/index.jsp?vgnextchannel=9e4c43db40317010VgnVCM100000dc0ca8c0RCRD&vgnextoid=5ba16036342f0410VgnVCM2000000c205a0aRCRD,TORIJA,CALLE,7,MADRID,MADRID,28013,PALACIO,CENTRO,439841,4474907,40.4207390288608,-3.7104357404041317,915 595 135, 
7091909,Tablao Flamenco Casa Patas,," Metro: Tirso de Molina (línea 1), Sol (líneas 1, 2, 3)  Bus: 6, 26, 32, 50, 65, M1 ",1,http://www.madrid.es/vgn-ext-templating/v/index.jsp?vgnextchannel=9e4c43db40317010VgnVCM100000dc0ca8c0RCRD&vgnextoid=bf256036342f0410VgnVCM2000000c205a0aRCRD,CA&Ntilde;IZARES,CALLE,10,MADRID,MADRID,28012,EMBAJADORES,CENTRO,440572,4474012,40.412729068876004,-3.7017357416661167,913 690 496, 
143436,Tablao flamenco Las Tablas," Espacio escénico: flamenco, jazz, blues, teatro y actuaciones para niños... "," Metro: Plaza de España (líneas 3, 10)  Bus: 3, 25, 39, 46, 74, 75, 138, 148, C1, C2, SE730 ",0,http://www.madrid.es/vgn-ext-templating/v/index.jsp?vgnextchannel=9e4c43db40317010VgnVCM100000dc0ca8c0RCRD&vgnextoid=cfb3c8a3d881c010VgnVCM1000000b205a0aRCRD,ESPAÑA,PLAZA,9,MADRID,MADRID,28008,ARGUELLES,MONCLOA-ARAVACA,439567,4475047,40.42198032023045,-3.713678674361515,915 420 520, 
2199,Teatro Alfil," Es una sala con más de medio siglo de historia. Actualmente, se encuentra a mitad de camino entre lo comercial y lo alternativo. El escenario es de reducidas dimensiones y carece de 'peine', por lo que no permite montar escenografías aparatosas, pero los espectadores gozan de completa visibilidad desde cualquier localidad y los artistas trabajan con sensación de cercanía al público.  "," Metro: Noviciado (líneas 2, 3, 10)  Bus: 1, 2, 44, 46, 74, 75, 133, 147, 148 ",1,http://www.madrid.es/vgn-ext-templating/v/index.jsp?vgnextchannel=9e4c43db40317010VgnVCM100000dc0ca8c0RCRD&vgnextoid=a83b8c7c0f91f010VgnVCM1000000b205a0aRCRD,PEZ,CALLE,10,MADRID,MADRID,28004,UNIVERSIDAD,CENTRO,440349,4475170,40.4231448936827,-3.7044727114319844,915 214 541, 
17306,Teatro Amaya,"Alberga además de grandes producciones teatrales, exposiciones de pintura, fotografía, etc. Busca de esta manera, abrir una puerta más a la cultura de la ciudad."," Metro: Iglesia (línea 1)  Bus: 16, 53, 61 ",1,http://www.madrid.es/vgn-ext-templating/v/index.jsp?vgnextchannel=9e4c43db40317010VgnVCM100000dc0ca8c0RCRD&vgnextoid=6b4b8c7c0f91f010VgnVCM1000000b205a0aRCRD,GENERAL MARTINEZ CAMPOS,PASEO,9,MADRID,MADRID,28010,ALMAGRO,CHAMBERI,440977,4476496,40.43513498732234,-3.697193610846834,915 934 005 (Taquillas), 
7717745,Teatro Arlequín Gran Vía,"Fue proyectado por  Enrique López-Izquierdo . Está situado muy  cerca de la Gran Vía , en el bajo de un gran edificio conocido como Los Sótanos. El Arlequín, como el Bellas Artes y el Príncipe, tiene la singularidad de estar bajo el nivel de la calle. Es actualmente una sala con capacidad para unos  350 espectadores , confortable, de planta rectangular. La mayor parte de su aforo se ubica en el patio de butacas, aunque tiene un pequeño anfiteatro. Tanto el escenario como los camerinos han sido totalmente  reconstruidos y dotados de comodidades.  Viene a ser como un hermano pequeño de los enormes cines y teatros que lo rodean en las manzanas vecinas de la Gran Vía."," Metro: Santo Domingo (línea 2), Callao (líneas 3, 5)  Bus: 1, 2, 3, 44, 46, 74, 75, 133, 146, 147, 148 ",0,http://www.madrid.es/vgn-ext-templating/v/index.jsp?vgnextchannel=9e4c43db40317010VgnVCM100000dc0ca8c0RCRD&vgnextoid=f38726c2a9489410VgnVCM2000000c205a0aRCRD,SAN BERNARDO,CALLE,5,MADRID,MADRID,28013,PALACIO,CENTRO,440022,4474937,40.421022372676056,-3.7083051475459974,915 470 430 , 
17326,Teatro Arteria Coliseum,"Situado en el Gran Vía madrileña, el Teatro Coliseum tiene más de ochenta años de historia. Desde el año 2000 ha acogido importantes producciones."," Metro: Plaza de España (líneas 2, 3, 10)  Bus: 1, 2, 3, 25, 33, 39, 40, 41, 44, 46, 74, 75, 133, 138, 146, 147, 148, 149, 202 ",1,http://www.madrid.es/vgn-ext-templating/v/index.jsp?vgnextchannel=9e4c43db40317010VgnVCM100000dc0ca8c0RCRD&vgnextoid=e9ab8c7c0f91f010VgnVCM1000000b205a0aRCRD,GRAN VIA,CALLE,78,MADRID,MADRID,28013,UNIVERSIDAD,CENTRO,439850,4475188,40.423271055213334,-3.7103562860569252,915 476 612, 
2178,Teatro Bellas Artes,"Presenta una completa programación que combina espectáculos de empresas privadas con teatro público, textos clásicos con contemporáneos, juventud frente a veteranía, tanto de actrices, actores, directores de escena, etc."," Metro: Banco de España (línea 2), Sevilla (línea 2)  Bus: 1, 2, 3, 5, 9, 10, 14, 15, 20, 27, 34, 37, 45, 46, 51, 52, 53, 74, 146, 202 ",0,http://www.madrid.es/vgn-ext-templating/v/index.jsp?vgnextchannel=9e4c43db40317010VgnVCM100000dc0ca8c0RCRD&vgnextoid=e07b8c7c0f91f010VgnVCM1000000b205a0aRCRD,MARQUES DE CASA RIERA,CALLE,2,MADRID,MADRID,28014,CORTES,CENTRO,441028,4474630,40.41832880748667,-3.6964189422517295,915 324 437 / 915 324 438, 
8176468,Teatro Calderón,," Metro : Tirso de Molina (línea 1), Sol (líneas 1, 2, 3)   Bus : 6, 26, 32, 50, 65",1,http://www.madrid.es/vgn-ext-templating/v/index.jsp?vgnextchannel=9e4c43db40317010VgnVCM100000dc0ca8c0RCRD&vgnextoid=aecf08cee9e5f410VgnVCM1000000b205a0aRCRD,ATOCHA,CALLE,18,MADRID,MADRID,28012,EMBAJADORES,CENTRO,440434,4474150,40.41396242769233,-3.703363300804268,914 203 797, 
184955,Teatro Circo Price," Toma su nombre del que existió, durante casi un siglo, en el Paseo de Recoletos. A comienzos del 2000, el ayuntamiento recuperó el antiguo edificio industrial de una fábrica, de estilo neomudéjar, para ubicar el nuevo Teatro Circo Price que desde 2007 ofrece una variada programación de circo, música y teatro.   Teléfono de taquilla: 915 288 122 "," Metro: Embajadores (línea 3) , Lavapiés (línea 3), Atocha (línea 1)  Bus: C, 27, 34, 36, 41, 119  Renfe: Embajadores ",0,http://www.madrid.es/vgn-ext-templating/v/index.jsp?vgnextchannel=9e4c43db40317010VgnVCM100000dc0ca8c0RCRD&vgnextoid=432257258ae5d010VgnVCM1000000b205a0aRCRD,ATOCHA,RONDA,35,MADRID,MADRID,28012,PALOS DE MOGUER,ARGANZUELA,440832,4473259,40.40596423138839,-3.698601359753866,915 279 865 , 
2177,Teatro Cofidis Alcázar,"Fue construido en 1921. En sus comienzos era conocido como Palacio de Recreos. Tiene una espectacular fachada, restaurada en el 2004."," Metro: Sevilla (línea 2)  Bus: 3, 5, 9, 15, 20, 51, 52, 52, 150 ",0,http://www.madrid.es/vgn-ext-templating/v/index.jsp?vgnextchannel=9e4c43db40317010VgnVCM100000dc0ca8c0RCRD&vgnextoid=a52b8c7c0f91f010VgnVCM1000000b205a0aRCRD,ALCALA,CALLE,20,MADRID,MADRID,28014,CORTES,CENTRO,440803,4474572,40.41779939064292,-3.699053803017364,915 320 616 (Taquilla), 
17334,Teatro Compac Gran Vía (Pequeño teatro Gran Vía),," Metro: Plaza de España (líneas 3, 10), Santo Domingo (línea 2), Callao (línea 5)  Bus: 1, 2, 3, 44, 46, 74, 75, 133, 143 ",0,http://www.madrid.es/vgn-ext-templating/v/index.jsp?vgnextchannel=9e4c43db40317010VgnVCM100000dc0ca8c0RCRD&vgnextoid=e69b8c7c0f91f010VgnVCM1000000b205a0aRCRD,GRAN VIA,CALLE,66,MADRID,MADRID,28013,UNIVERSIDAD,CENTRO,439968,4475091,40.42240577324947,-3.7089562066882342,915 415 569, 
6109165,Teatro de Cámara Cervantes," Nace en el 2008 impulsado por la Sociedad Cervantina con la intención de recueprar para el público de hoy obras teatrales de uno de los mejores autores de la lengua española, Miguel de Cervantes.  También quiere ser un espacio de investigación escénica desde donde apoyar a los jóvenes talentos del teatro español. "," Metro: Antón Martín (línea 1)  Bus: 6, 26, 32 ",0,http://www.madrid.es/vgn-ext-templating/v/index.jsp?vgnextchannel=9e4c43db40317010VgnVCM100000dc0ca8c0RCRD&vgnextoid=313a5411a9c90310VgnVCM2000000c205a0aRCRD,ATOCHA,CALLE,87,MADRID,MADRID,28012,CORTES,CENTRO,440974,4473859,40.41137942819415,-3.6969837415117817,914 203 437, 
7878781,Teatro de Cámara Chéjov," El teatro de Cámara Chéjov es un centro estable de producción teatral y de formación artística, además de sala abierta al público con una programación continuada. Se presenta como foco difusor y aglutinador de arte, cultura y pensamiento. "," Metro: Ventilla (línea 9)  Bus: 42, 177 ",0,http://www.madrid.es/vgn-ext-templating/v/index.jsp?vgnextchannel=9e4c43db40317010VgnVCM100000dc0ca8c0RCRD&vgnextoid=b55bf74a9a95b410VgnVCM1000000b205a0aRCRD,MARTIRES DE LA VENTILLA,CALLE,68,MADRID,MADRID,28029,ALMENARA,TETUAN,441354,4480519,40.47140264085205,-3.6931212805993807,915 270 954, 
2207,Teatro de la Abadía," El Teatro de La Abadía es una casa de teatro y estudios que aspira a incidir en la vida social y cultural a través del teatro. Aquí se aspira a aunar la creación y exhibición de espectáculos con la búsqueda artística y humana mediante talleres y encuentros, todo ello bajo la dirección de José Luis Gómez que, en la tradición de los teatros de arte europeos, ha configurado un equipo teatral.  "," Metro: Quevedo (línea 2), Canal (líneas 2, 7)  Bus: 2, 16, 61 ",1,http://www.madrid.es/vgn-ext-templating/v/index.jsp?vgnextchannel=9e4c43db40317010VgnVCM100000dc0ca8c0RCRD&vgnextoid=efcb8c7c0f91f010VgnVCM1000000b205a0aRCRD,FERNANDEZ DE LOS RIOS,CALLE,42,MADRID,MADRID,28015,ARAPILES,CHAMBERI,439957,4476513,40.43522406333126,-3.709208726699302,914 481 181, 
2193,Teatro de la Comedia. Compañía Nacional de Teatro Clásico,," Metro: Sevilla (línea 2)  Bus: 3, 5, 6, 9, 15, 20, 26, 32, 51, 52, 53, 57, 65, 150 ",0,http://www.madrid.es/vgn-ext-templating/v/index.jsp?vgnextchannel=9e4c43db40317010VgnVCM100000dc0ca8c0RCRD&vgnextoid=e2eb8c7c0f91f010VgnVCM1000000b205a0aRCRD,PRINCIPE,CALLE,14,MADRID,MADRID,28012,CORTES,CENTRO,440686,4474336,40.41566504361928,-3.7004107649636144,915 327 927 / 915 282 819 (taquilla), 
2194,Teatro de la Zarzuela," El Teatro de la Zarzuela es el primer y único teatro de la lírica española. Situado en pleno centro, detrás de las Cortes, en él siempre se ha cultivado la música del género lírico español, y actualmente se siguen cantando y oyendo las mejores obras de su repertorio. "," Metro: Banco de España (línea 2), Sevilla (línea 2)  Bus: 5, 9, 10, 14, 15, 20, 27, 34, 37, 45, 51, 53, 150, 203, M1, M2 ",1,http://www.madrid.es/vgn-ext-templating/v/index.jsp?vgnextchannel=9e4c43db40317010VgnVCM100000dc0ca8c0RCRD&vgnextoid=e5fb8c7c0f91f010VgnVCM1000000b205a0aRCRD,JOVELLANOS,CALLE,4,MADRID,MADRID,28014,CORTES,CENTRO,440989,4474504,40.4171909688133,-3.6968669041846796,915 245 400, 
6708522,Teatro del Arte,"Sala de teatro alternativo situada en el centro de Madrid, en el barrio de Lavapiés, una zona que destaca por el espíritu independiente en muchas de sus propuestas culturales. El objetivo de esta sala es conseguir una programación de calidad, a través de la representación de obras de teatro contemporáneas y comprometidas."," Metro: Lavapies (línea 3), Antón Martín (línea 1)  Bus: 6, 26, 32 ",0,http://www.madrid.es/vgn-ext-templating/v/index.jsp?vgnextchannel=9e4c43db40317010VgnVCM100000dc0ca8c0RCRD&vgnextoid=c79d84f59999b310VgnVCM1000000b205a0aRCRD,SAN COSME Y SAN DAMIAN,CALLE,3,MADRID,MADRID,28012,EMBAJADORES,CENTRO,440885,4473636,40.409373215131076,-3.698011968601937,915 284 536, 
7239548,Teatro del Barrio,"La sala alternativa Triángulo ha dado paso a El Teatro del Barrio. Un proyecto que nace con la vocación de saber qué está pasando y con la intención de ser una asamblea permanente mediante el teatro, la poesía, el baile, los talleres y la Universidad del Barrio."," Metro: Lavapiés (línea 3), Antón Martín (línea 1)  Bus: 6, 26, 32, M1  Renfe: Embajadores ",0,http://www.madrid.es/vgn-ext-templating/v/index.jsp?vgnextchannel=9e4c43db40317010VgnVCM100000dc0ca8c0RCRD&vgnextoid=8891c0a221f23410VgnVCM1000000b205a0aRCRD,ZURITA,CALLE,20,MADRID,MADRID,28012,EMBAJADORES,CENTRO,440791,4473671,40.409681819217646,-3.699123015201178,910 843 692, 
2190,Teatro Español," Denominado, hasta 1849, Teatro del Principe ampliamente reformado en los últimos años del siglo XIX.   Es uno de los teatros madrileños mas emblemáticos, con una trayectoria, casi ininterrumpida, de programación durante mas de 400 años "," Metro: Sevilla (línea 2), Sol (líneas 1, 2, 3)  Bus: 3, 5, 6, 9, 15, 20, 26, 32, 51, 52, 53, 57, 65, 150  Renfe: Sol ",1,http://www.madrid.es/vgn-ext-templating/v/index.jsp?vgnextchannel=9e4c43db40317010VgnVCM100000dc0ca8c0RCRD&vgnextoid=6d3ce3914381c010VgnVCM1000000b205a0aRCRD,PRINCIPE,CALLE,25,MADRID,MADRID,28012,CORTES,CENTRO,440706,4474243,40.41482868269558,-3.7001663599562105,913 601 480 (centralita) /  913 601 484 (taquilla), 
2181,Teatro Fígaro - Adolfo Marsillach,Situado en la zona céntrica y turística de Madrid: el barrio de las Letras. Acoge lo mejor de la comedia actual nacional e internacional.," Metro: Tirso de Molina (línea 1), Sol (líneas 1, 2, 3)  Bus: 6, 26, 32, 50, 65 ",1,http://www.madrid.es/vgn-ext-templating/v/index.jsp?vgnextchannel=9e4c43db40317010VgnVCM100000dc0ca8c0RCRD&vgnextoid=715c8c7c0f91f010VgnVCM1000000b205a0aRCRD,DOCTOR CORTEZO,CALLE,5,MADRID,MADRID,28012,EMBAJADORES,CENTRO,440407,4474093,40.41345601671212,-3.703676260061599,913 600 829 , 
87056,Teatro Galileo,"Se encuentra dentro del Centro Cultural Galileo del Ayuntamiento de Madrid, gestionado por el Grupo Smedia. Una sala, dedicada a la representación de obras de teatro de arte y ensayo y al teatro familiar durante los fines de semana, ubicada en el distrito de Chamberí."," Metro: Quevedo (línea 2), Arg&uuml;elles (líneas 3, 4, 6)  Bus: 2, 16, 21 , 61 ",0,http://www.madrid.es/vgn-ext-templating/v/index.jsp?vgnextchannel=9e4c43db40317010VgnVCM100000dc0ca8c0RCRD&vgnextoid=346c8c7c0f91f010VgnVCM1000000b205a0aRCRD,GALILEO,CALLE,39,MADRID,MADRID,28015,ARAPILES,CHAMBERI,439851,4476347,40.43371190964793,-3.7104543597957758,915 913 901, 
130405,Teatro Guindalera,"Con un aforo de 75 localidades, esta sala apuesta por recuperar un teatro de arte y ensayo, punto de encuentro y de reflexión. En ella se reivindica la imaginación compartida con el espectador. Frente al despliegue de medios y frente a los grandes espacios se busca el acercamiento y un ambiente íntimo."," Metro: Diego de León (líneas 4, 5, 6)  Bus: 1, 12, 43, 48, 56, 74, C1, C2 ",0,http://www.madrid.es/vgn-ext-templating/v/index.jsp?vgnextchannel=9e4c43db40317010VgnVCM100000dc0ca8c0RCRD&vgnextoid=db408c89dd91f010VgnVCM2000000c205a0aRCRD,MARTINEZ IZQUIERDO,CALLE,20,MADRID,MADRID,28028,GUINDALERA,SALAMANCA,443311,4476285,40.43339686680235,-3.6696580993972807,913 615 521, 
2198,Teatro Infanta Isabel," El Teatro Infanta Isabel, conocido antes como 'Cinema Nacional' o 'Petit Palais', es una de las salas de teatro más antiguas de la ciudad, está situado en la calle Barquillo muy cerca de la Gran Vía. "," Metro: Banco de España (línea 2), Chueca (línea 5)  Bus: 3, 5, 14, 37, 45, 53, 146, 150  Renfe: Recoletos ",0,http://www.madrid.es/vgn-ext-templating/v/index.jsp?vgnextchannel=9e4c43db40317010VgnVCM100000dc0ca8c0RCRD&vgnextoid=777c8c7c0f91f010VgnVCM1000000b205a0aRCRD,BARQUILLO,CALLE,24,MADRID,MADRID,28004,JUSTICIA,CENTRO,441102,4475061,40.42221671356561,-3.6955867306586354,915 210 212, 
2182,Teatro la Latina," Con casi un siglo de actividad escénica, desde que en 1919 fuera inaugurado como cinematógrafo, ha sido estirpe de artistas que forman parte del patrimonio teatral español, sede de empresarios, centro de trabajo de miles de profesionales y receptor de los aplausos de millones de espectadores.  Obra del arquitecto Pedro Muguruza. Ha sido uno de los escenarios más importantes para la representación de comedia y revista en la historia del teatro a lo largo del siglo  XX .   Debe su nombre a Beatriz Galindo, llamda 'la Latina', escritora y humanista española del siglo  XV . "," Metro: La Latina (Línea 5)  Bus: 17, 18, 23, 31, 35, 50, 60, 61, M1 ",0,http://www.madrid.es/vgn-ext-templating/v/index.jsp?vgnextchannel=9e4c43db40317010VgnVCM100000dc0ca8c0RCRD&vgnextoid=7d9c8c7c0f91f010VgnVCM1000000b205a0aRCRD,CEBADA,PLAZA,2,MADRID,MADRID,28005,PALACIO,CENTRO,439973,4473869,40.411397795053,-3.708781739576842,913 652 835, 
79864,Teatro Lagrada," Sala de teatro alternativo, situada en la zona de Embajadores, donde se apuesta por la mezcla de diferentes manifestaciones artísticas como la fotografía, la música, la pintura y el propio teatro, haciendo especial hincapié en la representación de obras de nuevos autores.   Además de ser un espacio de representación artística, también lo es de formación, ya que, cuenta con una academia de actores donde se trabajan la interpretación, el entrenamiento corporal y vocal, la música y el canto. "," Metro: Embajadores (línea 3)  Bus: 34, 36, 60, 62, 78, 116, 118, 119, 148, E1  Renfe: Embajadores ",0,http://www.madrid.es/vgn-ext-templating/v/index.jsp?vgnextchannel=9e4c43db40317010VgnVCM100000dc0ca8c0RCRD&vgnextoid=70bc8c7c0f91f010VgnVCM1000000b205a0aRCRD,ERCILLA,CALLE,20,MADRID,MADRID,28005,ACACIAS,ARGANZUELA,440465,4472898,40.40268595360097,-3.70289238039068,915 179 698, 
2208,Teatro Lara," Es un espacio plural que da cabida a la música, a la poesía o a cualquier expresión artística, y que congrega a un público fiel y exigente.   Fue construido en 1879 e inaugurado el 3 de septiembre del año siguiente. Es uno de los teatros más llamativos de la Comunidad de Madrid desde el punto de vista arquitectónico. "," Metro: Callao (líneas 3, 5), Santo Domingo (línea 2)  Bus: 1, 2, 44, 46, 74, 75, 133, 146, 147, 148, M2 ",0,http://www.madrid.es/vgn-ext-templating/v/index.jsp?vgnextchannel=9e4c43db40317010VgnVCM100000dc0ca8c0RCRD&vgnextoid=73cc8c7c0f91f010VgnVCM1000000b205a0aRCRD,CORREDERA BAJA DE SAN PABLO,CALLE,15,MADRID,MADRID,28004,UNIVERSIDAD,CENTRO,440350,4475052,40.42208196713365,-3.7044498348290293,915 239 027, 
17338,Teatro Lope de Vega, Se trata de un escenario legendario especializado en musicales de gran formato y montajes espectaculares. Su privilegiada ubicación en la Gran Vía y la ambición de sus producciones hacen de ella una de las salas más significativas y reconocidas del circuito madrileño.  ," Metro: Santo Domingo (línea 2), Plaza de España (línea 3, 10), Callao (líneas 3, 5)  Bus: 1, 2, 3, 44, 46, 74, 75, 133, 138, 146, 147, 148, C1, C2 ",1,http://www.madrid.es/vgn-ext-templating/v/index.jsp?vgnextchannel=9e4c43db40317010VgnVCM100000dc0ca8c0RCRD&vgnextoid=79ec8c7c0f91f010VgnVCM1000000b205a0aRCRD,GRAN VÍA,CALLE,57,MADRID,MADRID,28013,PALACIO,CENTRO,439974,4475034,40.42189272510087,-3.7088800933302783,915 472 011, 
174142,Teatro Maravillas,"Situado en el céntrico barrio de Malasaña. Inaugurado en 1886, tras cinco años de obras, vuelve a abrir sus puertas en el 2005, ."," Metro: Bilbao (línea 1, 4), San Bernardo (línea 2, 4)  Bus: 3, 21, 40, 147, 149 ",1,http://www.madrid.es/vgn-ext-templating/v/index.jsp?vgnextchannel=9e4c43db40317010VgnVCM100000dc0ca8c0RCRD&vgnextoid=f8608c89dd91f010VgnVCM2000000c205a0aRCRD,MANUELA MALASAÑA,CALLE,6,MADRID,MADRID,28004,UNIVERSIDAD,CENTRO,440470,4475783,40.428675760717795,-3.703103946758172,914 468 405, 
2191,Teatro María Guerrero. Centro Dramático Nacional," El teatro María Guerrero fue inaugurado en 1885 como teatro de la Princesa y declarado por el Ministerio de Cultura en 1996 Bien de Interés Cultural. En la actualidad cuenta con un segundo espacio para espectáculos de pequeño formato, con una capacidad máxima de 120 espectadores. "," Metro: Colón (línea 4), Banco de España (línea 2), Chueca (línea 5).  Bus: 5, 14, 27, 37, 45, 53, 150.  Renfe: Recoletos. ",0,http://www.madrid.es/vgn-ext-templating/v/index.jsp?vgnextchannel=9e4c43db40317010VgnVCM100000dc0ca8c0RCRD&vgnextoid=3cfc8c7c0f91f010VgnVCM1000000b205a0aRCRD,TAMAYO Y BAUS,CALLE,4,MADRID,MADRID,28004,JUSTICIA,CENTRO,441316,4475134,40.42288948179915,-3.693071021887218,913 101 500, 
2184,Teatro Marquina,Inaugurado en 1962. En 1996 fue derribado para levantarlo nuevamente con más adelantos. Dos años más tarde se reinauguró.," Metro: Banco de España (línea 2), Chueca (línea 5).  Bus: 5, 14, 27, 37, 45, 53, 150.  Renfe: Recoletos. ",0,http://www.madrid.es/vgn-ext-templating/v/index.jsp?vgnextchannel=9e4c43db40317010VgnVCM100000dc0ca8c0RCRD&vgnextoid=fe0d8c7c0f91f010VgnVCM1000000b205a0aRCRD,PRIM,CALLE,11,MADRID,MADRID,28004,JUSTICIA,CENTRO,441258,4475031,40.42195750772574,-3.6937451531542638,915 328 554, 
2131,Teatro Monumental,Es el teatro donde la Orquesta y el Coro de Radio Televisión Española realiza sus actuaciones desde los años 60," Metro: Antón Martín (Línea 1)  Bus: 6, 26, 32, M1 ",1,http://www.madrid.es/vgn-ext-templating/v/index.jsp?vgnextchannel=9e4c43db40317010VgnVCM100000dc0ca8c0RCRD&vgnextoid=96f0ff632081c010VgnVCM1000000b205a0aRCRD,ATOCHA,CALLE,65,MADRID,MADRID,28012,CORTES,CENTRO,440789,4473983,40.41248331678507,-3.6991755805601443,914 291 281, 
4077,Teatro Municipal de Títeres de El Retiro al Aire Libre,"Dentro del parque de El Retiro, muy cerca de la entrada desde la plaza de la Independencia, donde se encuentra la Puerta de Alcalá, está el Teatro de Títeres, toda una institución para el público infantil madrileño.   Este teatro permanente de títeres ofrece casi todos los sábados y domingos un espectáculo en el que las artes plásticas, la interpretación, la música y la literatura se conjugan de manera magistral."," Metro: Retiro (línea 2).  Bus: 1, 2, 9, 15, 19, 20, 28, 51, 52, 79, 146 y 202. ",1,http://www.madrid.es/vgn-ext-templating/v/index.jsp?vgnextchannel=9e4c43db40317010VgnVCM100000dc0ca8c0RCRD&vgnextoid=784d8c7c0f91f010VgnVCM1000000b205a0aRCRD,MÉXICO,AVENIDA,4,MADRID,MADRID,28009,LOS JERÓNIMOS,RETIRO,441857,4474674,40.41878362561595,-3.6866519471003647,670 723 360 / 917 924 112 (sólo mañanas) (Asociación Cultural Titirilandia) , 
2185,Teatro Muñoz Seca,"El teatro Muñoz Seca se encuentra en pleno centro de Madrid, en una ubicación privilegiada y muy turística. La sala ofrece una amplia variedad de obras teatrales. "," Metro: Sol (línea 1, 2, 3), Gran Vía (línea 1, 5).  Bus: 1 , 2 , 3, 46, 50, 51, 74, 146, M2.  Renfe: Sol. ",0,http://www.madrid.es/vgn-ext-templating/v/index.jsp?vgnextchannel=9e4c43db40317010VgnVCM100000dc0ca8c0RCRD&vgnextoid=7b5d8c7c0f91f010VgnVCM1000000b205a0aRCRD,CARMEN,PLAZA,1,MADRID,MADRID,28013,SOL,CENTRO,440446,4474643,40.41840439358014,-3.7032798991593827,915 232 128 , 
2186,Teatro Nuevo Apolo," El teatro Nuevo Apolo, con 1000 butacas, es el teatro musical por excelencia de la ciudad. Situado en la zona centro, en la plaza de Tirso de Molina, en él se han representado grandes producciones como Los Miserables o Chicago. También tienen lugar espectáculos de humor y danza. "," Metro: Tirso de Molina (línea 1).  Bus: 6, 26, 32, 65, M1. ",1,http://www.madrid.es/vgn-ext-templating/v/index.jsp?vgnextchannel=9e4c43db40317010VgnVCM100000dc0ca8c0RCRD&vgnextoid=7e6d8c7c0f91f010VgnVCM1000000b205a0aRCRD,TIRSO DE MOLINA,PLAZA,1,MADRID,MADRID,28012,EMBAJADORES,CENTRO,440433,4473970,40.41234075831118,-3.703369987899476,918 554 162, 
81184,Teatro Pavón (Compañía Nacional de Teatro Clásico)," El teatro Pavón, inaugurado en 1925, vivió una época de decadencia y cerró durante unos años. Fue reinaugurado en el año 2000. Este escenario acoge temporalmente los montajes de la Compañía Nacional de Teatro Clásico, con representaciones de obras de autores clásicos como Tirso de Molina, Lope de Vega, Rojas Zorrilla o Calderón de la Barca. "," Metro: Latina (línea 5)  Bus: 17, 18, 23, 35, M1 ",0,http://www.madrid.es/vgn-ext-templating/v/index.jsp?vgnextchannel=9e4c43db40317010VgnVCM100000dc0ca8c0RCRD&vgnextoid=b49d8c7c0f91f010VgnVCM1000000b205a0aRCRD,EMBAJADORES,CALLE,9,MADRID,MADRID,28012,EMBAJADORES,CENTRO,440191,4473715,40.410026211183464,-3.7061980491148603,915 282 819 (taquilla), 
2202,Teatro Pradillo," Teatro Pradillo reabrió sus puertas como centro de investigación y creación en abril de 2012 con la intención de ofrecerse como un espacio vivo que aspira a incidir en la vida pública y cultural, y a estar permanentemente conectado con la sociedad de la que forma parte .   "," Metro: Concha Espina (línea 9).  Bus: 9, 16, 19, 29, 52, 73. ",0,http://www.madrid.es/vgn-ext-templating/v/index.jsp?vgnextchannel=9e4c43db40317010VgnVCM100000dc0ca8c0RCRD&vgnextoid=f7ad8c7c0f91f010VgnVCM1000000b205a0aRCRD,PRADILLO,CALLE,12,MADRID,MADRID,28002,CIUDAD JARDÍN,CHAMARTIN,442894,4477972,40.44856560554628,-3.6747261219408607,914 169 011, 
31360,Teatro Príncipe Gran Vía," Este teatro madrileño lleva en su nombre el de la calle con la que prácticamente hace esquina, llamándose: Príncipe Gran Vía. Está especializado en comedia.  "," Metro: Gran Vía (líneas 1, 5), Callao (líneas 3, 5), Sol (líneas 1, 2, 3).  Bus: 1, 2, 3, 46, 74, 146, M2.  Renfe: Sol. ",0,http://www.madrid.es/vgn-ext-templating/v/index.jsp?vgnextchannel=9e4c43db40317010VgnVCM100000dc0ca8c0RCRD&vgnextoid=fabd8c7c0f91f010VgnVCM1000000b205a0aRCRD,TRES CRUCES,CALLE,8,MADRID,MADRID,28013,SOL,CENTRO,440491,4474755,40.41941656735497,-3.702760005318704,915 318 514, 
7089081,Teatro Quevedo,"El Teatro Quevedo es una apuesta personal del productor Luis Antonio Rodríguez.  El teatro cuenta con 150 butacas y, además de las artes escénicas, tiene otro protagonista, el microcine. El nombre de este espacio hace referencia a uno de los literatos más importantes del Siglo de Oro, Francisco de Quevedo, y aprovecha su proximidad de la glorieta dedicada al mismo."," Metro: Quevedo (línea 2), Canal (líneas 2, 7)  Bus: 3, 16, 37, 61, 149 ",0,http://www.madrid.es/vgn-ext-templating/v/index.jsp?vgnextchannel=9e4c43db40317010VgnVCM100000dc0ca8c0RCRD&vgnextoid=efa38bdc9a6e0410VgnVCM1000000b205a0aRCRD,BRAVO MURILLO,CALLE,18,MADRID,MADRID,28015,TRAFALGAR,CHAMBERI,440390,4476553,40.43560652525375,-3.704119358317509,"914 457 193                  
                       
", 
2187,Teatro Reina Victoria," Inaugurado el 10 de junio de 1916, fue construido según los planos del arquitecto José Espelius. Para la apertura, presidida por los reyes don Alfonso XIII y doña Victoria Eugenia, se eligió la obra El capricho de las damas.   La fachada es una de las más singulares de los teatros madrileños, con vidrieras de Maumejean y mosaicos de Talavera.  Tiene capacidad para más de 600 espectadores. De la decoración original del interior no queda ningún elemento. Sobre el patio de butacas se ve una claraboya que en sus primeros años se abría para ventilar la sala.  Durante la II República se llamó simplemente Victoria y en octubre de 1936 fue rebautizado con el nombre del dramaturgo Joaquín Dicenta. Aunque en su primera etapa produjo numerosos espectáculos musicales, acabó por ser uno de los teatros especializados en alta comedia. Y así sigue, dirigido actualmente por el empresario Enrique Cornejo. "," Metro: Sol (líneas 1, 2 , 3) , Sevilla (línea 2)  Bus: 3, 5, 9, 15, 20, 46, 51, 52, 53, 150, M1, M2  Renfe: Sol ",0,http://www.madrid.es/vgn-ext-templating/v/index.jsp?vgnextchannel=9e4c43db40317010VgnVCM100000dc0ca8c0RCRD&vgnextoid=1bfd8c7c0f91f010VgnVCM1000000b205a0aRCRD,SAN JERONIMO,CARRERA,24,MADRID,MADRID,28014,CORTES,CENTRO,440738,4474431,40.41651548060074,-3.699818451104129,913 692 288, 
17361,Teatro Rialto,"El teatro, situado en pleno corazón de la Gran Vía, tiene una capacidad para 1000 espectadores y es resultado de las obras de transformación del antiguo cine en un moderno escenario teatral. "," Metro: Santo Domingo (línea 2) , Callao (líneas 3, 5), Gran Via (líneas 1, 5), Plaza de España (líneas 3, 10)  Bus: 1, 2, 3, 44, 46, 74, 75, 133, 146, 147, 148 ",1,http://www.madrid.es/vgn-ext-templating/v/index.jsp?vgnextchannel=9e4c43db40317010VgnVCM100000dc0ca8c0RCRD&vgnextoid=b12d8c7c0f91f010VgnVCM1000000b205a0aRCRD,GRAN VIA,CALLE,54,MADRID,MADRID,28013,UNIVERSIDAD,CENTRO,440101,4474977,40.42138841205714,-3.707377753413243,910 839 500 (Taquilla), 
2205,Teatro Sala Cuarta Pared," Centro de formación, investigación y producción teatral independiente creado en 1985 por un grupo de personas de diferentes procedencias teatrales. Entonces apostaron por una línea de continuidad frente a proyectos efímeros de mero interés económico. Su objetivo era convertirse en un núcleo dinamizador en una situación teatral con síntomas de parálisis. Hoy en día es un lugar de encuentro para todos los que pretenden vivir y conocer el teatro de una forma diferente.  "," Metro: Embajadores (línea 3), Acacias (línea 5)  Bus: 27, 34, 36, 41, 60, 78, 116, 118, 119, 148, C  Renfe: Embajadores ",1,http://www.madrid.es/vgn-ext-templating/v/index.jsp?vgnextchannel=9e4c43db40317010VgnVCM100000dc0ca8c0RCRD&vgnextoid=4c0208231f91f010VgnVCM2000000c205a0aRCRD,ERCILLA,CALLE,17,MADRID,MADRID,28005,ACACIAS,ARGANZUELA,440480,4472908,40.402777112937486,-3.7027165608127723,915 172 317, 
2189,Teatro Sanpol," El teatro Sanpol es pionero en España al dedicarse en exclusiva al público infantil y juvenil. Dispone de una programación anual estable, que va de septiembre a junio.  "," Metro: Príncipe Pío (Líneas 6, 10, R)  Bus: 41, 46, 75  Renfe: Príncipe Pío ",0,http://www.madrid.es/vgn-ext-templating/v/index.jsp?vgnextchannel=9e4c43db40317010VgnVCM100000dc0ca8c0RCRD&vgnextoid=331e8c7c0f91f010VgnVCM1000000b205a0aRCRD,SAN POL DE MAR,CALLE,1,MADRID,MADRID,28008,CASA DE CAMPO,MONCLOA-ARAVACA,438473,4475274,40.4239449097705,-3.7265957347882104,915 419 089, 
135051,Teatro Tribueñe," De la mano del joven director y artista Hugo Pérez Rodríguez de la Pica y de la directora ucraniana Irina Kouberskaya , nace el Teatro Tribueñe en 2003. Un antiguo almacén de ferretería convertido en espacio teatral.  Se trata de una sencilla y acogedora sala, situada en los alrededores de la plaza de toros de las Ventas, cuya programación combina textos dramáticos con algunas obras más innovadoras y actuales.  Algunas de las obras representadas en el teatro han sido:  La casa de Bernarda Alba,   Por los ojos de Raquel Meller ,  Bodas de sangre ,  Dónde mira el ruiseñor cuando cruje una rama,  entre otras. Tanto Hugo Pérez como Irina Kouberskaya han recibido galardones como  El Ojo Crítico  de  RNE  en 2012 y el premio a la Mejor Dirección por  La casa de Bernarda Alba  de Federico García Lorca, entre otros.  "," Metro: Ventas (líneas 2, 5), Manuel Becerra (líneas 2, 6)  Bus: 12, 110, 210 ",0,http://www.madrid.es/vgn-ext-templating/v/index.jsp?vgnextchannel=9e4c43db40317010VgnVCM100000dc0ca8c0RCRD&vgnextoid=96df2189cb81c010VgnVCM1000000b205a0aRCRD,SANCHO DAVILA,CALLE,31,MADRID,MADRID,28028,FUENTE DEL BERRO,SALAMANCA,443988,4475411,40.425569368259886,-3.6615996399032054,912 427 727 / 913 553 390, 
173052,Teatro Valle Inclán. Centro Drámatico Nacional," Antiguo edificio del Teatro Olimpia, que se inauguró en 1926 para inmediatamente después funcionar como sala cinematográfica. En 1974 se estrenó como sala de teatro y treinta años después pasa a depender del Centro Dramático Nacional. Tras una intensa remodelación y modernización de las instalaciones, en 2006 se reinaugura como Teatro Valle-Inclán en el barrio de Lavapiés.  Cuenta con dos modernos escenarios, el principal con aforo de 510 butacas y la denominada Sala Francisco Neiva, con disposición a la italiana y 150 butacas. Funciona como segunda sede del Centro Dramático Nacional y acoge la representación de la mitad de las obras de su programa, así como la visita de compañías extranjeras. "," Metro: Lavapiés (línea 3)  Bus: 27, 34, 36, 41, 78, 119, C1, C2, E1, M1  Renfe: Embajadores ",0,http://www.madrid.es/vgn-ext-templating/v/index.jsp?vgnextchannel=9e4c43db40317010VgnVCM100000dc0ca8c0RCRD&vgnextoid=67c08c89dd91f010VgnVCM2000000c205a0aRCRD,VALENCIA,CALLE,1,MADRID,MADRID,28012,EMBAJADORES,CENTRO,440674,4473487,40.40800690285846,-3.7004845788684912,915 058 801 , 
174525,Teatro Victoria," El Teatro Victoria, situado en el barrio de  Malasaña , ofrece una cuidada selección de obras de teatro; comedias, monólogos, musicales y teatro infantil. Pretende rescatar obras clásicas intentando aportar en ellas las nuevas técnicas y aportaciones artísticas que ofrece la modernidad "," Metro: Noviciado (línea 2) Santo Domingo (línea 2), Plaza de España (líneas 2, 3, 10)  Bus: 1, 2, 3, 44, 46, 74, 75, 133, 146, 147, 148, M2 ",0,http://www.madrid.es/vgn-ext-templating/v/index.jsp?vgnextchannel=9e4c43db40317010VgnVCM100000dc0ca8c0RCRD&vgnextoid=cbe08c89dd91f010VgnVCM2000000c205a0aRCRD,PEZ,CALLE,17,MADRID,MADRID,28004,UNIVERSIDAD,CENTRO,440253,4475242,40.42378660181596,-3.705611071847053,915 228 730 , 
187464,Teatro. ArtEspacio Plot Point," Plot Point tiene su propia compañía teatral y ofrece un programa muy completo de representaciones. Además de sala de  espectáculos, también es escuela de teatro, cine y televisión donde los nuevos talentos pueden desarrollarse y vivir la interpretación de forma apasionada.  "," Metro: Embajadores (línea 3), Acacias (línea 5)  Bus: 34, 36, 55, 60, 78, 116, 118, 119, 148 ",0,http://www.madrid.es/vgn-ext-templating/v/index.jsp?vgnextchannel=9e4c43db40317010VgnVCM100000dc0ca8c0RCRD&vgnextoid=ea2dd2bec675e010VgnVCM1000000b205a0aRCRD,ERCILLA,CALLE,29,MADRID,MADRID,28005,ACACIAS,ARGANZUELA,440536,4472813,40.40192531437177,-3.7020477784084793,914 749 765, 
5000655,Teatros del Canal," Moderno complejo de 35.200 metros cuadrados dedicados a las artes escénicas. El edificio, Premio Nacional de Arquitectura, es obra del arquitecto Juan Navarro Baldeweg y fue inaugurado en 2009 con las últimas novedades tecnológicas en el barrio de Chamberí.   Se compone de dos modernos teatros (Sala Roja y Sala Verde), una sala de ensayos (Sala Negra) y el Centro Danza Canal.  Su programación apuesta por la calidad técnica y la excelencia artística. La sala acoge desde textos clásicos y piezas modernas hasta conciertos, danza, flamenco, zarzuela, ópera, circo o cabaret. "," Metro: Canal (líneas 2, 7)  Bus: 3, 12, 37, 149 ",1,http://www.madrid.es/vgn-ext-templating/v/index.jsp?vgnextchannel=9e4c43db40317010VgnVCM100000dc0ca8c0RCRD&vgnextoid=8f63986ba58bc110VgnVCM1000000b205a0aRCRD,CEA BERMUDEZ,CALLE,1,MADRID,MADRID,28003,ARAPILES,CHAMBERI,440312,4476879,40.43854675141601,-3.705057921443053,"913 089 999  / 913 089 950                  
                  
", 
