PK;NOMBRE;DESCRIPCION-ENTIDAD;HORARIO;EQUIPAMIENTO;TRANSPORTE;DESCRIPCION;ACCESIBILIDAD;CONTENT-URL;NOMBRE-VIA;CLASE-VIAL;TIPO-NUM;NUM;PLANTA;PUERTA;ESCALERAS;ORIENTACION;LOCALIDAD;PROVINCIA;CODIGO-POSTAL;BARRIO;DISTRITO;COORDENADA-X;COORDENADA-Y;LATITUD;LONGITUD;TELEFONO;FAX;EMAIL;TIPO;
6696;"Centro Superior de Diseño de Moda de Madrid (Centro Adscrito a la UPM)";"";"";"";" Metro: Sierra de Guadalupe (línea 1)   Bus: E (Intercambiador Plaza del Conde de Casal)  Renfe: C2 y C7. Estación de Vallecas   ";"  Estudios de grado    Diseño de moda   Otros cursos  ";"0";"http://www.madrid.es/vgn-ext-templating/v/index.jsp?vgnextchannel=9e4c43db40317010VgnVCM100000dc0ca8c0RCRD&vgnextoid=16c17b503a71c010VgnVCM1000000b205a0aRCRD";"VALENCIA";"CARRETERA";"V";"KM. 7";"BAJA";"";"";"BLOQUE I";"MADRID";"MADRID";"28031";"";"PUENTE DE VALLECAS";"440694";"4473432";"40.4075128634897";"-3.7002437498687986";"913 310 126";"";"secgen@csdmm@upm.es";"/contenido/entidadesYorganismos/Universidades/OtrosCentrosUniversitarios"; 
6383;"Centro Superior de Estudios Universitarios La Salle";"";"";"";" Bus: 161, 162  Cercanías Renfe: Aravaca (C-4) ";"  Titulaciones :    Educación Infantil  Educación Infantil semipresencial  Educación Primaria  Educación Primaria Semipresencial  Simultaneidad Grado en Educación Infantil + Grado en Educación Primaria  Educación Social  Educación Social Semipresencial  Trabajo Social  Trabajo Social Semipresencial  Simultaneidad Grado en Trabajo Social + Educación Social  Terapia Ocupacional  Fisioterapia    Titulaciones de Postgrado  ";"0";"http://www.madrid.es/vgn-ext-templating/v/index.jsp?vgnextchannel=9e4c43db40317010VgnVCM100000dc0ca8c0RCRD&vgnextoid=5289ae10c471c010VgnVCM1000000b205a0aRCRD";"LA SALLE";"CALLE";"V";"10";"";"";"";"";"MADRID";"MADRID";"28023";"VALDEMARIN";"MONCLOA-ARAVACA";"433813";"4480013";"40.46627682124755";"-3.7820191806815187";"917 401 609 / 917 401 980 (Información)";"913 571 730";"";"/contenido/entidadesYorganismos/Universidades/EscuelasUniversitarias"; 
6507;"Colegio Mayor Antonio de Nebrija";"Colegio universitario masculino y femenino que dispone de 115 plazas (99 habitaciones individuales y 8 dobles).";"";"";" Metro: Moncloa (líneas 3 y 6)  y Ciudad Universitaria (línea 6)  Bus: 42, 82, 83, 132, 133, 160, 161, 162, A ";"";"0";"http://www.madrid.es/vgn-ext-templating/v/index.jsp?vgnextchannel=9e4c43db40317010VgnVCM100000dc0ca8c0RCRD&vgnextoid=77453b54d771c010VgnVCM1000000b205a0aRCRD";"SENECA";"AVENIDA";"V";"8";"";"";"";"";"MADRID";"MADRID";"28040";"CIUDAD UNIVERSITARIA";"MONCLOA-ARAVACA";"438308";"4476644";"40.43627417989226";"-3.728673853584004";"915 504 300";"913 941 093";"direccion_nebrija@rect.ucm.es / dnebri@net.ucm.es";"/contenido/entidadesYorganismos/Universidades/ColegiosMayores"; 
6548;"Colegio Mayor Aquinas (Santo Tomás de Aquino)";"Colegio universitario masculino que dispone de 175 plazas (habitaciones individuales y 8 dobles).";" ";"";" Metro: Metropolitano (línea 6) y Ciudad Universitaria (línea 6) y Francos Rodríguez (línea 7).  Bus: 82, 132, U, F, I, G. ";"";"0";"http://www.madrid.es/vgn-ext-templating/v/index.jsp?vgnextchannel=9e4c43db40317010VgnVCM100000dc0ca8c0RCRD&vgnextoid=b3e73b54d771c010VgnVCM1000000b205a0aRCRD";"LEONARDO PRIETO CASTRO";"CALLE";"V";"6";"";"";"";"";"MADRID";"MADRID";"28040";"CIUDAD UNIVERSITARIA";"MONCLOA-ARAVACA";"438901";"4478389";"40.45204669033717";"-3.7218508847849634";"915 438 800";"915 446 907";"director@aquinas.es / aquinas@aquinas.es";"/contenido/entidadesYorganismos/Universidades/ColegiosMayores"; 
6522;"Colegio Mayor Fundación SEPI";"Colegio universitario masculino y femenino que dispone de 156 plazas.";"";"";" Metro: Metropolitano (línea 6)  Bus: 132, C1, C2 ";"";"1";"http://www.madrid.es/vgn-ext-templating/v/index.jsp?vgnextchannel=9e4c43db40317010VgnVCM100000dc0ca8c0RCRD&vgnextoid=a3163b54d771c010VgnVCM1000000b205a0aRCRD";"GREGORIO DEL AMO";"AVENIDA";"V";"2";"";"";"";"";"MADRID";"MADRID";"28040";"CIUDAD UNIVERSITARIA";"MONCLOA-ARAVACA";"439152";"4477817";"40.44691241011282";"-3.7188243117013347";"915 336 812";"915 548 758";"colegiomayor@fundacionsepi.es";"/contenido/entidadesYorganismos/Universidades/ColegiosMayores"; 
6519;"Colegio Mayor Isabel de España";" Colegio universitario masculino y femenino que dispone de 160 plazas (todas las habitaciones individuales con baño, 150 plazas para universitarios y 10 plazas para posgraduados). ";"";"";" Metro: Metropolitano (línea 6)  Bus: 132, C1, C2 ";"";"0";"http://www.madrid.es/vgn-ext-templating/v/index.jsp?vgnextchannel=9e4c43db40317010VgnVCM100000dc0ca8c0RCRD&vgnextoid=5b463b54d771c010VgnVCM1000000b205a0aRCRD";"DON RAMON MENENDEZ PIDAL";"CALLE";"V";"5";"";"";"";"";"MADRID";"MADRID";"28040";"CIUDAD UNIVERSITARIA";"MONCLOA-ARAVACA";"439055";"4477989";"40.44845466186277";"-3.7199964073881437";"915 336 104";"915 531 033";"cmisabel@cmisabel.com";"/contenido/entidadesYorganismos/Universidades/ColegiosMayores"; 
6521;"Colegio Mayor Jorge Juan";"Colegio universitario masculino y femenino que dispone de 117 plazas (todas las habitaciones individuales).";"";"";" Metro: Moncloa (línea 3 y 6) y Ciudad Universitaria (línea 6).  Bus: 46, 160, 161, A ";"";"0";"http://www.madrid.es/vgn-ext-templating/v/index.jsp?vgnextchannel=9e4c43db40317010VgnVCM100000dc0ca8c0RCRD&vgnextoid=70763b54d771c010VgnVCM1000000b205a0aRCRD";"SENECA";"AVENIDA";"V";"14";"";"";"";"";"MADRID";"MADRID";"28040";"CIUDAD UNIVERSITARIA";"MONCLOA-ARAVACA";"438045";"4476495";"40.43492142749534";"-3.7317482607656736";"915 507 100";"915 507 244";"secretaria@cmjorgejuan.es";"/contenido/entidadesYorganismos/Universidades/ColegiosMayores"; 
6523;"Colegio Mayor Juan Luis Vives";" Colegio mayor universitario mixto que dispone de 135 plazas (107 habitaciones para alumnos de titulaciones de Grado; 8 habitaciones para alumnos de Máster y Doctorado; 12 habitaciones adaptadas; 8 habitaciones para profesores).  Pertenece a la Universidad Autónoma de Madrid. ";"";"";" Metro: Plaza de Castilla (líneas 1, 9 y 10).  Bus: 5, 66, 70, 107, 129, 174  Renfe: Chamartín. ";"";"1";"http://www.madrid.es/vgn-ext-templating/v/index.jsp?vgnextchannel=9e4c43db40317010VgnVCM100000dc0ca8c0RCRD&vgnextoid=03863b54d771c010VgnVCM1000000b205a0aRCRD";"FRANCISCO SUAREZ";"CALLE";"V";"7";"";"";"";"";"MADRID";"MADRID";"28036";"NUEVA ESPAÑA";"CHAMARTIN";"442071";"4479804";"40.46502103311075";"-3.684598375537024";"914 979 900";"914 979 901";"cmluisvives@uam.es";"/contenido/entidadesYorganismos/Universidades/ColegiosMayores"; 
6524;"Colegio Mayor Juan XXIII Roncalli";"Colegio universitario femenino que disponde de 165 plazas (125 habitaciones individuales y 20 dobles).";"";"";" Metro: Metropolitano (línea 6), Guzmán el Bueno (líneas 6, 7)  Bus: 132, C1, C2 ";"";"1";"http://www.madrid.es/vgn-ext-templating/v/index.jsp?vgnextchannel=9e4c43db40317010VgnVCM100000dc0ca8c0RCRD&vgnextoid=e808a4ea6871c010VgnVCM1000000b205a0aRCRD";"RAMIRO DE MAEZTU";"CALLE";"V";"3";"";"";"";"";"MADRID";"MADRID";"28040";"CIUDAD UNIVERSITARIA";"MONCLOA-ARAVACA";"439221";"4478053";"40.44903436609761";"-3.7180450242710723";"915 339 409";"915 345 930";"direccion@roncalli.es";"/contenido/entidadesYorganismos/Universidades/ColegiosMayores"; 
6527;"Colegio Mayor Loyola";" Colegio universitario masculino y femenino que dispone de 200 plazas (habitaciones individuales con baño completo, calefación, aire acondicionado y toma de internet). ";"";"";" Metro: Metropolitano (línea 6), Guzmán el Bueno (líneas 6, 7)  Bus: 144, 127, 132, C2 ";"";"1";"http://www.madrid.es/vgn-ext-templating/v/index.jsp?vgnextchannel=9e4c43db40317010VgnVCM100000dc0ca8c0RCRD&vgnextoid=95963b54d771c010VgnVCM1000000b205a0aRCRD";"JUAN XXIII";"PASEO";"V";"17";"";"";"";"";"MADRID";"MADRID";"28040";"CIUDAD UNIVERSITARIA";"MONCLOA-ARAVACA";"439442";"4478156";"40.449978389398126";"-3.7154488731293913";"915 340 404";"915 352 205";"secretaria@cmuloyola.org";"/contenido/entidadesYorganismos/Universidades/ColegiosMayores"; 
6528;"Colegio Mayor Mara";"Colegio universiario que dispone de 212 plazas (todas habitaciones individuales con cuarto de baño dentro).";"";"";" Metro: Metropolitano (línea 6), Guzmán el Bueno (líneas 6, 7)  Bus: 44, 27, 132, C2 ";"";"0";"http://www.madrid.es/vgn-ext-templating/v/index.jsp?vgnextchannel=9e4c43db40317010VgnVCM100000dc0ca8c0RCRD&vgnextoid=28a63b54d771c010VgnVCM1000000b205a0aRCRD";"JUAN XXIII";"PASEO";"V";"15";"";"";"";"";"MADRID";"MADRID";"28040";"CIUDAD UNIVERSITARIA";"MONCLOA-ARAVACA";"439386";"4478112";"40.44957800403512";"-3.716093224725081";"915 536 932";"";"915 536 603 / 604";"/contenido/entidadesYorganismos/Universidades/ColegiosMayores"; 
6529;"Colegio Mayor Marqués de la Ensenada";"Colegio universitario masculino y femenino que dispone de 264 plazas (136 habitaciones individuales y 64 dobles, más 8 individuales para discapacitados; todas ellas disponen de baño completo).";"";"";" Metro: Moncloa (línea 3 y 6), Ciudad Universitaria (línea 6)  Bus: 46, 160, 161, A ";"";"1";"http://www.madrid.es/vgn-ext-templating/v/index.jsp?vgnextchannel=9e4c43db40317010VgnVCM100000dc0ca8c0RCRD&vgnextoid=bab63b54d771c010VgnVCM1000000b205a0aRCRD";"SENECA";"AVENIDA";"V";"18";"";"";"";"";"MADRID";"MADRID";"28040";"CIUDAD UNIVERSITARIA";"MONCLOA-ARAVACA";"437892";"4476443";"40.43443255155735";"-3.7335468357846042";"915 497 100";"915 495 501";"info@cmumarquesdelaensenada.com";"/contenido/entidadesYorganismos/Universidades/ColegiosMayores"; 
6530;"Colegio Mayor Méndel";"Colegio universitario masculino que dispone de 270 plazas (todas las habitaciones individuales, 95 con baño compartido y 175 con baño propio).";"";"";" Metro: Metropolitano (línea 6) y Guzmán el Bueno (líneas 6, 7)  Bus: 44, 132, C2 ";"";"0";"http://www.madrid.es/vgn-ext-templating/v/index.jsp?vgnextchannel=9e4c43db40317010VgnVCM100000dc0ca8c0RCRD&vgnextoid=4dc63b54d771c010VgnVCM1000000b205a0aRCRD";"RECTOR ROYO-VILLANOVA";"CALLE";"V";"6";"";"";"";"";"MADRID";"MADRID";"28040";"CIUDAD UNIVERSITARIA";"MONCLOA-ARAVACA";"439327";"4478262";"40.450924877921025";"-3.71681509696577";"915 340 700";"915 341 003";"mendel@cmmendel.com";"/contenido/entidadesYorganismos/Universidades/ColegiosMayores"; 
6531;"Colegio Mayor Moncloa";"Colegio universitario masculino que dispone de 93 plazas (42 habitaciones individuales y 17 triples).";"";"";" Metro: Metropolitano (línea 6), Guzmán el Bueno (línea 6 y 7)  Bus: 2, 45, 132, 202, C1, C2, F ";"";"0";"http://www.madrid.es/vgn-ext-templating/v/index.jsp?vgnextchannel=9e4c43db40317010VgnVCM100000dc0ca8c0RCRD&vgnextoid=dfd63b54d771c010VgnVCM1000000b205a0aRCRD";"MONCLOA";"AVENIDA";"V";"3";"";"";"";"";"MADRID";"MADRID";"28003";"VALLEHERMOSO";"CHAMBERI";"439437";"4477700";"40.44587019420187";"-3.7154642696633164";"915 338 500";"915 336 248";"info@cmmoncloa.org";"/contenido/entidadesYorganismos/Universidades/ColegiosMayores"; 
6532;"Colegio Mayor Montalbán";" Colegio universitario masculino que dispone de 110 plazas (52 habitaciones individuales y 2 triples). ";"";"";" Metro:  Núñez de Balboa (líneas 5, 9), Rubén Darío (línea 5)  Bus: 5, 16, 19, 51, 61 ";"";"0";"http://www.madrid.es/vgn-ext-templating/v/index.jsp?vgnextchannel=9e4c43db40317010VgnVCM100000dc0ca8c0RCRD&vgnextoid=62f63b54d771c010VgnVCM1000000b205a0aRCRD";"DIEGO DE LEON";"CALLE";"V";"14";"";"";"";"";"MADRID";"MADRID";"28006";"CASTELLANA";"SALAMANCA";"442081";"4476454";"40.43484347201616";"-3.6841625162173";"915 637 298";"";"info@cmmontalban.com";"/contenido/entidadesYorganismos/Universidades/ColegiosMayores"; 
6533;"Colegio Mayor Nuestra Señora de África";"Colegio universitario masculino y femenino que dispone de 156 plazas (todas las habitaciones individuales).";"";"";" Metro: Metropolitano (línea 6), Guzmán el Bueno (líneas 6, 7) ";"";"0";"http://www.madrid.es/vgn-ext-templating/v/index.jsp?vgnextchannel=9e4c43db40317010VgnVCM100000dc0ca8c0RCRD&vgnextoid=938b79262ef5d010VgnVCM1000000b205a0aRCRD";"RAMIRO DE MAEZTU";"CALLE";"V";"8";"";"";"";"";"MADRID";"MADRID";"28040";"CIUDAD UNIVERSITARIA";"MONCLOA-ARAVACA";"439300";"4478076";"40.44924734199129";"-3.717115673509431";"915 540 104";"915 540 401";"info.africa@eoi.es";"/contenido/entidadesYorganismos/Universidades/ColegiosMayores"; 
6534;"Colegio Mayor Nuestra Señora de Guadalupe";"Colegio universitario masculino y femenino que dispone de 208 plazas (todas las habitaciones individuales).";"";"";" Metro: Moncloa (líneas 3 y 6)   Bus: 1, 16, 44, 46, 61, 82, 83, 132, 160, 161, A, U, C. ";"";"1";"http://www.madrid.es/vgn-ext-templating/v/index.jsp?vgnextchannel=9e4c43db40317010VgnVCM100000dc0ca8c0RCRD&vgnextoid=36263b54d771c010VgnVCM1000000b205a0aRCRD";"SÉNECA";"AVENIDA";"V";"4";"";"";"";"";"MADRID";"MADRID";"28040";"CIUDAD UNIVERSITARIA";"MONCLOA-ARAVACA";"438562";"4476697";"40.43677046158841";"-3.7256844390897226";"915 434 469 ";"915 441 263";"info.guadalupe@eoi.es";"/contenido/entidadesYorganismos/Universidades/ColegiosMayores"; 
6538;"Colegio Mayor Padre Poveda";"Colegio universitario femenino que dispone de 121 plazas (101 habitaciones individuales y 15 habitaciones dobles).";"";"";" Metro: Moncloa (línea 3 y 6), Guzmán El Bueno (línea 6 y 7), Metropolitano (línea 6), Islas Filipinas (línea 7).  Bus: 2, 12, 44, 132, C1, C2 ";"";"1";"http://www.madrid.es/vgn-ext-templating/v/index.jsp?vgnextchannel=9e4c43db40317010VgnVCM100000dc0ca8c0RCRD&vgnextoid=1a273b54d771c010VgnVCM1000000b205a0aRCRD";"ISAAC PERAL";"CALLE";"V";"60";"";"";"";"";"MADRID";"MADRID";"28040";"VALLEHERMOSO";"CHAMBERI";"439131";"4477379";"40.44296519201283";"-3.719029884065174";"914 562 589";"915 338 366";"secretaria@cmppoveda.es";"/contenido/entidadesYorganismos/Universidades/ColegiosMayores"; 
6545;"Colegio Mayor Santa María de Europa";" Colegio universitario masculino y femenino que dispone de 209 plazas (115 en habitaciones individuales y 94 en dobles).  Fundación Universidad Complutense de Madrid. ";"";"";" Metro: Islas Filipinas (línea 7), Canal (línea 2 y 7)  Bus: 2, 12, 16, 61, 202 ";"";"0";"http://www.madrid.es/vgn-ext-templating/v/index.jsp?vgnextchannel=9e4c43db40317010VgnVCM100000dc0ca8c0RCRD&vgnextoid=e6873b54d771c010VgnVCM1000000b205a0aRCRD";"CEA BERMUDEZ";"CALLE";"V";"17";"";"";"";"";"MADRID";"MADRID";"28003";"ARAPILES";"CHAMBERI";"439967";"4476897";"40.43868402339638";"-3.7091271764184888";"915 336 200";"915 454 400";"info@cmueuropa.org";"/contenido/entidadesYorganismos/Universidades/ColegiosMayores"; 
6543;"Colegio Mayor Santa María del Estudiante";"Colegio universitario masculino y femenino que dispone de 178 plazas distribuidas en habitaciones individuales y dobles.";"";"";" Metro: Metropolitano (línea 6), Guzmán El Bueno (línea 6 y 7)  Bus: 2, 45,132, C1, C2 ";"";"1";"http://www.madrid.es/vgn-ext-templating/v/index.jsp?vgnextchannel=9e4c43db40317010VgnVCM100000dc0ca8c0RCRD&vgnextoid=79973b54d771c010VgnVCM1000000b205a0aRCRD";"JUAN XXIII";"PASEO";"V";"13";"";"";"";"";"MADRID";"MADRID";"28040";"CIUDAD UNIVERSITARIA";"MONCLOA-ARAVACA";"439307";"4477978";"40.448365104439716";"-3.717011956086707";"912 134 200";"915 353 938";"santamaria@resa.es";"/contenido/entidadesYorganismos/Universidades/ColegiosMayores"; 
6544;"Colegio Mayor Santa María del Pino";"Colegio universitario femenino que dispone de 195 plazas distribuidas en habitaciones individuales y dobles con baño propio.";" ";"";" Metro: Moncloa (líneas 3 y 6) , Islas Filipinas (línea 7)  Bus: 1, 2, 12, 44, C1, C2 ";"";"0";"http://www.madrid.es/vgn-ext-templating/v/index.jsp?vgnextchannel=9e4c43db40317010VgnVCM100000dc0ca8c0RCRD&vgnextoid=0ca73b54d771c010VgnVCM1000000b205a0aRCRD";"SAN FRANCISCO DE SALES";"PASEO";"V";"13";"";"";"";"";"MADRID";"MADRID";"28003";"VALLEHERMOSO";"CHAMBERI";"439364";"4477094";"40.440405842741576";"-3.7162552923226086";"915 432 409 - 915 495 150";"915 495 022";"mayorpin@yahoo.es";"/contenido/entidadesYorganismos/Universidades/ColegiosMayores"; 
6546;"Colegio Mayor Santa Mónica";" Colegio universitario femenino que dispone de 214 plazas (todas habitaciones individuales con baño completo). ";"";"";" Metro: Metropolitano y Ciudad Universitaria (línea 6).  Bus: 127, 132, F, C1. ";"";"0";"http://www.madrid.es/vgn-ext-templating/v/index.jsp?vgnextchannel=9e4c43db40317010VgnVCM100000dc0ca8c0RCRD&vgnextoid=9eb73b54d771c010VgnVCM1000000b205a0aRCRD";"JUAN XXIII";"PASEO";"V";"19";"";"";"";"";"MADRID";"MADRID";"28040";"CIUDAD UNIVERSITARIA";"MONCLOA-ARAVACA";"439504";"4478192";"40.450307214432435";"-3.714721205973702";"915 333 001";"915 352 234";"direccion@cmumonica.net / secretaria@cmumonica.net";"/contenido/entidadesYorganismos/Universidades/ColegiosMayores"; 
46080;"Colegio Mayor Santa Teresa de Jesús";"Colegio universitario masculino y femenino que dispone de 150 plazas (116 individuales y 34 dobles).";"";"";" Metro: Moncloa (línea 3 y 6) y Ciudad Universitaria (línea 6).  Bus: 46, 160, 161, A. ";"";"1";"http://www.madrid.es/vgn-ext-templating/v/index.jsp?vgnextchannel=9e4c43db40317010VgnVCM100000dc0ca8c0RCRD&vgnextoid=a147598d1351c010VgnVCM1000000b205a0aRCRD";"SENECA";"AVENIDA";"V";"12";"";"";"";"";"MADRID";"MADRID";"28040";"CIUDAD UNIVERSITARIA";"MONCLOA-ARAVACA";"438144";"4476534";"40.43527112820394";"-3.730584824196922";"913 941 007";"913 941 072";"";"/contenido/entidadesYorganismos/Universidades/ColegiosMayores"; 
6552;"Colegio Mayor Somosierra";"Colegio universitario femenino que dispone de 60 plazas (42 habitaciones individuales y 18 triples).";"";"";" Metro: Arturo Soria (línea 4), Avenida de la Paz (línea 4)  Bus: 7, 9, 11, 53, 70, 72, 73, 87 ";"";"0";"http://www.madrid.es/vgn-ext-templating/v/index.jsp?vgnextchannel=9e4c43db40317010VgnVCM100000dc0ca8c0RCRD&vgnextoid=46f73b54d771c010VgnVCM1000000b205a0aRCRD";"PABLO VIDAL";"CALLE";"V";"6";"";"";"";"";"MADRID";"MADRID";"28043";"COLINA";"CIUDAD LINEAL";"443982";"4479116";"40.45894549369212";"-3.661997713419564";"914 136 011";"915 196 814";"cmsomosierra@cmsomosierra.com";"/contenido/entidadesYorganismos/Universidades/ColegiosMayores"; 
6520;"Colegio Mayor Universitario Jaime del Amo";" Colegio universitario masculino que dispone de 137 plazas (todas las habitaciones individuales). ";"";"";" Metro: Metropolitano (línea 6)  Bus: 132, C1, C2 ";"";"0";"http://www.madrid.es/vgn-ext-templating/v/index.jsp?vgnextchannel=9e4c43db40317010VgnVCM100000dc0ca8c0RCRD&vgnextoid=ed563b54d771c010VgnVCM1000000b205a0aRCRD";"GREGORIO DEL AMO";"AVENIDA";"V";"5";"";"";"";"";"MADRID";"MADRID";"28040";"CIUDAD UNIVERSITARIA";"MONCLOA-ARAVACA";"438859";"4477699";"40.44581887627957";"-3.7222677252309033";"915 540 804 / 608 755 390";"915 547 066";"secretaria@jaimedelamo.org";"/contenido/entidadesYorganismos/Universidades/ColegiosMayores"; 
6540;"Colegio Mayor Universitario San Agustín";" Colegio universitario masculino y femenino que dispone de 168 plazas (habitaciones individuales con baño, teléfono e internet). ";"";"";" Metro: Moncloa (líneas 3 y 6) y Ciudad Universitaria (línea 6)  Bus: 46, 82, 83, 132, 133, 160, 161, 162, A ";"";"0";"http://www.madrid.es/vgn-ext-templating/v/index.jsp?vgnextchannel=9e4c43db40317010VgnVCM100000dc0ca8c0RCRD&vgnextoid=3f473b54d771c010VgnVCM1000000b205a0aRCRD";"ANTONIO NEBRIJA";"TRAVESIA";"V";"4";"";"";"";"";"MADRID";"MADRID";"28040";"CIUDAD UNIVERSITARIA";"MONCLOA-ARAVACA";"438398";"4476692";"40.436713266051285";"-3.7276174551102095";"915 505 000";"915 505 225";"colegio@cmusa.net";"/contenido/entidadesYorganismos/Universidades/ColegiosMayores"; 
6542;"Colegio Mayor Universitario San Pablo";"Colegio universitario masculino que dispone de 135 plazas.";"";"";" Metro: Moncloa (línea 3 y 6), Metropolitano (línea 6) e Islas Filipinas (línea 7).  Bus: 2, 12, 44, C1, C2. ";"";"1";"http://www.madrid.es/vgn-ext-templating/v/index.jsp?vgnextchannel=9e4c43db40317010VgnVCM100000dc0ca8c0RCRD&vgnextoid=54773b54d771c010VgnVCM1000000b205a0aRCRD";"ISAAC PERAL";"CALLE";"V";"58";"";"";"";"";"MADRID";"MADRID";"28040";"VALLEHERMOSO";"CHAMBERI";"439167";"4477290";"40.44215700197545";"-3.718608573921032";"915 989 600 ";"915 340 528";"colegiomayor@cmusp.com";"/contenido/entidadesYorganismos/Universidades/ColegiosMayores"; 
6549;"Colegio Mayor Universitario Santillana";" Colegio universitario masculino que dispone de 30 plazas (habitaciones individuales) para estudiantes de Grado y Posgrado. ";"";"";" Metro: Mirasierra y Herrera Oria (línea 9) y, Montecarlo y Fuencarral (línea 10)   Bus: 133, 134, 178  Renfe: Ramón y Cajal ";"";"0";"http://www.madrid.es/vgn-ext-templating/v/index.jsp?vgnextchannel=9e4c43db40317010VgnVCM100000dc0ca8c0RCRD&vgnextoid=21d73b54d771c010VgnVCM1000000b205a0aRCRD";"MARBELLA";"CALLE";"V";"60";"";"";"";"";"MADRID";"MADRID";"28034";"MIRASIERRA";"FUENCARRAL-EL PARDO";"440264";"4483108";"40.49465655478304";"-3.7062113507743137";"917 355 031";"917 350 621";"cmsantillana@cmsantillana.org";"/contenido/entidadesYorganismos/Universidades/ColegiosMayores"; 
6553;"Colegio Mayor Vedruna";"Colegio universitario femenino que dispone de 106 habitaciones todas ellas individuales con ducha y algunas con baño completo.";"";"";" Metro: Guzmán El Bueno (línea 6 y 7), Metropolitano (línea 6)  Bus: 2, 45, 132, 202, C1, C2 ";"";"1";"http://www.madrid.es/vgn-ext-templating/v/index.jsp?vgnextchannel=9e4c43db40317010VgnVCM100000dc0ca8c0RCRD&vgnextoid=7b18a4ea6871c010VgnVCM1000000b205a0aRCRD";"PRESIDENTE GARCIA MORENO";"GLORIETA";"V";"2";"";"";"";"";"MADRID";"MADRID";"28003";"VALLEHERMOSO";"CHAMBERI";"439475";"4477669";"40.445602787377844";"-3.715001546487539";"915 344 500 - 915 342 306";"915 532 955";"secretaria@cmvedruna.org / recepcion@cmvedruna.org";"/contenido/entidadesYorganismos/Universidades/ColegiosMayores"; 
6525;"Colegio Mayor Ximénez de Cisneros";" Colegio universitario mixto que dispone de 112 plazas (16 habitaciones dobles y 96 individuales). ";"";"";" Metro: Moncloa (línea 3 y 6), Ciudad Universitaria (línea 6)  Bus: 160, 161, A ";"";"0";"http://www.madrid.es/vgn-ext-templating/v/index.jsp?vgnextchannel=9e4c43db40317010VgnVCM100000dc0ca8c0RCRD&vgnextoid=0e28a4ea6871c010VgnVCM1000000b205a0aRCRD";"SENECA";"AVENIDA";"V";"8";"";"";"";"";"MADRID";"MADRID";"28040";"CIUDAD UNIVERSITARIA";"MONCLOA-ARAVACA";"438308";"4476644";"40.43627417989226";"-3.728673853584004";"913 941 002";"913 941 095";"cmucisneros@gmail.com";"/contenido/entidadesYorganismos/Universidades/ColegiosMayores"; 
6554;"Colegio Mayor Zurbarán";" Colegio universitario femenino que dispone de 51 plazas (36 habitaciones individuales y 5 triples).  Adscrito a la Universidad Complutense de Madrid. ";"";"";" Metro: Concha Espina (línea 9) y Colombia (línea 8 y 9)  Bus: 16, 19, 29, 51, 52 ";"";"0";"http://www.madrid.es/vgn-ext-templating/v/index.jsp?vgnextchannel=9e4c43db40317010VgnVCM100000dc0ca8c0RCRD&vgnextoid=9048a4ea6871c010VgnVCM1000000b205a0aRCRD";"VICTOR DE LA SERNA";"CALLE";"V";"13";"";"";"";"";"MADRID";"MADRID";"28016";"HISPANOAMERICA";"CHAMARTIN";"443079";"4478506";"40.45339785331012";"-3.6725926815275773";"915 197 425";"915 197 421";"info@colegiomayorzurbaran.es";"/contenido/entidadesYorganismos/Universidades/ColegiosMayores"; 
97192;"Escuela Nacional de Medicina del Trabajo";"";"";"";" Metro: Begoña (línea 10)  Bus: 67, 124, 134, 135, 137 ";"";"0";"http://www.madrid.es/vgn-ext-templating/v/index.jsp?vgnextchannel=9e4c43db40317010VgnVCM100000dc0ca8c0RCRD&vgnextoid=56e94f36ff81c010VgnVCM1000000b205a0aRCRD";"MELCHOR FERNANDEZ ALMAGRO";"CALLE";"V";"3";"";"";"";"Pabellón 13";"MADRID";"MADRID";"28029";"LA PAZ";"FUENCARRAL-EL PARDO";"441446";"4481152";"40.477120471647275";"-3.6920947085146683";"918 224 012";"";"direccion.enmt@isciii.es";"/contenido/entidadesYorganismos/Universidades/OtrosCentrosUniversitarios"; 
6677;"Escuela Superior de Diseño";"";"";"";" Metro: Vinateros (línea 9)  Bus: 30 , 32 , 71  ";"  Artísticas ( LOGSE )    Artes Plásticas y Diseño  Gráfico  De Interiores  De Moda    Artísticas ( LOE )    Diseño  Superiores de Diseño  Gráfico  Producto  Interiores   Moda  ";"0";"http://www.madrid.es/vgn-ext-templating/v/index.jsp?vgnextchannel=9e4c43db40317010VgnVCM100000dc0ca8c0RCRD&vgnextoid=492ba4ea6871c010VgnVCM1000000b205a0aRCRD";"CAMINO DE LOS VINATEROS";"CALLE";"V";"106";"";"";"";"";"MADRID";"MADRID";"28030";"MARROQUINA";"MORATALAZ";"445069";"4473568";"40.40903878863365";"-3.6486974680378665";"";"";"esd.madrid@educa.madrid.org";"/contenido/entidadesYorganismos/Universidades/OtrosCentrosUniversitarios"; 
6373;"Escuela Universitaria de Enfermería. Fundación Jiménez Díaz";"";"";"";" Metro: Islas Filipinas (línea 7), Moncloa (línea 3, 6)  Bus: 1 , 12 , 44 , C ";"";"0";"http://www.madrid.es/vgn-ext-templating/v/index.jsp?vgnextchannel=9e4c43db40317010VgnVCM100000dc0ca8c0RCRD&vgnextoid=27dec05ef571c010VgnVCM1000000b205a0aRCRD";"REYES CATOLICOS";"AVENIDA";"V";"2";"";"";"";"";"MADRID";"MADRID";"28040";"CIUDAD UNIVERSITARIA";"MONCLOA-ARAVACA";"439157";"4476909";"40.43868151604703";"-3.718288587745248";"915 504 800";"";"euenfermeria.fjd@fjd.es";"/contenido/entidadesYorganismos/Universidades/EscuelasUniversitarias"; 
29971;"ESERP Madrid";"";"";"";" Metro: Colombia (líneas 8, 9)  Bus: 7, 11, 16, 29, 51, 87, 150 ";" Titulaciones    Grados:    Grado en Administración y Dirección de empresas   Grado en marketing   Grado en Turismo   Grado en Criminología     Titulaciones Superiores:    Dirección de Empresa   Dirección de Marketing   Empresa, marketing y RRPP  Turismo Internacional      Grado Universitario Bachelor:     Bachelor in Business Administration     Posgrado:  Masters, MBAs, Cursos Superiores Universitarios  ";"0";"http://www.madrid.es/vgn-ext-templating/v/index.jsp?vgnextchannel=9e4c43db40317010VgnVCM100000dc0ca8c0RCRD&vgnextoid=e902059cb751c010VgnVCM2000000c205a0aRCRD";"COSTA RICA";"CALLE";"V";"9";"";"";"";"";"MADRID";"MADRID";"28016";"NUEVA ESPAÑA";"CHAMARTIN";"442883";"4479100";"40.45872640065032";"-3.674957503179889";"900 101 483 / 913 501 212 ";"913 505 959";"info@eserp.com";"/contenido/entidadesYorganismos/CentrosEducacion/CentrosFormacionProfesionalPrivadosConcertados"; 
61612;"Institución Artística de Enseñanza (IADE)";"";"";"";" Metro: Serrano (línea 4)  Bus: 1, 9, 19, 21, 51, 53, 74 ";"  Titulaciones    Grado en Diseño de interiores  Grado en Diseño de modas  Diplomado en Diseño de interiores  Diplomado en Diseño de moda  ";"0";"http://www.madrid.es/vgn-ext-templating/v/index.jsp?vgnextchannel=9e4c43db40317010VgnVCM100000dc0ca8c0RCRD&vgnextoid=d4ed8ed67151c010VgnVCM2000000c205a0aRCRD";"CLAUDIO COELLO";"CALLE";"V";"48";"";"";"";"";"MADRID";"MADRID";"28001";"RECOLETOS";"SALAMANCA";"441902";"4475604";"40.42716467505727";"-3.6862066802199003";"915 771 728";"";"iade@iade.es";"/contenido/entidadesYorganismos/Universidades/OtrosCentrosUniversitarios"; 
7614044;"Residencia de Estudiantes Ciudad Escolar";" Residencia universitaria masculina y femenina que dispone de 166 plazas. ";"";"";" Bus: 712, 713, 714, 716, 717, 721, 722, 724, 725, 726, N701, N702. ";"";"0";"http://www.madrid.es/vgn-ext-templating/v/index.jsp?vgnextchannel=9e4c43db40317010VgnVCM100000dc0ca8c0RCRD&vgnextoid=0f3516621fc08410VgnVCM1000000b205a0aRCRD";"COLMENAR VIEJO";"CARRETERA";"V";"KILÓMETRO 12,800";"";"";"";"";"MADRID";"MADRID";"28049";"EL GOLOSO";"FUENCARRAL-EL PARDO";"442329";"4486421";"40.52463853123113";"-3.6821586873585335";"917 342 700";"";"maria.segoviano@madrid.org";"/contenido/entidadesYorganismos/Universidades/ColegiosMayores"; 
55233;"Residencia Universitaria Augustinus Nebrija";" Residencia universitaria masculina que dispone de 160 plazas (132 habitaciones individuales y 14 dobles). ";"";"";" Metro: Islas Filipinas (línea 7) y Moncloa (líneas 3 y 6).  Bus: 1, 2, 12, 44, 82, 132, C1, C2. ";"";"0";"http://www.madrid.es/vgn-ext-templating/v/index.jsp?vgnextchannel=9e4c43db40317010VgnVCM100000dc0ca8c0RCRD&vgnextoid=d0ae444a2951c010VgnVCM2000000c205a0aRCRD";"CEA BERMUDEZ";"CALLE";"V";"59";"";"";"";"";"MADRID";"MADRID";"28003";"GAZTAMBIDE";"CHAMBERI";"439424";"4476930";"40.43893284407247";"-3.715532209677481";"915 490 200 / 914 521 150";"915 443 946";"residencias@nebrija.es";"/contenido/entidadesYorganismos/Universidades/ColegiosMayores"; 
168328;"Residencia Universitaria Erasmo (Edificios I y II)";"Residencia universitaria masculina y femenina que dispone de 765 plazas.";"";"";" Bus: 714, 827, 827A, 828  Renfe: Cantoblanco Universidad ";"";"1";"http://www.madrid.es/vgn-ext-templating/v/index.jsp?vgnextchannel=9e4c43db40317010VgnVCM100000dc0ca8c0RCRD&vgnextoid=333629ea9281c010VgnVCM1000000b205a0aRCRD";"ERASMO DE ROTTERDAM";"CALLE";"V";"5 y 7";"";"";"";"";"MADRID";"MADRID";"28049";"EL GOLOSO";"FUENCARRAL-EL PARDO";"441061";"4489091";"40.54860134157803";"-3.6973769246889843";"911 312 100 / 911 883 000";"";"erasmo@resa.es / erasmo2@resa.es";"/contenido/entidadesYorganismos/Universidades/ColegiosMayores"; 
185968;"Residencia Universitaria Gómez Pardo";"Residencia universitaria masculina y femenina que dispone de 115 plazas (todas las habitaciones son individuales con baño).";"";"";" Metro: Ríos Rosas (línea 1) , Cuatro Caminos (líneas 1, 2, 6).  Bus: 3, 12, 37, 45, 149. ";"";"0";"http://www.madrid.es/vgn-ext-templating/v/index.jsp?vgnextchannel=9e4c43db40317010VgnVCM100000dc0ca8c0RCRD&vgnextoid=7c26af5e2775e010VgnVCM2000000c205a0aRCRD";"CRISTOBAL BORDIU";"CALLE";"V";"30";"";"";"";"";"MADRID";"MADRID";"28003";"RIOS ROSAS";"CHAMBERI";"440668";"4477375";"40.443040460238414";"-3.7009070809393085";"914 417 921 / 913 367 030";"914 429 529";"residencia@fgomezpardo.es";"/contenido/entidadesYorganismos/Universidades/ColegiosMayores"; 
7614004;"Residencia Universitaria José Pérez de Vargas";" Residencia universitaria masculina y femenina que dispone de 217 plazas (180 habitaciones individuales, 37 dobles). ";"";"";" Metro: Vicálvaro (línea 9)  Bus: 4, 100, 106, 130, E3 ";"";"0";"http://www.madrid.es/vgn-ext-templating/v/index.jsp?vgnextchannel=9e4c43db40317010VgnVCM100000dc0ca8c0RCRD&vgnextoid=f15b16621fc08410VgnVCM1000000b205a0aRCRD";"DAROCA";"AVENIDA";"V";"321";"";"";"";"";"MADRID";"MADRID";"28032";"AMBROZ";"VICALVARO";"448115";"4473239";"40.406270835359386";"-3.612761522558214";"917 753 042";"";"administracion@residenciavicalvarourjc.com";"/contenido/entidadesYorganismos/Universidades/ColegiosMayores"; 
6461002;"Residencia Universitaria Nebrija Chamberí";"Residencia universitaria femenina que dispone de 104 plazas distribuidas en 87 habitaciones individuales con baños compartidos y 17 habitaciones individuales con su propio baño.";"";"";" Metro: Bilbao (líneas 1 y 4), Alonso Martínez (líneas 4, 5 y 10)  Bus: 3, 5, 7, 14, 21, 27, 37, 40, 45, 53, 147, 149, 150. ";"";"0";"http://www.madrid.es/vgn-ext-templating/v/index.jsp?vgnextchannel=9e4c43db40317010VgnVCM100000dc0ca8c0RCRD&vgnextoid=1f67e1925e0c7310VgnVCM1000000b205a0aRCRD";"NICASIO GALLEGO";"CALLE";"V";"12";"";"";"";"";"MADRID";"MADRID";"28010";"TRAFALGAR";"CHAMBERI";"440826";"4475862";"40.42942195581525";"-3.698902984407005";"914 471 200 / 914 521 150";"915 443 946";"residencias@nebrija.es";"/contenido/entidadesYorganismos/Universidades/ColegiosMayores"; 
8154142;"Residencia universitaria Nebrija Corazonistas";"Residencia universitaria mixta que dispone de 64 habitaciones individuales con baño privado.";"";"";" Metro: Arg&uuml;elles (líneas 3, 4, 6)  Bus: 1, 2, 21, 44, 74, 133, C1, C2, M2 ";"";"0";"http://www.madrid.es/vgn-ext-templating/v/index.jsp?vgnextchannel=9e4c43db40317010VgnVCM100000dc0ca8c0RCRD&vgnextoid=107861ffd35be410VgnVCM2000000c205a0aRCRD";"TUTOR";"CALLE";"V";"36";"";"";"";"";"MADRID";"MADRID";"28008";"ARGUELLES";"MONCLOA-ARAVACA";"439317";"4475884";"40.42951123123095";"-3.7166937850967643";"914 471 200";"";"ncorazonistas@nebrija.es";"/contenido/entidadesYorganismos/Universidades/ColegiosMayores"; 
134236;"Residencia Universitaria Verbo Encarnado";"";"";"Sala de estudios, sala de TV. Servicio de lavandería con fichas";" Metro: Cuatro Caminos  Bus: 3, 5, 37, 45, 66, 124, 127, 128, 149, C  Renfe: Nuevos Ministerios ";"Residencia femenina";"0";"http://www.madrid.es/vgn-ext-templating/v/index.jsp?vgnextchannel=9e4c43db40317010VgnVCM100000dc0ca8c0RCRD&vgnextoid=eafa2189cb81c010VgnVCM1000000b205a0aRCRD";"ALENZA";"CALLE";"V";"28";"";"";"";"";"MADRID";"MADRID";"28003";"RIOS ROSAS";"CHAMBERI";"440721";"4477667";"40.44565662224022";"-3.7003210725969993";"915 340 516   
915 343 243 ";"915 349 851";"";"/contenido/entidadesYorganismos/Universidades/ColegiosMayores"; 
4964723;"Universidad a distancia de Madrid (UDIMA)";"";"";" Universidad on - line, sin aula física, en la que el estudiante puede atender a las clases con conexión a Internet.  Las titulaciones están homologadas  según las Directrices de Bolonia, reconocidas plenamente en todos los países de la Unión Europea. ";"";"";"0";"http://www.madrid.es/vgn-ext-templating/v/index.jsp?vgnextchannel=9e4c43db40317010VgnVCM100000dc0ca8c0RCRD&vgnextoid=7ea3e8d98584b110VgnVCM2000000c205a0aRCRD";"";"Universidad on - line";"";"";"";"";"";"";"";"MADRID";"";"";"";"0";"0";"";"";"902 020 003 / 911 896 999 / 918 561 699";"";"";"/contenido/entidadesYorganismos/Universidades"; 
54154;"Universidad Abierta de Cataluña (Universitat Oberta de Catalunya). UOC";"";"";" Servicio de formación universitaria no presencial por Internet ";" Metro: Banco de España (línea 2),  Sevilla (línea 2).  Bus: 10, 14, 27, 34, 37, 45 ";"  Titulaciones de grado:    Administración y Dirección de Empresas   Antropología y evolución humana  Comunicación   Criminología   Derecho  Ingeniería Informática   Educación Social   Información y Documentación   Humanidades   Lengua y Literatura Catalanas   Marketing e Investigación de Mercados   Multimedia   Psicología   Relaciones Laborales y Ocupación  Tecnologías de Telecomunicación   Turismo   Doble titulación Turismo y Marketing e Investigación de Mercados  Doble titulación Ingeniería Informática y Administración de Empresas  Doble titulación Administración y Dirección de Empresas y Turismo    Todos los grados se imparten en castellano y catalán, salvo Educación Social, Lengua y Literatura Catalana y Relaciones Laborales y Ocupación, que solo se hacen en catalán.  Máster Universitario y cursos de idiomas. ";"0";"http://www.madrid.es/vgn-ext-templating/v/index.jsp?vgnextchannel=9e4c43db40317010VgnVCM100000dc0ca8c0RCRD&vgnextoid=1737f0bde551c010VgnVCM2000000c205a0aRCRD";"CORTES";"PLAZA";"V";"4";"";"";"";"";"MADRID";"MADRID";"28014";"CORTES";"CENTRO";"441099";"4474351";"40.41582948601852";"-3.6955563094397";" 915 247 000 ";"";"uocmadrid@uoc.edu";"/contenido/entidadesYorganismos/Universidades"; 
6297;"Universidad Antonio de Nebrija. Campus de la Dehesa de la Villa";" En este campus se encuentran: el Centro de Estudios Hispánicos, la Escuela de Negocios, la Escuela Politécnica Superior y Escuela de Arquitectura y varios programas de la Escuela de Postgrado. ";"";"Biblioteca";" Metro: Francos Rodríguez (línea 7), Metropolitano (línea 6), Estrecho (línea 1)  Bus: 44, 64, 124, 128, 132 ";"  Titulaciones de grado:    Escuela Politécnica Superior y Escuela de Arquitectura    Ingeniería en Electrónica y Automática Industrial  Ingeniería en Tecnologías Industriales + MU en Ingeniería Industrial  Ingeniería Mecánica  Ingeniería del Automóvil  Ingeniería en Diseño Industrial y Desarrollo del Producto  Fundamentos de la Arquitectura + MU en Arquitectura   Bellas Artes  Diseño de Interiores    Dobles titulaciones oficiales   I. Tecnologías Industriales + Ingeniería Mecánica   Mecánica + Ingeniería del Automóvil  Diseño Industrial y Desarrollo del Producto + I. del Automóvil  Diseño Industrial y Desarrollo del Producto + Bellas Artes   I. Diseño Industrial y Desarrollo del Producto + Diseño de Interiores   Fundamentos de la Arquitectura + I. Diseño Industrial y Desarrollo del Producto  Fundamentos de la Arquitectura + Bellas Artes  Fundamentos de la Arquitectura + Diseño de Interiores  Bellas Artes + Diseño de Interiores   Diploma in English Professional Skills ";"0";"http://www.madrid.es/vgn-ext-templating/v/index.jsp?vgnextchannel=9e4c43db40317010VgnVCM100000dc0ca8c0RCRD&vgnextoid=8417c05ef571c010VgnVCM1000000b205a0aRCRD";"PIRINEOS";"CALLE";"V";"55";"";"";"";"";"MADRID";"MADRID";"28040";"CIUDAD UNIVERSITARIA";"MONCLOA-ARAVACA";"439166";"4478556";"40.45357063654991";"-3.7187301533847337";"914 521 100 / 900 321 322 (información académica)                              
";"";"informa@nebrija.es";"/contenido/entidadesYorganismos/Universidades"; 
6922838;"Universidad Antonio de Nebrija. Centro Universitario San Rafael - Nebrija";"";"";"Biblioteca";" Metro: Santiago Bernabéu (línea 10), Nuevos Ministerios (línea 6), Colombia (línea 9), Concha Espina (línea 9).   Bus: 14, 27, 40, 43, 51, 120, 126, 147, 150.   RENFE: Nuevos Ministerios.  ";"  Titulaciones de grado    Enfermería   Fisioterapia   ";"0";"http://www.madrid.es/vgn-ext-templating/v/index.jsp?vgnextchannel=9e4c43db40317010VgnVCM100000dc0ca8c0RCRD&vgnextoid=619f94c21b45e310VgnVCM1000000b205a0aRCRD";"LA HABANA";"PASEO";"V";"70";"";"";"";"";"MADRID";"MADRID";"28036";"HISPANOAMERICA";"CHAMARTIN";"442052";"4478466";"40.45295740232813";"-3.6847000001062327";"915 641 868 / 900 321 322 (información académica)                                    
";"";"informa@nebrija.es";"/contenido/entidadesYorganismos/Universidades"; 
8083916;"Universidad Autónoma de Madrid. Biblioteca de Ciencias";"";"";"";" Bus:   Renfe: Cantoblanco Universidad ";"";"0";"http://www.madrid.es/vgn-ext-templating/v/index.jsp?vgnextchannel=9e4c43db40317010VgnVCM100000dc0ca8c0RCRD&vgnextoid=5246f7da5f2dd410VgnVCM2000000c205a0aRCRD";"ISAAC NEWTON";"CALLE";"V";"11";"";"";"";"Campus de Cantoblanco";"MADRID";"MADRID";"28049";"EL GOLOSO";"FUENCARRAL-EL PARDO";"441243";"4488731";"40.5453713128424";"-3.695194095239855";"914 978 353";"";"";"/contenido/entidadesYorganismos/Universidades/Facultades"; 
32179;"Universidad Autónoma de Madrid. Escuela Politécnica Superior";"";"";"";" Bus: 711, 712, 713, 714, 716, 721, 722, 724, 725, 726, 827   Renfe: Cantoblanco Universidad ";"";"0";"http://www.madrid.es/vgn-ext-templating/v/index.jsp?vgnextchannel=9e4c43db40317010VgnVCM100000dc0ca8c0RCRD&vgnextoid=f6f96545f951c010VgnVCM2000000c205a0aRCRD";"FRANCISCO TOMAS Y VALIENTE";"CALLE";"V";"11";"";"";"";"";"MADRID";"MADRID";"28049";"EL GOLOSO";"FUENCARRAL-EL PARDO";"441546";"4488901";"40.54692419691824";"-3.691631796713088";"914 972 222 / 914 976 198 (Información) / 914 972 226 (Consultas) / 914 972 223 (Administración del Centro)";"914 972 224";"informacion.eps@uam.es";"/contenido/entidadesYorganismos/Universidades/EscuelasUniversitarias"; 
6403;"Universidad Autónoma de Madrid. Escuela Universitaria de Enfermería de la Cruz Roja";"";"";"";"";"  Titulaciones:  Grado en Enfermería ";"0";"http://www.madrid.es/vgn-ext-templating/v/index.jsp?vgnextchannel=9e4c43db40317010VgnVCM100000dc0ca8c0RCRD&vgnextoid=4cfec05ef571c010VgnVCM1000000b205a0aRCRD";"REINA VICTORIA";"AVENIDA";"V";"28";"";"";"";"";"MADRID";"MADRID";"28003";"CIUDAD UNIVERSITARIA";"MONCLOA-ARAVACA";"439926";"4477848";"40.44723898268865";"-3.7097123606246747";"915 343 649";"915 530 005";"inforeue@cruzroja.es";"/contenido/entidadesYorganismos/Universidades/EscuelasUniversitarias"; 
6374;"Universidad Autónoma de Madrid. Escuela Universitaria de Fisioterapia de la ONCE";"";"";"";"Bus: 133, 134";"";"0";"http://www.madrid.es/vgn-ext-templating/v/index.jsp?vgnextchannel=9e4c43db40317010VgnVCM100000dc0ca8c0RCRD&vgnextoid=af96c05ef571c010VgnVCM1000000b205a0aRCRD";"NURIA";"CALLE";"V";"42";"";"";"";"";"MADRID";"MADRID";"28034";"MIRASIERRA";"FUENCARRAL-EL PARDO";"440113";"4483021";"40.493852846462325";"-3.7079965907927486";"915 894 500";"915 894 498";"euf@once.es";"/contenido/entidadesYorganismos/Universidades/EscuelasUniversitarias"; 
4591437;"Universidad Autónoma de Madrid. Facultad de Ciencias (Edificio de Biología)";"";"";"";"";"";"1";"http://www.madrid.es/vgn-ext-templating/v/index.jsp?vgnextchannel=9e4c43db40317010VgnVCM100000dc0ca8c0RCRD&vgnextoid=93ab871322503110VgnVCM1000000b205a0aRCRD";"DARWIN";"CALLE";"V";"2";"";"";"";"";"MADRID";"MADRID";"28049";"EL GOLOSO";"FUENCARRAL-EL PARDO";"441500";"4488474";"40.54307440259885";"-3.692135413797053";"914 978 346 (Información y Conserjería)              
";"";"";"/contenido/entidadesYorganismos/Universidades/Facultades"; 
6352;"Universidad Autónoma de Madrid. Facultad de Ciencias (Edificio principal)";"";"";"";" Bus: 711, 712, 713, 714, 716, 721, 722, 724, 725, 726, 827  Renfe: Cantoblanco Universidad ";"  Titulaciones de grado :   Biología  Bioquímica  Ciencias Ambientales  Ciencias de la Alimentación  Física  Ingeniería Química  Matemáticas  Nutrición Humana y Dietética  Química    Titulaciones de postgrado . ";"0";"http://www.madrid.es/vgn-ext-templating/v/index.jsp?vgnextchannel=9e4c43db40317010VgnVCM100000dc0ca8c0RCRD&vgnextoid=3c47c05ef571c010VgnVCM1000000b205a0aRCRD";"FRANCISCO TOMAS Y VALIENTE";"CALLE";"V";"7";"";"";"";"Campus de Cantoblanco";"MADRID";"MADRID";"28049";"EL GOLOSO";"FUENCARRAL-EL PARDO";"441243";"4488731";"40.5453713128424";"-3.695194095239855";"914 974 331 (Información y Conserjería)";"";"";"/contenido/entidadesYorganismos/Universidades/Facultades"; 
6353;"Universidad Autónoma de Madrid. Facultad de Ciencias Económicas y Empresariales";"";"";"";" Bus: 711, 712, 713, 714, 716, 721, 722, 724, 725, 726, 827   Renfe: Cantoblanco Universidad ";"  Titulaciones de grado:     Grado en Economía   Grado en Administración y Dirección de empresas  Doble Grado en Derecho y Administración y Dirección de Empresas   Grado en Turismo   Grado en Economía y Finanzas  Grado en Gestión Aeronaútica  Grado en Filosofía, Política y Economía    Titulaciones de postgrado  ";"0";"http://www.madrid.es/vgn-ext-templating/v/index.jsp?vgnextchannel=9e4c43db40317010VgnVCM100000dc0ca8c0RCRD&vgnextoid=a937c05ef571c010VgnVCM1000000b205a0aRCRD";"FRANCISCO TOMAS Y VALIENTE";"CALLE";"V";"5";"";"";"";"";"MADRID";"MADRID";"28049";"EL GOLOSO";"FUENCARRAL-EL PARDO";"441122";"4488676";"40.54486725066389";"-3.6966178198810904";"914 977 070 (Atención al estudiante)";"";"";"/contenido/entidadesYorganismos/Universidades/Facultades"; 
7559244;"Universidad Autónoma de Madrid. Facultad de Ciencias. Edificio de Ingeniería Química y Tecnología de los Alimentos";"";"";"";" Bus: 711, 712, 713, 714, 716, 721, 722, 724, 725, 726, 827  Renfe: Cantoblanco Universidad ";"";"1";"http://www.madrid.es/vgn-ext-templating/v/index.jsp?vgnextchannel=9e4c43db40317010VgnVCM100000dc0ca8c0RCRD&vgnextoid=062f1f93c06f6410VgnVCM2000000c205a0aRCRD";"MARX";"CALLE";"V";"10";"";"";"";"";"MADRID";"MADRID";"28049";"EL GOLOSO";"FUENCARRAL-EL PARDO";"441379";"4488830";"40.54627278583156";"-3.6935973054879456";"";"";"";"/contenido/entidadesYorganismos/Universidades/Facultades"; 
6354;"Universidad Autónoma de Madrid. Facultad de Derecho";"";"";"";" Bus: 711, 712, 713, 714, 716, 721, 722, 724, 725, 726, 827  Renfe: Cantoblanco Universidad ";"";"1";"http://www.madrid.es/vgn-ext-templating/v/index.jsp?vgnextchannel=9e4c43db40317010VgnVCM100000dc0ca8c0RCRD&vgnextoid=ce57c05ef571c010VgnVCM1000000b205a0aRCRD";"KELSEN";"CALLE";"V";"1";"";"";"";"";"MADRID";"MADRID";"28049";"EL GOLOSO";"FUENCARRAL-EL PARDO";"441587";"4488309";"40.54159425362628";"-3.6910810023669907";"914 978 763 / 914 972 480";"";"";"/contenido/entidadesYorganismos/Universidades/Facultades"; 
6355;"Universidad Autónoma de Madrid. Facultad de Filosofía y Letras";"";"";"";" Bus: 711, 712, 713, 714, 716, 721, 722, 724, 725, 726, 827   Renfe: Cantoblanco Universidad ";"";"1";"http://www.madrid.es/vgn-ext-templating/v/index.jsp?vgnextchannel=9e4c43db40317010VgnVCM100000dc0ca8c0RCRD&vgnextoid=5177c05ef571c010VgnVCM1000000b205a0aRCRD";"FRANCISCO TOMAS Y VALIENTE";"CALLE";"V";"1";"";"";"";"";"MADRID";"MADRID";"28049";"EL GOLOSO";"FUENCARRAL-EL PARDO";"440988";"4488614";"40.54431755886168";"-3.698135523802299";"914 974 354 (Información y Conserjería)";"914 975 641";"informacion.filosofia@uam.es";"/contenido/entidadesYorganismos/Universidades/Facultades"; 
6360;"Universidad Autónoma de Madrid. Facultad de Formación de Profesorado y Educación";"";"";"";" Bus: 711, 712, 713, 714, 716, 721, 722, 724, 725, 726, 827   Renfe: Cantoblanco Universidad ";"";"1";"http://www.madrid.es/vgn-ext-templating/v/index.jsp?vgnextchannel=9e4c43db40317010VgnVCM100000dc0ca8c0RCRD&vgnextoid=e387c05ef571c010VgnVCM1000000b205a0aRCRD";"FRANCISCO TOMAS Y VALIENTE";"CALLE";"V";"3";"";"";"";"Campus de Cantoblanco, Carretera de Colmenar, km. 15,500";"MADRID";"MADRID";"28049";"EL GOLOSO";"FUENCARRAL-EL PARDO";"441013";"4488626";"40.544409068541405";"-3.6979002877437015";"914 976 189 / 914 972 841 / 914 972 845 / 914 978 621 (Información de grado) / 914 978 664 / 914 974 973 (Información de postgrado)";"914 978 638";"informacion.fprofesorado@uam.es";"/contenido/entidadesYorganismos/Universidades/Facultades"; 
6357;"Universidad Autónoma de Madrid. Facultad de Medicina";"";"";"";" Metro: Begoña (línea 10)  Bus: 66, 67, 124, 132, 134, 135, 137  Renfe: Chamartín , Ramón y Cajal ";"";"1";"http://www.madrid.es/vgn-ext-templating/v/index.jsp?vgnextchannel=9e4c43db40317010VgnVCM100000dc0ca8c0RCRD&vgnextoid=7697c05ef571c010VgnVCM1000000b205a0aRCRD";"ARZOBISPO MORCILLO";"CALLE";"V";"4";"";"";"";"";"MADRID";"MADRID";"28029";"LA PAZ";"FUENCARRAL-EL PARDO";"441558";"4481625";"40.48138033995387";"-3.69081705203895";"914 975 486 / 914 975 353 (Información y Conserjería)              
";"";"";"/contenido/entidadesYorganismos/Universidades/Facultades"; 
6356;"Universidad Autónoma de Madrid. Facultad de Psicología";"";"";"";" Bus: 711, 712, 713, 714, 716, 721, 722, 724, 725, 726, 827   Renfe: Cantoblanco Universidad ";"";"1";"http://www.madrid.es/vgn-ext-templating/v/index.jsp?vgnextchannel=9e4c43db40317010VgnVCM100000dc0ca8c0RCRD&vgnextoid=09a7c05ef571c010VgnVCM1000000b205a0aRCRD";"IVAN PAVLOV";"CALLE";"V";"6";"";"";"";"";"MADRID";"MADRID";"28049";"EL GOLOSO";"FUENCARRAL-EL PARDO";"441464";"4488572";"40.54396360557416";"-3.692581508705486";"914 974 434 (Información y Conserjería) / 914 974 069 / 914 977 423 / 914 977 4 24 / 914 974 046 (Información de grado/licenciatura) / 914 974 901 / 914 975 5 62 (Información de postgrado)";"";"secretariagrado.psicologia@uam.es , secretariaposgrado.psicologia@uam.es";"/contenido/entidadesYorganismos/Universidades/Facultades"; 
7559006;"Universidad Autónoma de Madrid. Oficina de Información al Estudiante";"";" Lunes a jueves: de 9 a 17 horas  Viernes: de 9 a 14 horas ";"";" Bus: 714, 827, 828  Renfe: Cantoblanco Universidad ";"";"1";"http://www.madrid.es/vgn-ext-templating/v/index.jsp?vgnextchannel=9e4c43db40317010VgnVCM100000dc0ca8c0RCRD&vgnextoid=3a4a886cbb4f6410VgnVCM2000000c205a0aRCRD";"EINSTEIN";"CALLE";"V";"5";"";"";"";"";"MADRID";"MADRID";"28049";"EL GOLOSO";"FUENCARRAL-EL PARDO";"441342";"4488641";"40.54457667457817";"-3.6940049447863013";"914 975 015, 914 974 990";"914 978 601";"";"/contenido/entidadesYorganismos/Universidades/OtrosCentrosUniversitarios"; 
6923093;"Universidad Camilo José Cela. Sede Madrid - Ferraz";"";"";"";" Metro: Esperanza (línea 4)  Bus: 120, 122 ";"  Titulaciones     Ciencias Jurídicas y Económicas:  Grado de transporte y logística.   Ciencias de la Comunicación:  Grado de protocolo y organización de eventos.  ";"0";"http://www.madrid.es/vgn-ext-templating/v/index.jsp?vgnextchannel=9e4c43db40317010VgnVCM100000dc0ca8c0RCRD&vgnextoid=f4a73adacc45e310VgnVCM1000000b205a0aRCRD";"QUINTANA";"CALLE";"V";"21";"";"";"";"";"MADRID";"MADRID";"28008";"ARGUELLES";"MONCLOA-ARAVACA";"439150";"4475630";"40.427210796973135";"-3.718649879761403";"917 585 068";"";"info@ucjc.edu";"/contenido/entidadesYorganismos/Universidades"; 
5741367;"Universidad Camilo José Cela. Sede Madrid - Mar de Cristal";"";"";"";" Metro: Duque de Pastrana (línea 9)  Bus: 14, 70, 107, 129 ";" Titulaciones:    Grado en Cine  Grado en Comunicación Audiovisual  Grado en Publicidad y Relaciones Públicas  Grado en Periodismo  ";"0";"http://www.madrid.es/vgn-ext-templating/v/index.jsp?vgnextchannel=9e4c43db40317010VgnVCM100000dc0ca8c0RCRD&vgnextoid=1bb27fe67b289210VgnVCM2000000c205a0aRCRD";"MAR ADRIATICO";"CALLE";"V";"11";"";"";"";"";"MADRID";"MADRID";"28033";"PINAR DEL REY";"HORTALEZA";"445778";"4480556";"40.47204619278226";"-3.6409277871611385";"918 153 131 (Servicio de información universitaria)";"";"info@ucjc.edu";"/contenido/entidadesYorganismos/Universidades"; 
4978743;"Universidad Complutense de Madrid";"";"";"";" Metro: Moncloa (línea 3, 6)  Bus: 160, 161 ";"";"0";"http://www.madrid.es/vgn-ext-templating/v/index.jsp?vgnextchannel=9e4c43db40317010VgnVCM100000dc0ca8c0RCRD&vgnextoid=c0d5c134ec4eb110VgnVCM2000000c205a0aRCRD";"DE SÉNECA";"AVENIDA";"V";"2";"";"";"";"";"MADRID";"MADRID";"28040";"CIUDAD UNIVERSITARIA";"MONCLOA-ARAVACA";"438640";"4476715";"40.43693838177442";"-3.7247665876826175";"914 520 400 / 900 100 394 (Teléfono de emergencias)";"";"infocom@ucm.es";"/contenido/entidadesYorganismos/Universidades"; 
5321256;"Universidad Complutense de Madrid. Centro Complutense para la Enseñanza del Español";"";"";"";" Metro: Ciudad Universitaria (línea 6)  Bus: 82, 132, F, G, I  ";"";"0";"http://www.madrid.es/vgn-ext-templating/v/index.jsp?vgnextchannel=9e4c43db40317010VgnVCM100000dc0ca8c0RCRD&vgnextoid=a414ad4ae5b01210VgnVCM1000000b205a0aRCRD";"COMPLUTENSE";"AVENIDA";"V";"0";"";"";"";"FACULTAD DE FILOLOGÍA. EDIFICIO A";"MADRID";"MADRID";"28040";"CIUDAD UNIVERSITARIA";"MONCLOA-ARAVACA";"438425";"4477462";"40.44365172813862";"-3.7273738938652237";"913 945 325 ";"913 945 336";"ceextran@filol.ucm.es";"/contenido/entidadesYorganismos/ArchivosCentrosDocumentacion"; 
6368;"Universidad Complutense de Madrid. Centro de Enseñanza Superior en Humanidades y Ciencias de la Educación Don Bosco";"";"";"";" Metro: Francos Rodríguez (línea 7)  Bus: 44, 64, 126, 127, 128, 132, N21 ";"  Titulaciones     Grado en Educación Social   Grado en Maestro en Educación Infantil  Grado en Maestro en Educación Primaria  Grado en Pedagogía  Modalidad Biling&uuml;e    Ciclos formativos de Grado Superior    Técnico Superior en Educación Infantil  TAFAD    Estudios de postgrado  ";"0";"http://www.madrid.es/vgn-ext-templating/v/index.jsp?vgnextchannel=9e4c43db40317010VgnVCM100000dc0ca8c0RCRD&vgnextoid=cff8ae10c471c010VgnVCM1000000b205a0aRCRD";"MARÍA AUXILIADORA";"CALLE";"V";"9";"";"";"";"";"MADRID";"MADRID";"28040";"CIUDAD UNIVERSITARIA";"MONCLOA-ARAVACA";"439451";"4479023";"40.457789320837215";"-3.715425578651158";"914 500 472";"913 980 250";"";"/contenido/entidadesYorganismos/Universidades/OtrosCentrosUniversitarios"; 
6299;"Universidad Complutense de Madrid. Centro Orientación, Información y Empleo (COIE). Moncloa";"";" Atención presencial de 9 a 14 horas, de lunes a viernes y de 15:30 a 17:30 horas de lunes a jueves. ";"";" Metro: Ciudad Universitaria (línea 6)  Bus: 46, 82, 83, 132, 133, 160, A, G ";"";"0";"http://www.madrid.es/vgn-ext-templating/v/index.jsp?vgnextchannel=9e4c43db40317010VgnVCM100000dc0ca8c0RCRD&vgnextoid=42e179262ef5d010VgnVCM1000000b205a0aRCRD";"COMPLUTENSE";"AVENIDA";"S/N";"";"";"";"";"EDIFICIO DE ALUMNOS DE LA UNIVERSIDAD COMPLUTENSE DE MADRID";"MADRID";"MADRID";"28040";"CIUDAD UNIVERSITARIA";"MONCLOA-ARAVACA";"438394";"4477686";"40.44566737908814";"-3.727749382685658";"913 941 294/95";"913 941 602";"coieinfo@ucm.es";"/contenido/entidadesYorganismos/Universidades"; 
5412137;"Universidad Complutense de Madrid. Centro Superior de Idiomas Modernos";"";"";"";" Bus: 82, 83, 132, 133, 162, F, G, N20. ";"";"0";"http://www.madrid.es/vgn-ext-templating/v/index.jsp?vgnextchannel=9e4c43db40317010VgnVCM100000dc0ca8c0RCRD&vgnextoid=0f66c3665e393210VgnVCM2000000c205a0aRCRD";"PROFESOR ARANGUREN";"CALLE";"V";"S/N";"2.ª. DESPACHOS 2.142 Y 2.143";"";"";"";"MADRID";"MADRID";"28040";"CIUDAD UNIVERSITARIA";"MONCLOA-ARAVACA";"438034";"4477856";"40.44717192553449";"-3.7320226167250743";"913 947 754 / 913 947 816 / 913 946 358";"";"";"/contenido/entidadesYorganismos/Universidades/OtrosCentrosUniversitarios"; 
6408;"Universidad Complutense de Madrid. Centro Universitario Cardenal Cisneros";"";"";"";" Metro: Lista (línea 4)  Bus: 1, 26, 61, 74 ";"  Titulaciones    Grado en Psicología  Grado en Derecho  Grado en Administración y Dirección de Empresas ( ADE )  Estudios de postgrado  ";"0";"http://www.madrid.es/vgn-ext-templating/v/index.jsp?vgnextchannel=9e4c43db40317010VgnVCM100000dc0ca8c0RCRD&vgnextoid=ea1cf3216571c010VgnVCM1000000b205a0aRCRD";"GENERAL DIAZ PORLIER";"CALLE";"V";"58";"";"";"";"";"MADRID";"MADRID";"28006";"LISTA";"SALAMANCA";"442715";"4475984";"40.43064439409127";"-3.676657274338688";"913 096 120 / 914 028 981";"";"";"/contenido/entidadesYorganismos/Universidades/OtrosCentrosUniversitarios"; 
7029862;"Universidad Complutense de Madrid. Centro Universitario Villanueva. Área de Comunicación y de Educación y Psicología";"Las titulaciones de Comunicación, Educación y Psicología se imparten en la sede ubicada en la calle costa Brava n.&ordm; 2. Tanto el edificio como las diferentes instalaciones están equipadas con sistemas de acceso adaptados para personas con discapacidades (rampas de acceso y ascensores).";"";"";" Bus: 134, 178, N23. ";"  Titulaciones    Grado en Derecho  Grado en ADE  Grado en Periodismo  Grado en Publicidad y  RRPP   Grado en Comunicación Audiovisual   Grado de Maestro en Educación Infantil  Grado de Maestro en Educación Primaria  Grado en Psicología     Dobles Titulaciones    Grado en Derecho + Grado en  ADE    Grado en Periodismo + Grado en Comunicación Audiovisual   Grado en Publicidad y  RRPP  + Grado en Comunicación Audiovisual   Grado en Maestro en Educación Infantil + Grado de Maestro en Educación Primaria  Grado en Educación Infantil / Primaria + Grado en Psicología  ";"1";"http://www.madrid.es/vgn-ext-templating/v/index.jsp?vgnextchannel=9e4c43db40317010VgnVCM100000dc0ca8c0RCRD&vgnextoid=d4d1e0ecb9eaf310VgnVCM1000000b205a0aRCRD";"COSTA BRAVA";"CALLE";"V";"2";"";"";"";"";"MADRID";"MADRID";"28034";"MIRASIERRA";"FUENCARRAL-EL PARDO";"440622";"4483251";"40.495961406303";"-3.7020121436304416";"917 340 413";"917 340 311";"infocom@villanueva.edu / infoedu@villanueva.edu";"/contenido/entidadesYorganismos/Universidades/OtrosCentrosUniversitarios"; 
122521;"Universidad Complutense de Madrid. Centro Universitario Villanueva. Área de Derecho y Empresa";"";"";"";" Metro: Retiro (línea 2)  Bus: 1, 2, 9, 15, 19, 20, 28, 51, 52, 74, 146, 202  ";"  Titulaciones    Grado en Derecho  Grado en Administración y Dirección de Empresas ( ADE )  Grado en ADE + Grado en Derecho  ";"1";"http://www.madrid.es/vgn-ext-templating/v/index.jsp?vgnextchannel=9e4c43db40317010VgnVCM100000dc0ca8c0RCRD&vgnextoid=b4ff8899fc81c010VgnVCM1000000b205a0aRCRD";"CLAUDIO COELLO";"CALLE";"V";"11";"";"";"";"";"MADRID";"MADRID";"28001";"RECOLETOS";"SALAMANCA";"441810";"4474972";"40.42146486648071";"-3.687233235117684";"915 775 666 ";"914 355 660";"info@villanueva.edu";"/contenido/entidadesYorganismos/Universidades/OtrosCentrosUniversitarios"; 
6407;"Universidad Complutense de Madrid. Colegio Universitario de Estudios Financieros (CUNEF)";"";"";"";" Metro: Metropolitano (línea 6)  Bus: 132, F. ";"  Titulaciones    Grado en Administración y Dirección de Empresas (ADE)   Bilingual Degree in Business Administration (English-Spanish )  Grado en Derecho y Diploma en Estudios Legales de la empresa más Master en Derecho Bancario  Doble Grado en Derecho y Administración y Dirección de Empresas  Doble Grado en Derecho  &amp;   Business Administration  ( English-Spanish )  Estudios de postgrado  ";"0";"http://www.madrid.es/vgn-ext-templating/v/index.jsp?vgnextchannel=9e4c43db40317010VgnVCM100000dc0ca8c0RCRD&vgnextoid=004cf3216571c010VgnVCM1000000b205a0aRCRD";"LEONARDO PRIETO CASTRO";"CALLE";"V";"2";"";"";"";"";"MADRID";"MADRID";"28040";"CIUDAD UNIVERSITARIA";"MONCLOA-ARAVACA";"439093";"4478317";"40.451403268388894";"-3.719567950188049";"914 480 892";"";"";"/contenido/entidadesYorganismos/Universidades/OtrosCentrosUniversitarios"; 
7033949;"Universidad Complutense de Madrid. Escuela de Especialización Profesional de Estudios Cooperativos";"";"";"";"";"";"0";"http://www.madrid.es/vgn-ext-templating/v/index.jsp?vgnextchannel=9e4c43db40317010VgnVCM100000dc0ca8c0RCRD&vgnextoid=d670d4ffc5ebf310VgnVCM1000000b205a0aRCRD";"HUMERA";"CARRETERA";"S/N";"0";"";"";"";"FACULTAD DE CIENCIAS ECONÓMICAS Y EMPRESARIALES. DESPACHO 36. PABELLÓN CENTRAL";"POZUELO DE ALARCÓN";"MADRID";"28223";"";"";"0";"0";"";"";"913 942 429 / 913 942 535 / 913 942 531 / 913 942 539 / 913 942 330 / 913 942 382";"";"eec@ccee.ucm.es";"/contenido/entidadesYorganismos/Universidades/OtrosCentrosUniversitarios"; 
6495;"Universidad Complutense de Madrid. Escuela de Especialización Profesional de Medicina de la Educación Física y el Deporte";"";"";"";" Metro: Ciudad Universitaria (línea 6)  Bus: 82, 132, G, U ";"";"0";"http://www.madrid.es/vgn-ext-templating/v/index.jsp?vgnextchannel=9e4c43db40317010VgnVCM100000dc0ca8c0RCRD&vgnextoid=8a807b503a71c010VgnVCM1000000b205a0aRCRD";"RAMÓN Y CAJAL";"PLAZA";"V";"0";"5.ª";"";"";"FACULTAD DE MEDICINA. PABELLÓN 6";"MADRID";"MADRID";"28040";"CIUDAD UNIVERSITARIA";"MONCLOA-ARAVACA";"438524";"4477559";"40.4445328804645";"-3.7262160043788155";"913 941 367 ";"";"";"/contenido/entidadesYorganismos/Universidades/OtrosCentrosUniversitarios"; 
6498;"Universidad Complutense de Madrid. Escuela de Práctica Jurídica";"";"";"";" Metro: Noviciado (línea 2), Plaza de España (línea 3, 10).  Bus: 1, 2, 3, 44, 46, 74, 75, 133, 138, 147, 148, 202,  C2 , M2. ";"";"0";"http://www.madrid.es/vgn-ext-templating/v/index.jsp?vgnextchannel=9e4c43db40317010VgnVCM100000dc0ca8c0RCRD&vgnextoid=32c07b503a71c010VgnVCM1000000b205a0aRCRD";"AMANIEL";"CALLE";"V";"2";"";"";"";"";"MADRID";"MADRID";"28015";"UNIVERSIDAD";"CENTRO";"439955";"4475383";"40.42503530088568";"-3.7091370642279227";"915 216 258  / 915 327 391";"915 230 309";"epj@epj.es";"/contenido/entidadesYorganismos/Universidades/OtrosCentrosUniversitarios"; 
6501;"Universidad Complutense de Madrid. Escuela de Relaciones Laborales";"Escuela de especialización profesional dedicada al desarrollo de actividades de formación, extensión universitaria e investigación en el ámbito socioeconómico y de relaciones laborales.";"";"";" Metro: Noviciado (línea 2)  Bus: 1, 2, 44, 46, 74, 75, 133, 147, 148 ";"";"0";"http://www.madrid.es/vgn-ext-templating/v/index.jsp?vgnextchannel=9e4c43db40317010VgnVCM100000dc0ca8c0RCRD&vgnextoid=c4d07b503a71c010VgnVCM1000000b205a0aRCRD";"SAN BERNARDO";"CALLE";"V";"49";"";"";"";"";"MADRID";"MADRID";"28015";"UNIVERSIDAD";"CENTRO";"440092";"4475361";"40.42484700930803";"-3.707520080344636";"913 946 625";"";"ites03@erl.ucm.es/infoerl@ucm.es";"/contenido/entidadesYorganismos/Universidades/OtrosCentrosUniversitarios"; 
7727348;"Universidad Complutense de Madrid. Escuela Profesional de Hidrología Médica e Hidroterapia";"";"";"";" Metro: Ciudad Universitaria (línea 6)  Bus: 82, 132, G, U ";"";"0";"http://www.madrid.es/vgn-ext-templating/v/index.jsp?vgnextchannel=9e4c43db40317010VgnVCM100000dc0ca8c0RCRD&vgnextoid=0d18c61b1f8a9410VgnVCM2000000c205a0aRCRD";"UNIVERSITARIA";"CIUDAD";"V";"S/N";"";"";"";"";"MADRID";"MADRID";"28040";"CIUDAD UNIVERSITARIA";"MONCLOA-ARAVACA";"438524";"4477559";"40.4445328804645";"-3.7262160043788155";"913 941 667";"";"";"/contenido/entidadesYorganismos/Universidades/OtrosCentrosUniversitarios"; 
6492;"Universidad Complutense de Madrid. Escuela Profesional de Medicina Legal y Forense";"";"";"";" Metro: Ciudad Universitaria (línea 6)  Bus: 82, 132, G, U  ";"";"0";"http://www.madrid.es/vgn-ext-templating/v/index.jsp?vgnextchannel=9e4c43db40317010VgnVCM100000dc0ca8c0RCRD&vgnextoid=afa07b503a71c010VgnVCM1000000b205a0aRCRD";"COMPLUTENSE";"AVENIDA";"V";"S/N";"";"";"";"";"MADRID";"MADRID";"28040";"CIUDAD UNIVERSITARIA";"MONCLOA-ARAVACA";"438425";"4477462";"40.44365172813862";"-3.7273738938652237";"913 941 574  ";"913 941 606";"escmedlegal@ucm.es";"/contenido/entidadesYorganismos/Universidades/OtrosCentrosUniversitarios"; 
6369;"Universidad Complutense de Madrid. Escuela Universitaria de Magisterio ESCUNI";"";"";"";" Bus: 34, 35, 121, 131, 139, N17 ";"  Titulaciones:     Grado Maestro Educación Infantil  Grado Maestro Educación Primaria  Curso de Adaptación a Grado  Estudios de postgrado  ";"0";"http://www.madrid.es/vgn-ext-templating/v/index.jsp?vgnextchannel=9e4c43db40317010VgnVCM100000dc0ca8c0RCRD&vgnextoid=612fc05ef571c010VgnVCM1000000b205a0aRCRD";"NUESTRA SEÑORA DE FÁTIMA";"AVENIDA";"V";"102";"";"";"";"";"MADRID";"MADRID";"28047";"VISTA ALEGRE";"CARABANCHEL";"436514";"4470249";"40.37853024498568";"-3.7491851721721057";"914 651 700 ";"914 627 974";"info@escuni.com";"/contenido/entidadesYorganismos/Universidades/EscuelasUniversitarias"; 
6320;"Universidad Complutense de Madrid. Facultad de Bellas Artes";"";"";"";" Metro: Ciudad Universitaria (línea 6)  Bus: 46, 83, 133, 162, U ";"  Titulaciones     Bellas Artes  Conservación y Restauración del Patrimonio Cultural   Diseño   ";"0";"http://www.madrid.es/vgn-ext-templating/v/index.jsp?vgnextchannel=9e4c43db40317010VgnVCM100000dc0ca8c0RCRD&vgnextoid=b268578b9671c010VgnVCM1000000b205a0aRCRD";"PINTOR EL GRECO";"CALLE";"V";"2";"";"";"";"";"MADRID";"MADRID";"28040";"CIUDAD UNIVERSITARIA";"MONCLOA-ARAVACA";"437865";"4476982";"40.43928597346611";"-3.7339297313310533";"913 943 553 ";"";"";"/contenido/entidadesYorganismos/Universidades/Facultades"; 
6306;"Universidad Complutense de Madrid. Facultad de Ciencias Biológicas";"";"";"";"Bus: 82, 132";"  Titulación:  Biología, Bioquímica y Estudios de Postgrado. ";"0";"http://www.madrid.es/vgn-ext-templating/v/index.jsp?vgnextchannel=9e4c43db40317010VgnVCM100000dc0ca8c0RCRD&vgnextoid=4578578b9671c010VgnVCM1000000b205a0aRCRD";"JOSÉ ANTONIO NOVAIS";"CALLE";"V";"12";"";"";"";"";"MADRID";"MADRID";"28040";"CIUDAD UNIVERSITARIA";"MONCLOA-ARAVACA";"438502";"4478001";"40.44851295451713";"-3.7265182799879306";"913 945 066  ";"";"";"/contenido/entidadesYorganismos/Universidades/Facultades"; 
6385;"Universidad Complutense de Madrid. Facultad de Ciencias de la Documentación";"";"";"";" Metro: Alonso Cano (línea 7), Canal (línea 2, 7).  Bus: 3, 12, 37, 149, N23. ";"  Titulaciones    Información y Documentación  Musicología   ";"0";"http://www.madrid.es/vgn-ext-templating/v/index.jsp?vgnextchannel=9e4c43db40317010VgnVCM100000dc0ca8c0RCRD&vgnextoid=e508578b9671c010VgnVCM1000000b205a0aRCRD";"SANTÍSIMA TRINIDAD";"CALLE";"V";"37";"";"";"";"";"MADRID";"MADRID";"28010";"TRAFALGAR";"CHAMBERI";"440606";"4476836";"40.4381713973253";"-3.7015993259151054";"913 946 662 ";"";"inf@ccdoc.es";"/contenido/entidadesYorganismos/Universidades/EscuelasUniversitarias"; 
6319;"Universidad Complutense de Madrid. Facultad de Ciencias de la Información";"";"";"";" Metro: Ciudad Universitaria (línea 6)  Bus: 82, 132, G, I, U  ";"  Titulaciones      Comunicación Audiovisual  Periodismo  Publicidad y Relaciones Públicas  ";"1";"http://www.madrid.es/vgn-ext-templating/v/index.jsp?vgnextchannel=9e4c43db40317010VgnVCM100000dc0ca8c0RCRD&vgnextoid=d788578b9671c010VgnVCM1000000b205a0aRCRD";"COMPLUTENSE";"AVENIDA";"V";"S/N";"";"";"";"";"MADRID";"MADRID";"28040";"CIUDAD UNIVERSITARIA";"MONCLOA-ARAVACA";"438425";"4477462";"40.44365172813862";"-3.7273738938652237";"913 942 166 ";"";"";"/contenido/entidadesYorganismos/Universidades/Facultades"; 
6318;"Universidad Complutense de Madrid. Facultad de Ciencias Económicas y Empresariales";"";"";"";"";"  Titulaciones      Administración y Dirección de Empresas (ofrece un grupo en inglés)  Derecho - Administración y Dirección de Empresas   Economía (ofrece un grupo en inglés)  Finanzas, Banca y Seguros (pendiente de aprobación)  ";"0";"http://www.madrid.es/vgn-ext-templating/v/index.jsp?vgnextchannel=9e4c43db40317010VgnVCM100000dc0ca8c0RCRD&vgnextoid=6a98578b9671c010VgnVCM1000000b205a0aRCRD";"HUMERA";"CARRETERA";"S/N";"0";"";"";"";"CAMPUS DE SOMOSAGUAS";"POZUELO DE ALARCON";"MADRID";"28223";"";"";"0";"0";"";"";"913 942 999";"";"informacion@ccee.ucm.es";"/contenido/entidadesYorganismos/Universidades/Facultades"; 
6307;"Universidad Complutense de Madrid. Facultad de Ciencias Físicas";"";"";"";" Bus: 82, 132, F, G, U ";"  Titulaciones     Física  Ingeniería de Materiales  Ingeniería Electrónica de Comunicaciones  Matemáticas - Física  ";"0";"http://www.madrid.es/vgn-ext-templating/v/index.jsp?vgnextchannel=9e4c43db40317010VgnVCM100000dc0ca8c0RCRD&vgnextoid=fca8578b9671c010VgnVCM1000000b205a0aRCRD";"CIENCIAS";"PLAZA";"V";"1";"";"";"";"";"MADRID";"MADRID";"28040";"CIUDAD UNIVERSITARIA";"MONCLOA-ARAVACA";"438540";"4478268";"40.45093008868164";"-3.7260843872268063";"913 944 444";"";"infofisicas@ucm.es";"/contenido/entidadesYorganismos/Universidades/Facultades"; 
6305;"Universidad Complutense de Madrid. Facultad de Ciencias Geológicas";"";"";"";" Metro: Metropolitano (línea 6)  Bus: 82, 132, G, U.  ";"  Titulaciones      Geología  Ingeniería Geológica  ";"0";"http://www.madrid.es/vgn-ext-templating/v/index.jsp?vgnextchannel=9e4c43db40317010VgnVCM100000dc0ca8c0RCRD&vgnextoid=8fb8578b9671c010VgnVCM1000000b205a0aRCRD";"JOSE ANTONIO NOVAIS";"CALLE";"V";"12";"";"";"";"";"MADRID";"MADRID";"28040";"CIUDAD UNIVERSITARIA";"MONCLOA-ARAVACA";"438570";"4478010";"40.448599066708404";"-3.725717316611818";"913 944 826";"";"infoweb@geo.ucm.es";"/contenido/entidadesYorganismos/Universidades/Facultades"; 
6313;"Universidad Complutense de Madrid. Facultad de Ciencias Matemáticas";"";"";"";" Metro: Ciudad Universitaria (línea 6).  Bus: 82, 132, F, G, U. ";"  Titulaciones     Economía - Matemáticas y Estadística   Ingeniería Informática - Matemáticas  Ingeniería Matemática  Matemáticas  Matemáticas - Física   Matemáticas y Estadística  ";"0";"http://www.madrid.es/vgn-ext-templating/v/index.jsp?vgnextchannel=9e4c43db40317010VgnVCM100000dc0ca8c0RCRD&vgnextoid=12d8578b9671c010VgnVCM1000000b205a0aRCRD";"CIENCIAS";"PLAZA";"V";"3";"";"";"";"";"MADRID";"MADRID";"28040";"CIUDAD UNIVERSITARIA";"MONCLOA-ARAVACA";"438528";"4478102";"40.44942472705852";"-3.7262214898219117";"913 944 616 ";"";"";"/contenido/entidadesYorganismos/Universidades/Facultades"; 
6317;"Universidad Complutense de Madrid. Facultad de Ciencias Políticas y Sociología";"";"";"";"Metro Ligero Línea 2 ( ML2 ): Campus de Somosaguas.";"  Titulaciones     Antropología Social y Cultural  Ciencias Políticas  Ciencias Sociales y Jurídicas  Ciencias Políticas - Filosofía  Derecho - Ciencias Políticas   Gestión y Administración Pública  Relaciones Internacionales  Sociología  Sociología - Relaciones Internacionales y Experto en Desarrollo  Terapia Ocupacional  ";"0";"http://www.madrid.es/vgn-ext-templating/v/index.jsp?vgnextchannel=9e4c43db40317010VgnVCM100000dc0ca8c0RCRD&vgnextoid=a4e8578b9671c010VgnVCM1000000b205a0aRCRD";"HUMERA";"CARRETERA";"S/N";"0";"";"";"";"CAMPUS DE SOMOSAGUAS";"POZUELO DE ALARCÓN";"MADRID";"28223";"";"";"0";"0";"";"";"913 942 955 / 913 942 954 / 913 942 652";"";"";"/contenido/entidadesYorganismos/Universidades/Facultades"; 
6308;"Universidad Complutense de Madrid. Facultad de Ciencias Químicas";"";"";"";" Bus: 82, 132, F, G, U ";"  Titulaciones     Química  Ingeniería Química  Bioquímica  ";"0";"http://www.madrid.es/vgn-ext-templating/v/index.jsp?vgnextchannel=9e4c43db40317010VgnVCM100000dc0ca8c0RCRD&vgnextoid=37f8578b9671c010VgnVCM1000000b205a0aRCRD";"COMPLUTENSE";"AVENIDA";"S/N";"0";"";"";"";"";"MADRID";"MADRID";"28040";"CIUDAD UNIVERSITARIA";"MONCLOA-ARAVACA";"438594";"4478230";"40.45058268609175";"-3.725455626661173";"913 944 298 ";"";"secredoc@quim.ucm.es";"/contenido/entidadesYorganismos/Universidades/Facultades"; 
44824;"Universidad Complutense de Madrid. Facultad de Comercio y Turismo";"";"";"";" Metro: Islas Filipinas (línea 7)  Bus: 2, 12, 202 ";"  Titulaciones     Comercio  Turismo  Estudios de postgrado  ";"0";"http://www.madrid.es/vgn-ext-templating/v/index.jsp?vgnextchannel=9e4c43db40317010VgnVCM100000dc0ca8c0RCRD&vgnextoid=bd982c798651c010VgnVCM2000000c205a0aRCRD";"DE FILIPINAS";"AVENIDA";"V";"3";"";"";"";"";"MADRID";"MADRID";"28003";"VALLEHERMOSO";"CHAMBERI";"439767";"4477014";"40.439714439065696";"-3.7115079872932824";"913 946 767 ";"";"";"/contenido/entidadesYorganismos/Universidades/EscuelasUniversitarias"; 
6316;"Universidad Complutense de Madrid. Facultad de Derecho";"";"";"";" Metro: Ciudad Universitaria (línea 6).  Bus: 82, 132, F, G, U. ";"";"0";"http://www.madrid.es/vgn-ext-templating/v/index.jsp?vgnextchannel=9e4c43db40317010VgnVCM100000dc0ca8c0RCRD&vgnextoid=c909578b9671c010VgnVCM1000000b205a0aRCRD";"COMPLUTENSE";"AVENIDA";"S/N";"0";"";"";"";"CIUDAD UNIVERSITARIA";"MADRID";"MADRID";"28040";"CIUDAD UNIVERSITARIA";"MONCLOA-ARAVACA";"438142";"4478204";"40.4503148950245";"-3.7307830967558715";"913 945 431                 
";"913 945 431";"";"/contenido/entidadesYorganismos/Universidades/Facultades"; 
6340;"Universidad Complutense de Madrid. Facultad de Educación - Centro de Formación del Profesorado";"";"";"";" Bus: 132, F  ";"  Titulaciones    Educación Social  Maestro en Educación Infantil  Grado en Maestro en Educación Primaria (ofrece un grupo biling&uuml;e español - inglés)  Musicología  Pedagogía  ";"1";"http://www.madrid.es/vgn-ext-templating/v/index.jsp?vgnextchannel=9e4c43db40317010VgnVCM100000dc0ca8c0RCRD&vgnextoid=5c19578b9671c010VgnVCM1000000b205a0aRCRD";"RECTOR ROYO-VILLANOVA";"CALLE";"V";"0";"";"";"";"EDIFICIO LA ALMUDENA";"MADRID";"MADRID";"28040";"CIUDAD UNIVERSITARIA";"MONCLOA-ARAVACA";"439308";"4478186";"40.45023885049833";"-3.7170318707209766";"913 946 272  / 913 946 271 y 913 946 324 (Doctorado y Másteres)";"";"";"/contenido/entidadesYorganismos/Universidades/Facultades"; 
6366;"Universidad Complutense de Madrid. Facultad de Enfermería, Fisioterapia y Podología";"";"";"";" Metro: Ciudad Universitaria (línea 6).  Bus: 82, 132, G, U. ";"  Titulaciones     Enfermería  Fisioterapia  Podología  Estudios de postgrado  ";"0";"http://www.madrid.es/vgn-ext-templating/v/index.jsp?vgnextchannel=9e4c43db40317010VgnVCM100000dc0ca8c0RCRD&vgnextoid=7818578b9671c010VgnVCM1000000b205a0aRCRD";"RAMÓN Y CAJAL";"PLAZA";"V";"";"";"";"";"";"MADRID";"MADRID";"28040";"CIUDAD UNIVERSITARIA";"MONCLOA-ARAVACA";"438524";"4477559";"40.4445328804645";"-3.7262160043788155";"913 941 524 / 913 941 527";"";"";"/contenido/entidadesYorganismos/Universidades/EscuelasUniversitarias"; 
6365;"Universidad Complutense de Madrid. Facultad de Estudios Estadísticos";"";"";"";" Metro: Ciudad Universitaria (línea 6)  Bus: 83, 133, 162, I ";"  Titulaciones:  Estadística Aplicada ";"0";"http://www.madrid.es/vgn-ext-templating/v/index.jsp?vgnextchannel=9e4c43db40317010VgnVCM100000dc0ca8c0RCRD&vgnextoid=0b28578b9671c010VgnVCM1000000b205a0aRCRD";"PUERTA DE HIERRO";"AVENIDA";"S/N";"0";"";"";"";"";"MADRID";"MADRID";"28040";"CIUDAD UNIVERSITARIA";"MONCLOA-ARAVACA";"438075";"4477462";"40.44362568756041";"-3.7315006869938223";"913 944 004 ";"";"pgweb@estad.ucm.es";"/contenido/entidadesYorganismos/Universidades/EscuelasUniversitarias"; 
6303;"Universidad Complutense de Madrid. Facultad de Farmacia";"";"";"";" Metro: Ciudad Universitaria (línea 6)  Bus: 82, 132, G, U ";"  Titulaciones    Bioquímica  Ciencia y Tecnología de los alimentos   Farmacia  Nutrición Humana y Dietética  ";"1";"http://www.madrid.es/vgn-ext-templating/v/index.jsp?vgnextchannel=9e4c43db40317010VgnVCM100000dc0ca8c0RCRD&vgnextoid=ee29578b9671c010VgnVCM1000000b205a0aRCRD";"RAMÓN Y CAJAL";"PLAZA";"V";"";"";"";"";"";"MADRID";"MADRID";"28040";"CIUDAD UNIVERSITARIA";"MONCLOA-ARAVACA";"438524";"4477559";"40.4445328804645";"-3.7262160043788155";"913 941 712  ";"";"";"/contenido/entidadesYorganismos/Universidades/Facultades"; 
6312;"Universidad Complutense de Madrid. Facultad de Filología";"";"";"";" Metro: Ciudad Universitaria (línea 6)  Bus: 82, F, G ";"";"1";"http://www.madrid.es/vgn-ext-templating/v/index.jsp?vgnextchannel=9e4c43db40317010VgnVCM100000dc0ca8c0RCRD&vgnextoid=7149578b9671c010VgnVCM1000000b205a0aRCRD";"MENÉNDEZ PELAYO";"PLAZA";"V";"S/N";"";"";"";"";"MADRID";"MADRID";"28040";"CIUDAD UNIVERSITARIA";"MONCLOA-ARAVACA";"438160";"4478049";"40.44892001434071";"-3.7305439283265693";"Edificio A: 913 945 343. Edificio B: 913 945 727. Edificio C: 913 947 755";"";"";"/contenido/entidadesYorganismos/Universidades/Facultades"; 
6310;"Universidad Complutense de Madrid. Facultad de Filosofía";"";"";"";" Metro: Ciudad Universitaria (línea 6)  Bus: 82, F, G ";"  Titulaciones     Grado Filosofía  Doble Grado Derecho - Filosofía  ";"1";"http://www.madrid.es/vgn-ext-templating/v/index.jsp?vgnextchannel=9e4c43db40317010VgnVCM100000dc0ca8c0RCRD&vgnextoid=0459578b9671c010VgnVCM1000000b205a0aRCRD";"UNIVERSITARIA";"CIUDAD";"T";"";"";"";"";"";"MADRID";"MADRID";"0";"";"";"437551";"4477884";"";"";"913 945 982 ";"";"informacion@filos.ucm.es";"/contenido/entidadesYorganismos/Universidades/Facultades"; 
6309;"Universidad Complutense de Madrid. Facultad de Geografía e Historia";"";"";"";" Metro: Ciudad Universitaria (línea 6)  Bus: 82, 83, 132, 133, F, G, I, U  ";"   Titulaciones     Arqueología  Geografía y Ordenación del Territorio  Historia  Historia-Filología Clásica  Historia del Arte  Musicología  y estudios de Postgrado  ";"0";"http://www.madrid.es/vgn-ext-templating/v/index.jsp?vgnextchannel=9e4c43db40317010VgnVCM100000dc0ca8c0RCRD&vgnextoid=9669578b9671c010VgnVCM1000000b205a0aRCRD";"PROFESOR ARANGUREN";"CALLE";"S/N";"S/N";"";"";"";"CIUDAD UNIVERSITARIA";"MADRID";"MADRID";"28040";"CIUDAD UNIVERSITARIA";"MONCLOA-ARAVACA";"437891";"4478114";"40.449485392912145";"-3.7337340695642407";"913 945 727";"";"";"/contenido/entidadesYorganismos/Universidades/Facultades"; 
54821;"Universidad Complutense de Madrid. Facultad de Informática";"";"";"";" Bus: 82, F, G ";"  Titulaciones      Ingeniería de Computadores  Ingeniería de Software  Ingeniería Informática (ofrece un grupo en inglés)  Ingeniería Informática - Matemáticas  ";"1";"http://www.madrid.es/vgn-ext-templating/v/index.jsp?vgnextchannel=9e4c43db40317010VgnVCM100000dc0ca8c0RCRD&vgnextoid=b5da6545f951c010VgnVCM2000000c205a0aRCRD";"PROFESOR JOSE GARCIA SANTESMASES";"CALLE";"V";"9";"";"";"";"";"MADRID";"MADRID";"28040";"CIUDAD UNIVERSITARIA";"MONCLOA-ARAVACA";"437889";"4478496";"40.45293544436475";"-3.7337951823310425";"913 947 501 ";"913 947 510";"";"/contenido/entidadesYorganismos/Universidades/Facultades"; 
6304;"Universidad Complutense de Madrid. Facultad de Medicina";"";"";"";" Metro: Ciudad Universitaria (línea 6)  Bus: 82, 132, G, I, U ";"  Titulaciones     Medicina  Nutrición   Terapia Ocupacional  ";"1";"http://www.madrid.es/vgn-ext-templating/v/index.jsp?vgnextchannel=9e4c43db40317010VgnVCM100000dc0ca8c0RCRD&vgnextoid=2979578b9671c010VgnVCM1000000b205a0aRCRD";"RAMÓN Y CAJAL";"PLAZA";"V";"S/N";"";"";"";"";"MADRID";"MADRID";"28040";"CIUDAD UNIVERSITARIA";"MONCLOA-ARAVACA";"438524";"4477559";"40.4445328804645";"-3.7262160043788155";"913 941 328 / 913 941 327. Tít. Propios 913 941 324";"";"secre.alumnos@med.ucm.es";"/contenido/entidadesYorganismos/Universidades/Facultades"; 
6315;"Universidad Complutense de Madrid. Facultad de Odontología";"";"";"";" Metro: Ciudad Universitaria (línea 6)  Bus: 82, 132, G, I, U ";"  Titulación:  Odontología ";"1";"http://www.madrid.es/vgn-ext-templating/v/index.jsp?vgnextchannel=9e4c43db40317010VgnVCM100000dc0ca8c0RCRD&vgnextoid=bb89578b9671c010VgnVCM1000000b205a0aRCRD";"RAMÓN Y CAJAL";"PLAZA";"V";"3";"";"";"";"";"MADRID";"MADRID";"28040";"CIUDAD UNIVERSITARIA";"MONCLOA-ARAVACA";"438579";"4477511";"40.444104550243516";"-3.7255628495704003";"913 941 912 ";"";"infodon@pas.ucm.es";"/contenido/entidadesYorganismos/Universidades/Facultades"; 
6364;"Universidad Complutense de Madrid. Facultad de Óptica y Optometría";"";"";"";" Metro: San Blas (línea 7).  Bus: 4, 48, 153, N6. ";"  Titulación:  Óptica y Optometría ";"0";"http://www.madrid.es/vgn-ext-templating/v/index.jsp?vgnextchannel=9e4c43db40317010VgnVCM100000dc0ca8c0RCRD&vgnextoid=9d38578b9671c010VgnVCM1000000b205a0aRCRD";"ARCOS DE JALÓN";"CALLE";"V";"118";"";"";"";"";"MADRID";"MADRID";"28037";"ARCOS";"SAN BLAS-CANILLEJAS";"448020";"4475421";"40.42592167588895";"-3.614071525708849";"913 946 876 ";"";"infopt@ucm.es";"/contenido/entidadesYorganismos/Universidades/EscuelasUniversitarias"; 
6311;"Universidad Complutense de Madrid. Facultad de Psicología";"";"";"";" Metro Ligero Línea 2: Campus de Somosaguas. ";"  Titulaciones     Logopedia  Psicología (ofrece un grupo en inglés)  Terapia Ocupacional  ";"0";"http://www.madrid.es/vgn-ext-templating/v/index.jsp?vgnextchannel=9e4c43db40317010VgnVCM100000dc0ca8c0RCRD&vgnextoid=4e99578b9671c010VgnVCM1000000b205a0aRCRD";"HUMERA";"CARRETERA";"S/N";"0";"";"";"";"CAMPUS DE SOMOSAGUAS";"POZUELO DE ALARCÓN";"MADRID";"28223";"";"";"0";"0";"";"";"913 942 999 ";"";"infor@psi.ucm.es";"/contenido/entidadesYorganismos/Universidades/Facultades"; 
6367;"Universidad Complutense de Madrid. Facultad de Trabajo Social";"";"";"";"";"  Titulación:  Trabajo Social. ";"0";"http://www.madrid.es/vgn-ext-templating/v/index.jsp?vgnextchannel=9e4c43db40317010VgnVCM100000dc0ca8c0RCRD&vgnextoid=2058578b9671c010VgnVCM1000000b205a0aRCRD";"HUMERA";"CARRETERA";"NUM";"0";"";"";"";"CAMPUS DE SOMOSAGUAS";"POZUELO DE ALARCÓN";"MADRID";"28223";"";"";"0";"0";"";"";"913 942 999";"";"infotrs@trs.ucm.es";"/contenido/entidadesYorganismos/Universidades/EscuelasUniversitarias"; 
6314;"Universidad Complutense de Madrid. Facultad de Veterinaria";"";"";"";" Bus: 83, 133, 162, F, G, I  ";"";"1";"http://www.madrid.es/vgn-ext-templating/v/index.jsp?vgnextchannel=9e4c43db40317010VgnVCM100000dc0ca8c0RCRD&vgnextoid=d0b9578b9671c010VgnVCM1000000b205a0aRCRD";"PUERTA DE HIERRO";"AVENIDA";"V";"0";"";"";"";"";"MADRID";"MADRID";"28040";"CIUDAD UNIVERSITARIA";"MONCLOA-ARAVACA";"437749";"4477887";"40.44742985473592";"-3.7353862214813316";"913 943 896              
";"";"fdomingu@pas.ucm.es";"/contenido/entidadesYorganismos/Universidades/Facultades"; 
109174;"Universidad Complutense de Madrid. Instituto de Estudios Bursátiles (IEB)";"";"";"";" Metro: Banco de España (línea 2) , Retiro (línea 2).  Bus: 1, 2, 5, 9, 14, 15, 19, 20, 27, 28, 34, 37, 45, 51, 52, 53, 74, 146, 150, 202, 203. ";"  Titulaciones    Doble titulación: Derecho + Máster Bolsa  doble Titulación:  ADE  + Máster bolsa  Grado en Derecho  Grado en  ADE   ";"0";"http://www.madrid.es/vgn-ext-templating/v/index.jsp?vgnextchannel=9e4c43db40317010VgnVCM100000dc0ca8c0RCRD&vgnextoid=19e215a11a81c010VgnVCM1000000b205a0aRCRD";"ALFONSO XI";"CALLE";"V";"6";"";"";"";"";"MADRID";"MADRID";"28014";"LOS JERÓNIMOS";"RETIRO";"441517";"4474663";"40.41866066190487";"-3.690658377502491";"915 240 615";"902 190 200";"";"/contenido/entidadesYorganismos/Universidades/OtrosCentrosUniversitarios"; 
135620;"Universidad Complutense. Hospital Clínico Veterinario";"";"";"";" Bus: 83, 133, 162 ";"";"0";"http://www.madrid.es/vgn-ext-templating/v/index.jsp?vgnextchannel=9e4c43db40317010VgnVCM100000dc0ca8c0RCRD&vgnextoid=802a5f463b81c010VgnVCM1000000b205a0aRCRD";"PUERTA DE HIERRO";"AVENIDA";"V";"S/N";"";"";"";"FACULTAD DE VETERINARIA";"MADRID";"MADRID";"28040";"CIUDAD UNIVERSITARIA";"MONCLOA-ARAVACA";"437749";"4477887";"40.44742985473592";"-3.7353862214813316";"913 943 755 ";"";"";"/contenido/entidadesYorganismos/ClinicasCentrosVeterinarios"; 
6296;"Universidad de San Luis (Saint Louis University)";"      ";"";"";" Metro: Metropolitano (línea 6) , Guzmán el Bueno (línea 6)  Bus: 2 , 45 , C , F , I ";"  Titulaciones de Bachelor que se puedan cursar completas en el Campus de Madrid    Historia del Arte   Administración de Empresas: International Business   Administración de Empresas: Económicas   Comunicación: Enfoque internacional   Económicas  Inglés  Estudios Internacionales   Ciencias Políticas: Relaciones Internacionales  Psicología  Español  M.A. en Inglés  M.A. en Español    Programas Internacionales Destacados    Ciencias de la Aviación/Piloto Profesional   Ingeniería Internacional  Enfermería: Preparación Internacional    Además ofrece Titulaciones de Bachelor que se inician en el Campus de Madrid y se finalizan en el Campus de Missouri ";"0";"http://www.madrid.es/vgn-ext-templating/v/index.jsp?vgnextchannel=9e4c43db40317010VgnVCM100000dc0ca8c0RCRD&vgnextoid=5e6b578b9671c010VgnVCM1000000b205a0aRCRD";"VALLE";"AVENIDA";"V";"34";"";"";"";"";"MADRID";"MADRID";"28003";"VALLEHERMOSO";"CHAMBERI";"439264";"4477451";"40.44361453210154";"-3.717468514879233";"915 545 858";"915 546 202";"admissions-madrid@slu.edu";"/contenido/entidadesYorganismos/Universidades"; 
6293;"Universidad Internacional Schiller (Schiller International University - SIU)";"";"";"";" Metro: República Argentina (línea 6)  Bus: 7, C 1 ";"     Licenciaturas:    Licenciatura en Hostelería Internacional y Gestión Turística    Licenciatura en Economía Internacional    	Licenciatura en Relaciones Internacionales    Licenciatura en Negocios Internacionales     Máster:     	Máster en Administración y Dirección de Empresas    MBA en Negocios Internacionales    MBA en Relaciones Internacionales y Diplomacia    	Máster en Gestión Internacional  ";"0";"http://www.madrid.es/vgn-ext-templating/v/index.jsp?vgnextchannel=9e4c43db40317010VgnVCM100000dc0ca8c0RCRD&vgnextoid=98bb578b9671c010VgnVCM1000000b205a0aRCRD";"SERRANO";"CALLE";"V";"156";"";"";"";"";"MADRID";"MADRID";"28002";"EL VISO";"CHAMARTIN";"442011";"4477671";"40.44579288485752";"-3.685098971840817";"914 482 488";"";"admissions_EU@schiller.edu";"/contenido/entidadesYorganismos/Universidades"; 
14255;"Universidad Nacional de Educación a Distancia (UNED). Centro Asociado Instituto de Estudios Fiscales";"";"";"";"Bus: 82, 83, 133";"";"0";"http://www.madrid.es/vgn-ext-templating/v/index.jsp?vgnextchannel=9e4c43db40317010VgnVCM100000dc0ca8c0RCRD&vgnextoid=5b4fb3e0dcd4f010VgnVCM2000000c205a0aRCRD";"CARDENAL HERRERA ORIA";"AVENIDA";"V";"378";"";"";"";"EDIFICIO B";"MADRID";"MADRID";"28035";"FUENTELARREINA";"FUENCARRAL-EL PARDO";"437002";"4481090";"40.47622713271012";"-3.744512943533456";"913 398 796";"913 398 809";"info@iieef.uned.es";"/contenido/entidadesYorganismos/Universidades/OtrosCentrosUniversitarios"; 
178101;"Universidad Nacional de Educación a Distancia (UNED). Centro Asociado Madrid - Escuelas Pías";"";"";"";" Metro: Lavapiés (línea 3), Embajadores (línea 3)  Bus: 27, 34, 36, 41, 60, 78, 116, 118, 119, 148, C1, C2, E1, M1  Renfe: Embajadores (línea C-5) ";"  Titulaciones :    Grado en Ciencias Jurídicas de las Administraciones Públicas   Grado en Derecho   Grado en Trabajo Social  Licenciatura en Derecho (Plan 2000)    ";"0";"http://www.madrid.es/vgn-ext-templating/v/index.jsp?vgnextchannel=9e4c43db40317010VgnVCM100000dc0ca8c0RCRD&vgnextoid=2fed224e0d61c010VgnVCM1000000b205a0aRCRD";"TRIBULETE";"CALLE";"V";"14";"";"";"";"";"MADRID";"MADRID";"28012";"EMBAJADORES";"CENTRO";"440494";"4473464";"40.40778683673911";"-3.70260366801384";"914 675 871 / 914 675 522";"914 675 693";"info.escuelaspias@madrid.uned.es";"/contenido/entidadesYorganismos/Universidades/Facultades"; 
45202;"Universidad Nacional de Educación a Distancia (UNED). Centro Asociado Madrid - Gregorio Marañón";"";"";"";" Metro: Lavapiés (línea 3)  Bus: 6, 26, 27, 32, 34, 36, 41, 119, C1, C2, E1, M1 ";"  Titulaciones :   Grado en Estudios Ingleses  Grado en Geografía e Historia  Grado en Historia del Arte  Grado en Lengua y Literaturas Españolas  Licenciatura en Filología Hispánica (5&ordm; curso en extinción)  Licenciatura en Filología Inglesa (5&ordm; curso en extinción)  Licenciatura en Historia (5&ordm; curso en extinción)  ";"0";"http://www.madrid.es/vgn-ext-templating/v/index.jsp?vgnextchannel=9e4c43db40317010VgnVCM100000dc0ca8c0RCRD&vgnextoid=67792c798651c010VgnVCM2000000c205a0aRCRD";"ARGUMOSA";"CALLE";"V";"3";"";"";"";"";"MADRID";"MADRID";"28012";"EMBAJADORES";"CENTRO";"440700";"4473535";"40.40844116636762";"-3.70018265811484";"915 270 665 / 915 399 747";"915 270 665";"info.gmaranon@madrid.uned.es";"/contenido/entidadesYorganismos/Universidades/Facultades"; 
53998;"Universidad Nacional de Educación a Distancia (UNED). Centro Asociado Madrid - Jacinto Verdaguer";"";"";"";" Metro: Aviación Española (línea 10)  Bus: 17, 34, 39, 139  Renfe: Las Águilas (C-5) ";"  Titulaciones :   Grado en Ciencia Política y de la Administración  Grado en Sociología  Grado en Educación Social  Grado en Pedagogía  Grado en Psicología  Licenciatura en Pedagogía (3&ordm; y 4&ordm; curso)  Licenciatura en Psicología (5&ordm; curso en extinción)  Licenciatura en Ciencias Políticas y Sociología Secc. Ciencias Políticas (5&ordm; curso en extinción)  Licenciatura en Ciencias Políticas y Sociología Secc. Sociología (5&ordm; curso en extinción)  ";"0";"http://www.madrid.es/vgn-ext-templating/v/index.jsp?vgnextchannel=9e4c43db40317010VgnVCM100000dc0ca8c0RCRD&vgnextoid=f9892c798651c010VgnVCM2000000c205a0aRCRD";"FUENTE DE LIMA";"CALLE";"V";"22";"";"";"";"";"MADRID";"MADRID";"28024";"LAS AGUILAS";"LATINA";"433694";"4470739";"40.38272436710471";"-3.782454044817052";"917 106 155";"917 051 424";"info.jverdaguer@madrid.uned.es";"/contenido/entidadesYorganismos/Universidades/Facultades"; 
6177184;"Universidad Nacional de Educación a Distancia (UNED). Centro Asociado Madrid - Las Tablas";"";"";"";" Bus: 172, 176, T61  Metro: Las Tablas (líneas 10 y ML1), Palas de Rey (línea ML1) ";"   Grados en:  Ciencias Ambientales, Ingeniería Eléctrica, Ingeniería Informática, Ingeniería en Electrónica Industrial y Automática, Ingeniería en Tecnologías de la Información, Matemáticas, Ingeniería Mecánica, Química, Física, Ingeniería en Tecnologías Industriales   Estudios de Carreras de 1&ordm; y 2&ordm; ciclo : Licenciatura en Ciencias Físicas (en extinción), Licenciatura en Matemáticas (en extinción), Licenciatura en Ciencias Químicas (en extinción), Ingeniería Industrial (4&ordm; y 5&ordm; curso en extinción), Licenciatura en Ciencias Ambientales (en extinción).  ";"0";"http://www.madrid.es/vgn-ext-templating/v/index.jsp?vgnextchannel=9e4c43db40317010VgnVCM100000dc0ca8c0RCRD&vgnextoid=a8e4a30c0c582310VgnVCM1000000b205a0aRCRD";"SANTO DOMINGO DE LA CALZADA";"AVENIDA";"V";"9";"";"";"";"";"MADRID";"MADRID";"28050";"VALVERDE";"FUENCARRAL-EL PARDO";"443692";"4484210";"40.5048148552007";"-3.6658711721100445";"913 074 729 / 914 273 596                               
";"";"info.lastablas@madrid.uned.es";"/contenido/entidadesYorganismos/Universidades/Facultades"; 
72029;"Universidad Nacional de Educación a Distancia (UNED). Centro Asociado Madrid - Raimundo Fernández Villaverde";"";"";"";" Metro: Cuatro Caminos (líneas 1, 2 y 6), Nuevos Ministerios (líneas 6, 8 y 10)  Bus: 5, 45, 66, 149, C1, C2  Renfe: Nuevos Ministerios (líneas C-1, C-2, C-3, C-4, C-7, C-8 y C-10) ";"";"0";"http://www.madrid.es/vgn-ext-templating/v/index.jsp?vgnextchannel=9e4c43db40317010VgnVCM100000dc0ca8c0RCRD&vgnextoid=1169c2c6e051c010VgnVCM2000000c205a0aRCRD";"RAIMUNDO FERNANDEZ VILLAVERDE";"CALLE";"V";"32";"";"B";"";"";"MADRID";"MADRID";"28003";"RIOS ROSAS";"CHAMBERI";"440836";"4477718";"40.44613326792272";"-3.6989699295578347";"914 203 020 / 914 296 418 (Información general) / 914 203 912 (Secretaría)";"913 690 165";"info@madrid.uned.es";"/contenido/entidadesYorganismos/Universidades/Facultades"; 
7599166;"Universidad Nacional de Educación a Distancia (UNED). Centro Documentación Europea";"";"";"";"Bus: 46, 160, 161, A, U";"";"0";"http://www.madrid.es/vgn-ext-templating/v/index.jsp?vgnextchannel=9e4c43db40317010VgnVCM100000dc0ca8c0RCRD&vgnextoid=c5799b5ac9b87410VgnVCM1000000b205a0aRCRD";"SENDA DEL REY";"PASEO";"V";"5";"";"";"";"";"MADRID";"MADRID";"28040";"CIUDAD UNIVERSITARIA";"MONCLOA-ARAVACA";"437779";"4476626";"40.43607254945306";"-3.7349087553849483";"913 987 888 ";"913 987 889";"cde@adm.uned.es";"/contenido/entidadesYorganismos/ArchivosCentrosDocumentacion"; 
7599405;"Universidad Nacional de Educación a Distancia (UNED). Centro Universitario de Idiomas a Distancia (CUID)";"";"";"";"Bus: 46, 160, 161, A, U";"  Secretaría :   Teléfono: 913 987 719  Correo:  secretaria.cuid@adm.uned.es     Negociado 1 :   Teléfono: 913 987 710  Correo:  negociado.estudiantes1.cuid@adm.uned.es     Negociado 2:     Teléfono: 913 987 708  Correo:  negociado.estudiantes2.cuid@adm.uned.es   ";"0";"http://www.madrid.es/vgn-ext-templating/v/index.jsp?vgnextchannel=9e4c43db40317010VgnVCM100000dc0ca8c0RCRD&vgnextoid=67161ebc40c87410VgnVCM1000000b205a0aRCRD";"SENDA DEL REY";"PASEO";"V";"11";"Baja";"";"";"";"MADRID";"MADRID";"28040";"CIUDAD UNIVERSITARIA";"MONCLOA-ARAVACA";"437644";"4476824";"40.43784607871499";"-3.73651980159011";"";"";"";"/contenido/entidadesYorganismos/Universidades/Facultades"; 
124742;"Universidad Nacional de Educación a Distancia (UNED). Edificio de Humanidades";"";"";"";"Bus: 46, 160, 161, A, U";"";"0";"http://www.madrid.es/vgn-ext-templating/v/index.jsp?vgnextchannel=9e4c43db40317010VgnVCM100000dc0ca8c0RCRD&vgnextoid=6616a328be81c010VgnVCM1000000b205a0aRCRD";"SENDA DEL REY";"PASEO";"V";"9";"";"";"";"";"MADRID";"MADRID";"28040";"CIUDAD UNIVERSITARIA";"MONCLOA-ARAVACA";"437696";"4476764";"40.43730948057266";"-3.735900838138802";"";"";"";"/contenido/entidadesYorganismos/Universidades/Facultades"; 
6398;"Universidad Nacional de Educación a Distancia (UNED). Escuela Técnica Superior de Ingeniería Informática (ETSI Informática UNED)";"";"";"";" Bus: 83, 133, 162, F, G, U ";"  Títulos de Grado:    Grado en Ingeniería Informática   Grado en Ingeniería en Tecnologías de la Información   ";"0";"http://www.madrid.es/vgn-ext-templating/v/index.jsp?vgnextchannel=9e4c43db40317010VgnVCM100000dc0ca8c0RCRD&vgnextoid=2bcb578b9671c010VgnVCM1000000b205a0aRCRD";"JUAN DEL ROSAL";"CALLE";"V";"16";"";"";"";"";"MADRID";"MADRID";"28040";"CIUDAD UNIVERSITARIA";"MONCLOA-ARAVACA";"437553";"4478251";"40.45069416953142";"-3.7377332075902703";"913 989 662";"";"sec1.informatica@adm.uned.es";"/contenido/entidadesYorganismos/Universidades/EscuelasUniversitarias"; 
6425;"Universidad Nacional de Educación a Distancia (UNED). Escuela Técnica Superior de Ingenieros Industriales";"";"";"";"Bus: 83, 133, 162, F, G, U ";"  Títulos de Grado:    Grado Ingeniería Eléctrica  Grado Ingeniería en Electrónica Industrial y Automática  Grado Ingeniería Mecánica  Grado Ingeniería en Tecnologías industriales   ";"0";"http://www.madrid.es/vgn-ext-templating/v/index.jsp?vgnextchannel=9e4c43db40317010VgnVCM100000dc0ca8c0RCRD&vgnextoid=bddb578b9671c010VgnVCM1000000b205a0aRCRD";"JUAN DEL ROSAL";"CALLE";"V";"12";"";"";"";"";"MADRID";"MADRID";"28040";"CIUDAD UNIVERSITARIA";"MONCLOA-ARAVACA";"437615";"4478340";"40.45150057655507";"-3.7370108596983083";"913 986 405 /6407 / 8233 ";"913 988 250";"neg.secret@ind.uned.es";"/contenido/entidadesYorganismos/Universidades/EscuelasUniversitarias"; 
6321;"Universidad Nacional de Educación a Distancia (UNED). Facultad de Ciencias";"";"";"";"Bus: 46, 160, 161, A, U";"  Títulos de Grado:     Grado en Ciencias Ambientales  Grado en Física  Grado en Matemáticas  Grado en Química   N egociados de Atención al Estudiante     Ciencias Físicas    Teléfono: 913 987 115  Correo electrónico:  negociado.alumnos.fisicas@adm.uned.es         Ciencias Químicas    Teléfono: 913 987 114  Correo electrónico:  negociado.alumnos.quimicas@adm.uned.es         Ciencias Matemáticas    Teléfono: 913 987 106  Correo electrónico:  negociado.alumnos.matematicas@adm.uned.es         Ciencias Ambientales    Teléfono: 913 988 903 / 6732 / 9533   Correo electrónico:  negociado.ambientales@adm.uned.es            ";"0";"http://www.madrid.es/vgn-ext-templating/v/index.jsp?vgnextchannel=9e4c43db40317010VgnVCM100000dc0ca8c0RCRD&vgnextoid=40fb578b9671c010VgnVCM1000000b205a0aRCRD";"SENDA DEL REY";"PASEO";"V";"9";"";"";"";"";"MADRID";"MADRID";"28040";"CIUDAD UNIVERSITARIA";"MONCLOA-ARAVACA";"437696";"4476764";"40.43730948057266";"-3.735900838138802";"";"";"";"/contenido/entidadesYorganismos/Universidades/Facultades"; 
6326;"Universidad Nacional de Educación a Distancia (UNED). Facultad de Ciencias Económicas y Empresariales";"";"";"";"Bus: 46, 160, 161, U ";"  Atención al Estudiante del Grado en Administración y Dirección de Empresas (Consultas sobre, matrículas, traslados de expedientes, certificados y expedientes académicos y solicitudes de títulos) :    Teléfono: 913 989 445/ 8894 / 8755 / 7878 / 6320 / 6319 / 6318 / 6316 / 6315 / 6314 / 6312 / 6305  Correo:  negociado.empresariales1@adm.uned.es ,  negociado.empresariales2@adm.uned.es ,  neg.diplomaturaemp@adm.uned.es     Atención al Estudiante de la Licenciatura de Administración y Dirección de Empresas (Consultas sobre, matrículas, traslados de expedientes, certificados y expedientes académicos y solicitudes de títulos):     Teléfonos: 913 988 894 / 7878 / 6320 / 6319 / 6318 / 6312  Correo:  negociado.empresariales1@adm.uned.es ,  negociado.empresariales2@adm.uned.es     Atención al Estudiante del Grado y Licenciatura de Economía (Consultas sobre, matrículas, traslados de expedientes, certificados y expedientes académicos y solicitudes de títulos):     Teléfonos: 913 986 309 / 6308 / 6307 / 6306 / 6304    Correo:  negociado.economicas@adm.uned.es        Atención al Estudiante de la Diplomatura de  Ciencias Empresariales (Consultas sobre, matrículas, traslados de expedientes, certificados y expedientes académicos y solicitudes de títulos):     Teléfonos: 913 989 445 / 8755 / 6316 / 6315 / 6314 / 6305  Correo:  neg.diplomaturaemp@adm.uned.es     Atención al Estudiante de Postgrado y Tercer Ciclo: Consultas sobre preinscripción, matrículas, expedientes académicos de alumnos de Postgrado (Doctorado y Máster Oficial)    Teléfonos: 913 986 323 / 9439 / 8537   Correo:  doctorado.cee@adm.uned.es ,  cee.posgradosoficiales@adm.uned.es   ";"0";"http://www.madrid.es/vgn-ext-templating/v/index.jsp?vgnextchannel=9e4c43db40317010VgnVCM100000dc0ca8c0RCRD&vgnextoid=d20c578b9671c010VgnVCM1000000b205a0aRCRD";"SENDA DEL REY";"PASEO";"V";"11";"";"";"";"";"MADRID";"MADRID";"28040";"CIUDAD UNIVERSITARIA";"MONCLOA-ARAVACA";"437644";"4476824";"40.43784607871499";"-3.73651980159011";"";"";"";"/contenido/entidadesYorganismos/Universidades/Facultades"; 
6323;"Universidad Nacional de Educación a Distancia (UNED). Facultad de Ciencias Políticas y Sociología";"    ";"";"";"Bus: 46, 160, 161, A, U ";"  Títulos de Grado:    Grado en Ciencias Política y de la Administración  Grado en Sociología    Secretaría de Decanato :    Teléfono: 913 987 011  Correo:  decanato.polisoci@adm.uned.es     Secretaría de Facultad :    Teléfono: 913 987 005  Correo:  secretaria.poli.soci@adm.uned.es   ";"0";"http://www.madrid.es/vgn-ext-templating/v/index.jsp?vgnextchannel=9e4c43db40317010VgnVCM100000dc0ca8c0RCRD&vgnextoid=651c578b9671c010VgnVCM1000000b205a0aRCRD";"OBISPO TREJO";"CALLE";"V";"2";"";"";"";"";"MADRID";"MADRID";"28040";"CIUDAD UNIVERSITARIA";"MONCLOA-ARAVACA";"437887";"4476588";"40.4357383183188";"-3.7336317682081046";"";"";"";"/contenido/entidadesYorganismos/Universidades/Facultades"; 
6327;"Universidad Nacional de Educación a Distancia (UNED). Facultad de Derecho";"";"";"";" Bus: 46, 160, 161, A, U  ";"  Titulos de Grado:    Grado en Derecho  Grado en Trabajo Social  Grado en Ciencias Jurídicas de las Administraciones Públicas  ";"0";"http://www.madrid.es/vgn-ext-templating/v/index.jsp?vgnextchannel=9e4c43db40317010VgnVCM100000dc0ca8c0RCRD&vgnextoid=f72c578b9671c010VgnVCM1000000b205a0aRCRD";"OBISPO TREJO";"CALLE";"V";"2";"";"";"";"";"MADRID";"MADRID";"28040";"CIUDAD UNIVERSITARIA";"MONCLOA-ARAVACA";"437887";"4476588";"40.4357383183188";"-3.7336317682081046";"913 988 133 / 913 986 109                                 
";"";"negociadosecretaria@der.uned.es";"/contenido/entidadesYorganismos/Universidades/Facultades"; 
6351;"Universidad Nacional de Educación a Distancia (UNED). Facultad de Educación";"";"";"";"Bus: 83, 133, 162, U ";"  Títulos de Grado:    Grado en Educación Social  Grado en Pedagogía   ";"0";"http://www.madrid.es/vgn-ext-templating/v/index.jsp?vgnextchannel=9e4c43db40317010VgnVCM100000dc0ca8c0RCRD&vgnextoid=8a3c578b9671c010VgnVCM1000000b205a0aRCRD";"JUAN DEL ROSAL";"CALLE";"V";"14";"";"";"";"";"MADRID";"MADRID";"28040";"CIUDAD UNIVERSITARIA";"MONCLOA-ARAVACA";"437567";"4478315";"40.451271757483035";"-3.737574422461979";"913 988 740 / 8280 / 6904";"913 988 448";"secre.edu@adm.uned.es";"/contenido/entidadesYorganismos/Universidades/Facultades"; 
6322;"Universidad Nacional de Educación a Distancia (UNED). Facultad de Filología";"";"";"";"Bus: 46, 160, 161, A, U ";"  Títulos de Grado:    Grado en Lengua y Literatura Españolas  Grado en Estudios Ingleses: Lengua, Literatura y Cultura  ";"0";"http://www.madrid.es/vgn-ext-templating/v/index.jsp?vgnextchannel=9e4c43db40317010VgnVCM100000dc0ca8c0RCRD&vgnextoid=1d4c578b9671c010VgnVCM1000000b205a0aRCRD";"SENDA DEL REY";"PASEO";"V";"7";"";"";"";"";"MADRID";"MADRID";"28040";"CIUDAD UNIVERSITARIA";"MONCLOA-ARAVACA";"437769";"4476650";"40.436288001008705";"-3.7350290048481276";"913 986 813 / 6810";"";"secretaria.filologia@adm.uned.es";"/contenido/entidadesYorganismos/Universidades/Facultades"; 
6329;"Universidad Nacional de Educación a Distancia (UNED). Facultad de Filosofía";"";"";"";"Bus: 46, 160, 161, A, U";"  Títulos de Grado:    Grado en Antropología Social y Cultural  Grado en Filosofía   ";"0";"http://www.madrid.es/vgn-ext-templating/v/index.jsp?vgnextchannel=9e4c43db40317010VgnVCM100000dc0ca8c0RCRD&vgnextoid=af5c578b9671c010VgnVCM1000000b205a0aRCRD";"SENDA DEL REY";"PASEO";"V";"7";"";"";"";"";"MADRID";"MADRID";"28040";"CIUDAD UNIVERSITARIA";"MONCLOA-ARAVACA";"437769";"4476650";"40.436288001008705";"-3.7350290048481276";"913 987 211 (Secretaría Decanato) / 913 988 928 / 6903 (Secretaría Facultad)";"";"secretaria.filosofia@adm.uned.es";"/contenido/entidadesYorganismos/Universidades/Facultades"; 
6328;"Universidad Nacional de Educación a Distancia (UNED). Facultad de Geografía e Historia";"";"";"";"Bus: 46, 160, 161, A, U";"  Títulos de Grado:    Grado en Geografía e Historia  Grado en Historia del Arte  ";"0";"http://www.madrid.es/vgn-ext-templating/v/index.jsp?vgnextchannel=9e4c43db40317010VgnVCM100000dc0ca8c0RCRD&vgnextoid=327c578b9671c010VgnVCM1000000b205a0aRCRD";"SENDA DEL REY";"PASEO";"V";"7";"";"";"";"";"MADRID";"MADRID";"28040";"CIUDAD UNIVERSITARIA";"MONCLOA-ARAVACA";"437769";"4476650";"40.436288001008705";"-3.7350290048481276";"913 986 703 / 6713";"";"secretaria.geo-hist@adm.uned.es";"/contenido/entidadesYorganismos/Universidades/Facultades"; 
6324;"Universidad Nacional de Educación a Distancia (UNED). Facultad de Psicología";"";"";"";"Bus: 83, 133, 162, U";"  Títulos de Grado:  Grado en Psicología ";"0";"http://www.madrid.es/vgn-ext-templating/v/index.jsp?vgnextchannel=9e4c43db40317010VgnVCM100000dc0ca8c0RCRD&vgnextoid=c48c578b9671c010VgnVCM1000000b205a0aRCRD";"JUAN DEL ROSAL";"CALLE";"V";"10";"";"";"";"";"MADRID";"MADRID";"28040";"CIUDAD UNIVERSITARIA";"MONCLOA-ARAVACA";"437718";"4478417";"40.45220195752452";"-3.7358038297280163";"913 986 212 / 6213 / 9462 (Secretaría Académica)             
";"";"secretaria.psi@adm.uned.es";"/contenido/entidadesYorganismos/Universidades/Facultades"; 
53990;"Universidad Nacional de Educación a Distancia (UNED). Madrid - Giner De Los Ríos";"";"";"";" Metro: Francos Rodríguez (línea 7)  Bus: 44, 64, 126, 127, 132 ";"  Titulaciones :    Grado en Economía  Grado en Filosofía  Grado en Administración y Dirección de Empresas  Grado en Antropología Social y Cultural  Grado en Turismo  ";"0";"http://www.madrid.es/vgn-ext-templating/v/index.jsp?vgnextchannel=9e4c43db40317010VgnVCM100000dc0ca8c0RCRD&vgnextoid=d4692c798651c010VgnVCM2000000c205a0aRCRD";"FRANCOS RODRIGUEZ";"CALLE";"V";"77";"";"";"";"";"MADRID";"MADRID";"28039";"CIUDAD UNIVERSITARIA";"MONCLOA-ARAVACA";"439448";"4479086";"40.45835663003509";"-3.7154669792874784";"913 118 768";"913 115 381";"info.ginerdelosrios@madrid.uned.es";"/contenido/entidadesYorganismos/Universidades/Facultades"; 
6295;"Universidad Nacional de Educación a Distancia (UNED). Unidad de Atención al Estudiante de Bravo Murillo";"";"";"";" Metro: Canal (línea 2 y 7), Alonso Cano (línea 7)  Bus: 3, 12, 37, 149 ";"";"1";"http://www.madrid.es/vgn-ext-templating/v/index.jsp?vgnextchannel=9e4c43db40317010VgnVCM100000dc0ca8c0RCRD&vgnextoid=579c578b9671c010VgnVCM1000000b205a0aRCRD";"BRAVO MURILLO";"CALLE";"V";"38";"";"";"";"";"MADRID";"MADRID";"28015";"TRAFALGAR";"CHAMBERI";"440398";"4476826";"40.438066403625506";"-3.704050695697361";"913 988 267 / 8";"";"";"/contenido/entidadesYorganismos/Universidades"; 
7599347;"Universidad Nacional de Educación a Distancia (UNED). Unidad de Atención al Estudiante de Ciudad Universitaria";"";"  Atención   presencial :   De 9 a 14 y de 16 a 18 horas de lunes a jueves y de 9 a 14 horas los viernes  Horario de verano (del 16 de junio al 31 de julio): de 9 a 14 horas de lunes a viernes.   ";"";"Bus: 83, 133, 162, F, G, U ";"";"0";"http://www.madrid.es/vgn-ext-templating/v/index.jsp?vgnextchannel=9e4c43db40317010VgnVCM100000dc0ca8c0RCRD&vgnextoid=2148faebafb87410VgnVCM1000000b205a0aRCRD";"JUAN DEL ROSAL";"CALLE";"V";"16";"";"";"";"";"MADRID";"MADRID";"28040";"CIUDAD UNIVERSITARIA";"MONCLOA-ARAVACA";"437615";"4478340";"40.45150057655507";"-3.7370108596983083";"913 986 091";"";"";"/contenido/entidadesYorganismos/Universidades/Facultades"; 
7599342;"Universidad Nacional de Educación a Distancia (UNED). Unidad de Atención al Estudiante de Senda del Rey";"";"  Atención   presencial : de 9 a 14 y de 16 a 18 horas de lunes a jueves y de 9 a 14 horas los viernes ";"";"Bus: 46, 160, 161, A, U";"";"0";"http://www.madrid.es/vgn-ext-templating/v/index.jsp?vgnextchannel=9e4c43db40317010VgnVCM100000dc0ca8c0RCRD&vgnextoid=991447daabb87410VgnVCM1000000b205a0aRCRD";"SENDA DEL REY";"PASEO";"V";"7";"";"";"";"";"MADRID";"MADRID";"28040";"CIUDAD UNIVERSITARIA";"MONCLOA-ARAVACA";"437769";"4476650";"40.436288001008705";"-3.7350290048481276";"913 986 000 / 600 ";"";"";"/contenido/entidadesYorganismos/Universidades/Facultades"; 
6424;"Universidad Politécnica de Madrid. Escuela Técnica Superior de Arquitectura";"";"";"  Biblioteca   Instalaciones deportivas (Campos de rugby - Pistas polideportivas)  ";" Metro:   Ciudad Universitaria (línea 6), Moncloa (líneas 3, 6)  Bus: 46, 83, 133, 160, 161, 162 ";"  Estudios de Grado    Grado en Fundamentos de Arquitectura    Estudios de postgrado   ";"1";"http://www.madrid.es/vgn-ext-templating/v/index.jsp?vgnextchannel=9e4c43db40317010VgnVCM100000dc0ca8c0RCRD&vgnextoid=e9ac578b9671c010VgnVCM1000000b205a0aRCRD";"JUAN DE HERRERA";"AVENIDA";"V";"4";"";"";"";"";"MADRID";"MADRID";"28040";"CIUDAD UNIVERSITARIA";"MONCLOA-ARAVACA";"438057";"4476955";"40.43905709683513";"-3.7316634010765313";"913 366 501 / 913 366 507";"";"";"/contenido/entidadesYorganismos/Universidades/EscuelasUniversitarias"; 
6381;"Universidad Politécnica de Madrid. Escuela Técnica Superior de Edificación";"";"";"  Biblioteca  Instalaciones deportivas (Pista polideportiva)  ";" Metro: Ciudad Universitaria (línea 6), Moncloa (líneas 3 y 6)  Bus: 46, 83, 133, 160, 161, 162 ";"  Estudios de Grado   Grado en Ingeniería de Edificación    Estudios de postgrado  ";"1";"http://www.madrid.es/vgn-ext-templating/v/index.jsp?vgnextchannel=9e4c43db40317010VgnVCM100000dc0ca8c0RCRD&vgnextoid=f05d578b9671c010VgnVCM1000000b205a0aRCRD";"JUAN DE HERRERA";"AVENIDA";"V";"6";"";"";"";"";"MADRID";"MADRID";"28040";"CIUDAD UNIVERSITARIA";"MONCLOA-ARAVACA";"438030";"4476922";"40.43875780503793";"-3.731978507643713";"913 367 636 ";"";"comunicacion.edificacion@upm.es";"/contenido/entidadesYorganismos/Universidades/EscuelasUniversitarias"; 
6376;"Universidad Politécnica de Madrid. Escuela Técnica Superior de Ingeniería Civil";"";"";"Biblioteca";" Metro: Atocha (línea 1)  Bus: 6, 10, 14, 19, 24, 26, 27, 32, 34, 37, 45, 59, 85, 102,  C1 ,  C2    Renfe: Atocha ";"  Estudios de Grado    Grado en Ingeniería Civil  ";"1";"http://www.madrid.es/vgn-ext-templating/v/index.jsp?vgnextchannel=9e4c43db40317010VgnVCM100000dc0ca8c0RCRD&vgnextoid=3b9d578b9671c010VgnVCM1000000b205a0aRCRD";"ALFONSO XII";"CALLE";"V";"3";"";"";"";"";"MADRID";"MADRID";"28014";"LOS JERONIMOS";"RETIRO";"441695";"4473645";"40.40950251823442";"-3.688466890966942";"913 367 730                    
";"";"";"/contenido/entidadesYorganismos/Universidades/EscuelasUniversitarias"; 
6379;"Universidad Politécnica de Madrid. Escuela Técnica Superior de Ingeniería de Sistemas Informáticos";"";"";"  Biblioteca  Centro de cálculo  Servicio de publicaciones  Reprografía  Punto de información universitaria   ";" Metro: Sierra de Guadalupe (línea 1)  Bus: 54, 58, 63, 103, 142, 143, 145  Renfe: Vallecas (líneas C1, C2, C7) ";"  Estudios de grado    Graduado en Ingeniería de Computadores  Graduado en Ingeniería del Software  Graduado en sistemas de información    Estudios de postgrado  ";"1";"http://www.madrid.es/vgn-ext-templating/v/index.jsp?vgnextchannel=9e4c43db40317010VgnVCM100000dc0ca8c0RCRD&vgnextoid=836d578b9671c010VgnVCM1000000b205a0aRCRD";"VALENCIA";"AUTOVÍA";"S/N";"KILÓMETRO 7";"";"";"";"";"MADRID";"MADRID";"28031";"PALOMERAS SURESTE";"PUENTE DE VALLECAS";"0";"0";"";"";"913 367 903";"";"";"/contenido/entidadesYorganismos/Universidades/EscuelasUniversitarias"; 
6387;"Universidad Politécnica de Madrid. Escuela Técnica Superior de Ingeniería y Diseño Industrial";"";"";"  Biblioteca  Servicio de publicaciones  ";" Metro: Embajadores (línea 3)  Bus: 6, 27, 34, 36, 41, 55, 59, 60, 78, 85, 116, 118, 119, 148, C1, C2, E1, M1  Renfe: Embajadores (C5) ";"  Estudios de grado    Graduado en Ingeniería Eléctrica   Graduado en Ingeniería Electrónica Industrial y Automática  Graduado en Ingeniería Mecánica  Graduado en Ingeniería Química   Grado en Ingeniería en Diseño Industrial y Desarrollo de Producto  Doble Grado en Ingeniería en Diseño Industrial y en Ingeniería Mecánica  Doble Grado en Ingeniería Eléctrica y en Ingeniería Electrónica    Estudios de postgrado  ";"1";"http://www.madrid.es/vgn-ext-templating/v/index.jsp?vgnextchannel=9e4c43db40317010VgnVCM100000dc0ca8c0RCRD&vgnextoid=e2dd578b9671c010VgnVCM1000000b205a0aRCRD";"VALENCIA";"RONDA";"V";"3";"";"";"";"";"MADRID";"MADRID";"28012";"PALOS DE MOGUER";"ARGANZUELA";"440661";"4473199";"40.40541152859583";"-3.7006108767868335";"913 367 699 ";"";"";"/contenido/entidadesYorganismos/Universidades/EscuelasUniversitarias"; 
6417;"Universidad Politécnica de Madrid. Escuela Técnica Superior de Ingeniería y Sistemas de Telecomunicación";"";"";"  Biblioteca  Servicio de publicaciones   Venta  Reprografía    Instalaciones deportivas   Pista polideportiva    ";" Metro: Sierra de Guadalupe (línea 1)  Bus: 54, 58, 63, 103, 142, 143, 145, E   Renfe: C1, C2 y C7. Línea Atocha - Alcalá de Henares. Estación de Vallecas  ";"  Estudios de grado    Grado en Ingeniería Electrónica de Comunicaciones  Grado en Ingeniería de Sistemas de Telecomunicación  Grado en Ingeniería de Sonido e Imagen  Grado en Ingeniería Telemática  ";"1";"http://www.madrid.es/vgn-ext-templating/v/index.jsp?vgnextchannel=9e4c43db40317010VgnVCM100000dc0ca8c0RCRD&vgnextoid=db2d578b9671c010VgnVCM1000000b205a0aRCRD";"VALENCIA";"CARRETERA";"V";"KM. 7";"";"";"";"CAMPUS SUR";"MADRID";"MADRID";"28031";"";"";"0";"0";"";"";"913 367 780 ";"";"";"/contenido/entidadesYorganismos/Universidades/EscuelasUniversitarias"; 
6418;"Universidad Politécnica de Madrid. Escuela Técnica Superior de Ingenieros Aeronáuticos y del Espacio";"";"";"  Biblioteca   Centro de Cálculo  ";" Metro: Ciudad Universitaria (línea 6), Moncloa (líneas 3, 6)  Bus: 46, 82, 83, 132, 133, 160, 161, 162, G, U ";"  Estudios de Grado    Grado en Ingeniería Aeroespacial  Título propio de grado en Gestión y operaciones de transporte aéreo    Estudios de postgrado   ";"1";"http://www.madrid.es/vgn-ext-templating/v/index.jsp?vgnextchannel=9e4c43db40317010VgnVCM100000dc0ca8c0RCRD&vgnextoid=7cbc578b9671c010VgnVCM1000000b205a0aRCRD";"CARDENAL CISNEROS";"PLAZA";"V";"1";"";"";"";"";"MADRID";"MADRID";"28040";"CIUDAD UNIVERSITARIA";"MONCLOA-ARAVACA";"438605";"4477109";"40.44048510157725";"-3.725217365221927";"913 366 301 ";"";"info@aero.upm.es";"/contenido/entidadesYorganismos/Universidades/EscuelasUniversitarias"; 
6419;"Universidad Politécnica de Madrid. Escuela Técnica Superior de Ingenieros Agrónomos";"";"";"Biblioteca";" Metro:   Ciudad Universitaria (línea 6)  Bus: 82, 132, G, U ";"  Estudios de Grado    Grado en Ingeniería Alimentaria   Grado en Ingeniería y Ciencia Agronómica  Grado en Ingeniería Agroambiental   Grado en Biotecnología   ";"1";"http://www.madrid.es/vgn-ext-templating/v/index.jsp?vgnextchannel=9e4c43db40317010VgnVCM100000dc0ca8c0RCRD&vgnextoid=0fcc578b9671c010VgnVCM1000000b205a0aRCRD";"COMPLUTENSE";"AVENIDA";"V";"3";"";"";"";"";"MADRID";"MADRID";"28040";"CIUDAD UNIVERSITARIA";"MONCLOA-ARAVACA";"438376";"4477679";"40.44560290980318";"-3.727972735058249";"913 365 600 ";"";"";"/contenido/entidadesYorganismos/Universidades/EscuelasUniversitarias"; 
6420;"Universidad Politécnica de Madrid. Escuela Técnica Superior de Ingenieros de Caminos, Canales y Puertos";"";"";"  Biblioteca  Servicio de publicaciones   Venta de libros  Servicio de reprografía  Librería Caminos    Instalaciones deportivas   Canchas de fútbol sala  Pistas de tenis    ";" Metro: Ciudad Universitaria (línea 6)  Bus: 83, 133, 162, F, G ";"  Estudios de Grado    Grado en Ingeniería Civil y Territorial   Grado en Ingeniería de Materiales  ";"1";"http://www.madrid.es/vgn-ext-templating/v/index.jsp?vgnextchannel=9e4c43db40317010VgnVCM100000dc0ca8c0RCRD&vgnextoid=91ec578b9671c010VgnVCM1000000b205a0aRCRD";"PROFESOR ARANGUREN";"CALLE";"V";"3";"";"";"";"";"MADRID";"MADRID";"28040";"CIUDAD UNIVERSITARIA";"MONCLOA-ARAVACA";"437903";"4478029";"40.44872058026011";"-3.7335842412329687";"913 366 744 / 6736";"";"";"/contenido/entidadesYorganismos/Universidades/EscuelasUniversitarias"; 
6421;"Universidad Politécnica de Madrid. Escuela Técnica Superior de Ingenieros de Minas y Energía";"";"";"Biblioteca";" Metro: Ríos Rosas (línea 1)  Bus: 3, 5, 12, 37, 45, 149  ";"  Estudios de grado    Grado en Ingeniería en Tecnología Minera  Grado en Ingeniería Geológica  Grado en Ingeniería de los Recursos Energéticos, Combustibles y Explosivos  Grado en Ingeniería de la Energía    Estudios de postgrado  ";"0";"http://www.madrid.es/vgn-ext-templating/v/index.jsp?vgnextchannel=9e4c43db40317010VgnVCM100000dc0ca8c0RCRD&vgnextoid=24fc578b9671c010VgnVCM1000000b205a0aRCRD";"RIOS ROSAS";"CALLE";"V";"21";"";"";"";"";"MADRID";"MADRID";"28003";"RIOS ROSAS";"CHAMBERI";"440712";"4477269";"40.44207963042673";"-3.7003900716027776";"913 367 000 / 913 366 965 / 913 366 461";"";"";"/contenido/entidadesYorganismos/Universidades/EscuelasUniversitarias"; 
6422;"Universidad Politécnica de Madrid. Escuela Técnica Superior de Ingenieros de Montes";"";"";"  Biblioteca  Instalaciones deportivas   Campos de fútbol  Pistas de tenis    ";" Metro: Metropolitano (línea 6)  Bus: 132 ";"  Estudios de Grado    Grado en Ingeniería Forestal  Grado en Ingeniería Forestal + Ingeniero de Montes   Grado en Ingeniería del Medio Natural    Estudios de postgrado  ";"0";"http://www.madrid.es/vgn-ext-templating/v/index.jsp?vgnextchannel=9e4c43db40317010VgnVCM100000dc0ca8c0RCRD&vgnextoid=b60d578b9671c010VgnVCM1000000b205a0aRCRD";"CIUDAD UNIVERSITARIA";"CAMPUS";"S/N";"0";"";"";"";"";"MADRID";"MADRID";"28040";"CIUDAD UNIVERSITARIA";"MONCLOA-ARAVACA";"0";"0";"";"";"913 367 073 ";"";"";"/contenido/entidadesYorganismos/Universidades/EscuelasUniversitarias"; 
6375;"Universidad Politécnica de Madrid. Escuela Técnica Superior de Ingenieros de Telecomunicación";"";"";"  Biblioteca  Servicio de publicaciones  ";"Bus: 82, F, G, U";"  Estudios de grado    Grado en Ingeniería de Tecnologías y Servicios de Telecomunicación  Grado en Ingeniería Biomédica  ";"1";"http://www.madrid.es/vgn-ext-templating/v/index.jsp?vgnextchannel=9e4c43db40317010VgnVCM100000dc0ca8c0RCRD&vgnextoid=cdad578b9671c010VgnVCM1000000b205a0aRCRD";"COMPLUTENSE";"AVENIDA";"V";"30";"";"";"";"";"MADRID";"MADRID";"28040";"CIUDAD UNIVERSITARIA";"MONCLOA-ARAVACA";"438456";"4478499";"40.45299571351181";"-3.7271090498334716";"913 367 243 / 915 495 700  / 915 439 652                    
";"";"";"/contenido/entidadesYorganismos/Universidades/EscuelasUniversitarias"; 
6380;"Universidad Politécnica de Madrid. Escuela Técnica Superior de Ingenieros en Topografía, Geodesia y Cartografía";"";"";"  Biblioteca  Servicio de publicaciones  ";" Metro: Sierra de Guadalupe (línea 1)  Bus: 54, 58, 103, 130, 142, 143, H1, T31  Cercanías: Vallecas (línea C1, C2, C7) ";"  Estudios de grado    Grado en Ingeniería Geomática y Topografía    Estudios de postgrado  ";"1";"http://www.madrid.es/vgn-ext-templating/v/index.jsp?vgnextchannel=9e4c43db40317010VgnVCM100000dc0ca8c0RCRD&vgnextoid=75ed578b9671c010VgnVCM1000000b205a0aRCRD";"ARBOLEDA";"CALLE";"V";"0";"";"";"";"CARRETERA DE VALENCIA, KM 7";"MADRID";"MADRID";"28031";"PALOMERAS SURESTE";"PUENTE DE VALLECAS";"446954";"4470889";"40.385027135121874";"-3.6262590221140574";"913 367 916 ";"";"";"/contenido/entidadesYorganismos/Universidades/EscuelasUniversitarias"; 
6427;"Universidad Politécnica de Madrid. Escuela Técnica Superior de Ingenieros Industriales";"";"";"  Biblioteca  Sección de publicaciones   Venta de libros   Reprografía    Instalaciones deportivas   Cancha de Fútbol Sala  Pistas de tenis  Frontón  Gimnasio  Piscina    ";" Metro: Gregorio Marañón (líneas 7, 10)   Bus: 7, 12, 14, 16, 27, 40, 45, 147, 150 ";"  Estudios de grado     Ingeniería en Tecnologías Industriales  Ingeniería de Organización  Ingeniería Química    Estudios de postgrado  ";"1";"http://www.madrid.es/vgn-ext-templating/v/index.jsp?vgnextchannel=9e4c43db40317010VgnVCM100000dc0ca8c0RCRD&vgnextoid=6e3d578b9671c010VgnVCM1000000b205a0aRCRD";"JOSE GUTIERREZ ABASCAL";"CALLE";"V";"2";"";"";"";"";"MADRID";"MADRID";"28006";"EL VISO";"CHAMARTIN";"441578";"4477079";"40.44043851541716";"-3.6901501583800504";"913 363 060 ";"";"";"/contenido/entidadesYorganismos/Universidades/EscuelasUniversitarias"; 
6325;"Universidad Politécnica de Madrid. Escuela Técnica Superior de Ingenieros Informáticos";"";"";"  Biblioteca  Servicio de publicaciones  Centro de cálculo  Centro de Transferencia Tecnológica en Informática y Comunicaciones   ";" Metro Ligero: Montepríncipe (línea 3)  Bus: 566, 571, 573, 591, 865 ";"  Estudios de grado    Grado en Ingeniería Informática  Grado en Matemáticas e Informática    Estudios de postgrado  ";"0";"http://www.madrid.es/vgn-ext-templating/v/index.jsp?vgnextchannel=9e4c43db40317010VgnVCM100000dc0ca8c0RCRD&vgnextoid=9a0e578b9671c010VgnVCM1000000b205a0aRCRD";"MONTEPRINCIPE";"AVENIDA";"S/N";"0";"";"";"";"CAMPUS DE MONTEGANCEDO";"BOADILLA DEL MONTE";"MADRID";"28660";"";"";"0";"0";"";"";"913 367 399 ";"";"";"/contenido/entidadesYorganismos/Universidades/Facultades"; 
6423;"Universidad Politécnica de Madrid. Escuela Técnica Superior de Ingenieros Navales";"";"";"  Biblioteca  Centro de cálculo  Servicios audivisuales  Instalaciones deportivas   Gimnasio  Unidades de tenis de mesa  Pista polideportiva  Cancha de baloncesto  Sala de ajedrez    ";" Metro: Ciudad Universitaria (línea 6)  y Moncloa (líneas 3, 6)  Bus: 46, 82, 83, 132, 133, 160, 161, A ";"  Estudios de grado    Grado en Ingeniería Naval   Grado en Ingeniería Marítima    Estudios de potgrado  ";"1";"http://www.madrid.es/vgn-ext-templating/v/index.jsp?vgnextchannel=9e4c43db40317010VgnVCM100000dc0ca8c0RCRD&vgnextoid=491d578b9671c010VgnVCM1000000b205a0aRCRD";"ARCO DE LA VICTORIA";"AVENIDA";"V";"4";"";"";"";"";"MADRID";"MADRID";"28040";"CIUDAD UNIVERSITARIA";"MONCLOA-ARAVACA";"438696";"4476894";"40.438564030872755";"-3.7241237627815393";"913 367 140 ";"";"";"/contenido/entidadesYorganismos/Universidades/EscuelasUniversitarias"; 
6378;"Universidad Politécnica de Madrid. Escuela Universitaria de Ingeniería Técnica Agrícola";"";"";"  Biblioteca  Centros Experimentales de Enología y Lactología  Servicio de publicaciones  ";" Metro: Ciudad Universitaria (línea 6), Moncloa (líneas 3 y 6)  Bus: 82, 132, G, U ";"  Estudios de grado    Grado en Ingeniería Agrícola   Grado en Ingeniería Alimentaria  Grado en Ingeniería Agroambiental  Grado en Tecnología de las Industrias Agrarias y Alimentarias  ";"0";"http://www.madrid.es/vgn-ext-templating/v/index.jsp?vgnextchannel=9e4c43db40317010VgnVCM100000dc0ca8c0RCRD&vgnextoid=a88d578b9671c010VgnVCM1000000b205a0aRCRD";"COMPLUTENSE";"AVENIDA";"V";"3";"";"";"";"";"MADRID";"MADRID";"28040";"CIUDAD UNIVERSITARIA";"MONCLOA-ARAVACA";"438376";"4477679";"40.44560290980318";"-3.727972735058249";"913 365 400                   
";"913 365 406";"informacion.agricolas@upm.es";"/contenido/entidadesYorganismos/Universidades/EscuelasUniversitarias"; 
6377;"Universidad Politécnica de Madrid. Escuela Universitaria de Ingeniería Técnica Forestal";"";"";"  Biblioteca  Servicio de publicaciones  ";" Metro: Metropolitano (línea 6)  Bus: 132,  C1 ,  C2  ";"  Estudios de grado    Grado en Ingeniería del Medio Natural  Grado en Ingeniería Forestal   Grado en Ingeniería en Tecnologías Ambientales    Estudios de postgrado  ";"0";"http://www.madrid.es/vgn-ext-templating/v/index.jsp?vgnextchannel=9e4c43db40317010VgnVCM100000dc0ca8c0RCRD&vgnextoid=50cd578b9671c010VgnVCM1000000b205a0aRCRD";"RAMIRO DE MAEZTU";"CALLE";"V";"0";"";"";"";"";"MADRID";"MADRID";"28040";"CIUDAD UNIVERSITARIA";"MONCLOA-ARAVACA";"439300";"4478076";"40.44924734199129";"-3.717115673509431";"913 367 652 ";"";"";"/contenido/entidadesYorganismos/Universidades/EscuelasUniversitarias"; 
6446;"Universidad Politécnica de Madrid. Facultad de Ciencias de la Actividad Física y del Deporte (INEF)";"";"";"  Biblioteca   Servicio de reprografía  ";" Bus: 46, 160, 161, U ";"  Estudios de grado   Grado en Ciencias del Deporte   Estudios de postgrado  ";"0";"http://www.madrid.es/vgn-ext-templating/v/index.jsp?vgnextchannel=9e4c43db40317010VgnVCM100000dc0ca8c0RCRD&vgnextoid=08fd578b9671c010VgnVCM1000000b205a0aRCRD";"MARTIN FIERRO";"CALLE";"V";"7";"";"";"";"";"MADRID";"MADRID";"28040";"CIUDAD UNIVERSITARIA";"MONCLOA-ARAVACA";"437979";"4476862";"40.43821356803685";"-3.7325621396065927";"913 364 001";"";"";"/contenido/entidadesYorganismos/Universidades/Facultades"; 
6290;"Universidad Pontificia Comillas. Calle Alberto Aguilera";"";"";"  Centros docentes     Facultades    Facultad de Teología   Facultad de Derecho canónico   Facultad de Ciencias económicas y empresariales, ICADE  Facultad de Derecho,  ICADE      Institutos    Instituto de idiomas modernos  Instituto universitario de espiritualidad   Instituto universitario de estudios sobre migraciones    ";" Metro: Arg&uuml;elles (líneas 3, 4, 6), San Bernardo (líneas 2, 4)  Bus: 1, 2, 21, 44, 74, 133, C1, C2, M2 ";"";"1";"http://www.madrid.es/vgn-ext-templating/v/index.jsp?vgnextchannel=9e4c43db40317010VgnVCM100000dc0ca8c0RCRD&vgnextoid=a1be578b9671c010VgnVCM1000000b205a0aRCRD";"ALBERTO AGUILERA";"CALLE";"V";"23";"";"";"";"";"MADRID";"MADRID";"28015";"UNIVERSIDAD";"CENTRO";"439778";"4475932";"40.42996811780784";"-3.711275575912576";"915 422 800";"915 596 569";"oia@oia.upcomillas.es";"/contenido/entidadesYorganismos/Universidades"; 
46135;"Universidad Pontificia Comillas. Cantoblanco";"";"";"  Centros docentes    Facultad de Teología   Facultad de Ciencias Humanas y Sociales   Instituto Universitario de Ciencias de la Educación (ICE)  Instituto Universitario de la Familia  Cátedra Telefónica-Fundación Repsol de Familia y Discapacidad  ";" Bus: 827  Renfe: Universidad Pontificia Comillas (línea C1) ";"";"1";"http://www.madrid.es/vgn-ext-templating/v/index.jsp?vgnextchannel=9e4c43db40317010VgnVCM100000dc0ca8c0RCRD&vgnextoid=34d92c798651c010VgnVCM2000000c205a0aRCRD";"UNIVERSIDAD COMILLAS";"CALLE";"NUM";"3 - 5";"";"";"";"CARRETERA COLMENAR VIEJO KM - 17";"MADRID";"MADRID";"28049";"EL GOLOSO";"FUENCARRAL-EL PARDO";"0";"0";"";"";"917 343 950                    
";"917 344 570";"";"/contenido/entidadesYorganismos/Universidades"; 
6429;"Universidad Pontificia Comillas. Escuela Técnica Superior de Ingeniería (ICAI)";"";"";"  Titulaciones    Grado   Grado en Ingeniería Electromecánica (Programa en Ingeniería Industrial)  Grado en Ingeniería Telemática (Programa de Ingeniería de Telecomunicación)  Grado de Ingeniería en Tecnologías industriales  Doble Grado en Ingeniería en Tecnologías Industriales y ADE  Grado de Ingeniería en Tecnologías de Telecomunicación  Doble Grado en Ingeniería en Tecnologías de Telecomunicación y ADE   Másteres   Doctorado ";" Metro: Arg&uuml;elles (líneas 3, 4, 6), San Bernardo (líneas 2, 4)  Bus: 1, 2, 21, 44, 74, 133, C1, C2, M2 ";"";"1";"http://www.madrid.es/vgn-ext-templating/v/index.jsp?vgnextchannel=9e4c43db40317010VgnVCM100000dc0ca8c0RCRD&vgnextoid=424e578b9671c010VgnVCM1000000b205a0aRCRD";"ALBERTO AGUILERA";"CALLE";"V";"25";"";"";"";"";"MADRID";"MADRID";"28015";"UNIVERSIDAD";"CENTRO";"439657";"4475950";"40.430121484779406";"-3.7127036955459567";"915 422 800";"915 596 569";"";"/contenido/entidadesYorganismos/Universidades/EscuelasUniversitarias"; 
6344;"Universidad Pontificia Comillas. Facultad de Ciencias Económicas y Empresariales (ICADE)";"";"";"";" Metro: Arg&uuml;elles (líneas 3, 4, 6), San Bernardo (líneas 2, 4)  Bus: 1, 2, 21, 44, 74, 133, C1, C2, M2 ";"  Titulaciones Oficiales    Grado   Grado en Administración y Dirección de Empresas (E-2,  E-2 Biling&uuml;e, E-4)  Grado en Adminstración y Dirección de Empresas y Grado en Relaciones Internacionales (E-6)    Másteres  Doctorado  ";"0";"http://www.madrid.es/vgn-ext-templating/v/index.jsp?vgnextchannel=9e4c43db40317010VgnVCM100000dc0ca8c0RCRD&vgnextoid=d45e578b9671c010VgnVCM1000000b205a0aRCRD";"ALBERTO AGUILERA";"CALLE";"V";"23";"";"";"";"";"MADRID";"MADRID";"28015";"UNIVERSIDAD";"CENTRO";"439778";"4475932";"40.42996811780784";"-3.711275575912576";"915 422 800";"915 417 796";"icade.cee@upcomillas.es";"/contenido/entidadesYorganismos/Universidades/Facultades"; 
6346;"Universidad Pontificia Comillas. Facultad de Ciencias Humanas y Sociales. Sede de Cantoblanco";"";"";"";" Bus:  827  Renfe: Universidad Pontificia Comillas (Línea C1) ";"  Titulaciones oficiales   Grado   Grado en Criminología y Grado en Trabajo Social (doble titulación)  Grado en trabajo Social y Diploma en Cooperación Internacional al Desarrollo. Opción Internacional  Grado en Traducción e interpretación y Diploma en Comunicación Internacional  Grado en Relaciones Internacionales (Biling&uuml;e) y Grado en Traducción e Interpretación (Doble Titulación)  Grado en Educación Primaria, Mención en Lengua Extranjera: Inglés. Opción Internacional  Grado en Educación Infantil, Mención en Lengua Extranjera: Inglés. Opción Internacional  Grado en Educación Infantil y Grado en Educación Primaria, Mención en Lengua Extranjera: Inglés y Mención en Pedagogía Terapéutica  Grado en Filosofía  Grado en Psicología  Grado en Psicología y Grado en Criminología (doble titulación)  Grado en Administración y Dirección de empresas (ADE), y Grado en Relaciones Internacionales E6  Grado en Derecho y Grado en Relaciones Internacionales E5   Másteres   Doctorado  Otros estudios:  Diploma International Relations From a Spanish Perspective    Oficina de Información y Acogida :  C/ Alberto Aguilera, 21. 28015 Madrid  Teléfonos: 915 422 800. 915 406 120  Fax: 915 596 569  Correo electrónico:  oia@oia.upcomillas.es   ";"0";"http://www.madrid.es/vgn-ext-templating/v/index.jsp?vgnextchannel=9e4c43db40317010VgnVCM100000dc0ca8c0RCRD&vgnextoid=676e578b9671c010VgnVCM1000000b205a0aRCRD";"UNIVERSIDAD COMILLAS";"CALLE";"NUM";"3";"";"";"";"CARRETERA COLMENAR VIEJO KM - 17";"MADRID";"MADRID";"28049";"EL GOLOSO";"FUENCARRAL-EL PARDO";"0";"0";"";"";"917 343 950 ";"917 359 781";"infochs@chs.upcomillas.es";"/contenido/entidadesYorganismos/Universidades/Facultades"; 
6345;"Universidad Pontificia Comillas. Facultad de Derecho";"";"";"";" Metro: Arg&uuml;elles (líneas 3, 4, 6), San Bernardo (líneas 2, 4)  Bus: 1, 2, 21, 44, 74, 133, C1, C2, M2 ";"  Titulaciones   Grado   Grado en Derecho y Diploma en Business Law  Grado en Derecho y Grado en Relaciones Internacionales  Doble Grado en Administración y Dirección de Empresas y Derecho.   Másteres  Doctorado   Oficina de Información y Acogida:    C/  Alberto Aguilera, 21. 28015 Madrid  Teléfonos: 915 422 800  Fax: 915 596 569  Correo electrónico:  oia@oia.upcomillas.es  ";"0";"http://www.madrid.es/vgn-ext-templating/v/index.jsp?vgnextchannel=9e4c43db40317010VgnVCM100000dc0ca8c0RCRD&vgnextoid=f97e578b9671c010VgnVCM1000000b205a0aRCRD";"ALBERTO AGUILERA";"CALLE";"V";"23";"";"";"";"";"MADRID";"MADRID";"28015";"UNIVERSIDAD";"CENTRO";"439778";"4475932";"40.42996811780784";"-3.711275575912576";"915 422 800";"915 596 569";"info_der@der.upcomillas.es";"/contenido/entidadesYorganismos/Universidades/Facultades"; 
6349;"Universidad Pontificia Comillas. Facultad de Derecho Canónico";"";"";"";" Metro: Arg&uuml;elles (líneas 3, 4, 6), San Bernardo (líneas 2, 4)  Bus: 1, 2, 21, 44, 74, 133, C1, C2, M2 ";"  Titulaciones:    Licenciatura en Derecho Canónico  Másteres  Doctorado    Oficina de Información y Acogida:   Teléfonos: 915 422 800. 915 406 120  Fax: 915 596 569  Correo electrónico:  oia@oia.upcomillas.es  ";"0";"http://www.madrid.es/vgn-ext-templating/v/index.jsp?vgnextchannel=9e4c43db40317010VgnVCM100000dc0ca8c0RCRD&vgnextoid=8c8e578b9671c010VgnVCM1000000b205a0aRCRD";"ALBERTO AGUILERA";"CALLE";"V";"21";"";"";"";"";"MADRID";"MADRID";"28015";"UNIVERSIDAD";"CENTRO";"439858";"4475921";"40.429883831913635";"-3.7103315481798447";"915 406 152";"915 422 193";"escude@canonico.upcomillas.es";"/contenido/entidadesYorganismos/Universidades/Facultades"; 
6348;"Universidad Pontificia Comillas. Facultad de Teología";"";"";"";" Bus: 714 , 827 , 827 A - 828   Renfe: Universidad Pontificia Comillas (Línea C1) ";"   Grados:    Bachiller en Teología (Grado en Teología): programa de mañana  Bachiller en Teología (grado en Teología) - TUP: programa de tarde    Postgrados:    Másteres oficiales  Másteres propios    Oficina de Información y Acogida:    C/  Alberto Aguilera, 21. 28015 Madrid  Teléfonos: 915 422 800. 915 406 120  Fax: 915 596 569  Correo electrónico:  oia@oia.upcomillas.es  ";"0";"http://www.madrid.es/vgn-ext-templating/v/index.jsp?vgnextchannel=9e4c43db40317010VgnVCM100000dc0ca8c0RCRD&vgnextoid=1f9e578b9671c010VgnVCM1000000b205a0aRCRD";"UNIVERSIDAD COMILLAS";"CALLE";"NUM";"3";"";"";"";"CARRETERA COLMENAR VIEJO KM - 17";"MADRID";"MADRID";"28049";"EL GOLOSO";"FUENCARRAL-EL PARDO";"0";"0";"";"";"915 406 136";"917 359 781";"acalvo@comillas.edu";"/contenido/entidadesYorganismos/Universidades/Facultades"; 
8149231;"Universidad Pontificia Comillas. Instituto de Investigación Tecnológica";"";"";"";" Metro: San Bernardo  Bus: 147, 21 ";"";"0";"http://www.madrid.es/vgn-ext-templating/v/index.jsp?vgnextchannel=9e4c43db40317010VgnVCM100000dc0ca8c0RCRD&vgnextoid=c43ba7899969e410VgnVCM2000000c205a0aRCRD";"SANTA CRUZ DE MARCENADO";"CALLE";"V";"26";"";"";"";"";"MADRID";"MADRID";"28015";"UNIVERSIDAD";"CENTRO";"439630";"4475907";"40.429741167944826";"-3.7130179895190496";"915 422 800";"915 596 569";"";"/contenido/entidadesYorganismos/Universidades/Facultades"; 
8149263;"Universidad Pontificia Comillas. Sede Francisco de Ricci, 3";"";"";"";" Metro: Arg&uuml;elles  Bus: 21, M2 ";"  Centro Docentes    Cátedra de Internacionalización Empresarial, Diversidad y Desarrollo Profesional  Cátedra de Ética Económica y Empresarial  Cátedra de Ciencia, Tecnología y Religión  Instituto de Investigación Tecnológica  ";"0";"http://www.madrid.es/vgn-ext-templating/v/index.jsp?vgnextchannel=9e4c43db40317010VgnVCM100000dc0ca8c0RCRD&vgnextoid=d497a7899969e410VgnVCM2000000c205a0aRCRD";"FRANCISCO RICCI";"CALLE";"V";"3";"";"";"";"";"MADRID";"MADRID";"28015";"GAZTAMBIDE";"CHAMBERI";"439705";"4476054";"40.43106192148122";"-3.7121359408916397";"915 422 800";"915 406 289";"";"/contenido/entidadesYorganismos/Universidades/Facultades"; 
4961029;"Universidad Pontificia de Salamanca. Fundación Pablo VI. Campus de Madrid";"";"";"";" Metro: Metropolitano (línea 3)  Bus: 2, 45, 132, 202, C, F ";"  Titulaciones de grado     Grado en Ingeniería informática    Grado en Arquitectura    Grado en Ingeniería de la edificación    Ingeniería de Organización Industrial ( 2&ordm;   Ciclo)    Estudios de postgrado  ";"0";"http://www.madrid.es/vgn-ext-templating/v/index.jsp?vgnextchannel=9e4c43db40317010VgnVCM100000dc0ca8c0RCRD&vgnextoid=7b854a220362b110VgnVCM2000000c205a0aRCRD";"JUAN XXIII";"PASEO";"V";"3";"";"";"";"";"MADRID";"MADRID";"28040";"CIUDAD UNIVERSITARIA";"MONCLOA-ARAVACA";"439041";"4477593";"40.44487730169275";"-3.720123319232856";"900 101 829 ";"";"";"/contenido/entidadesYorganismos/Universidades"; 
64117;"Universidad Popular de la Edad Adulta (Fundación UPDEA)";"";"";"      Actividades formativas, culturales, de ocio dirigidas a adultos      Cursos de idiomas, informática y desarrollo personal      Club del viajero      Actividades de ocio y culturales  ";" Metro: Tribunal (líneas 1, 10), Alonso Martínez (líneas 4, 5, 10)  Bus: 3, 21, 37, 40, 149 ";"";"0";"http://www.madrid.es/vgn-ext-templating/v/index.jsp?vgnextchannel=9e4c43db40317010VgnVCM100000dc0ca8c0RCRD&vgnextoid=92b4784e0cc4f010VgnVCM2000000c205a0aRCRD";"BARCELO";"CALLE";"V";"13";"1ª";"";"";"";"MADRID";"MADRID";"28004";"JUSTICIA";"CENTRO";"440787";"4475600";"40.42704987871803";"-3.6993499795636278";"914 476 820";"915 944 916";"updea@updea.org";"/contenido/entidadesYorganismos/CentrosEducacion/CentrosEducacionAdultos"; 
26040;"Universidad San Pablo (CEU). Campus de Moncloa";"";"";"  Facultades:    Humanidades y Ciencias de la Comunicación  Ciencias Económicas y Empresariales  Derecho  ";" Metro: Islas Filipinas (Línea 7) y Guzmán el Bueno (Líneas 6 y 7)  Bus: A1, B6, 178, 389, 16  ";"";"0";"http://www.madrid.es/vgn-ext-templating/v/index.jsp?vgnextchannel=9e4c43db40317010VgnVCM100000dc0ca8c0RCRD&vgnextoid=fb78e0e8f2e4f010VgnVCM2000000c205a0aRCRD";"JULIAN ROMEA";"CALLE";"V";"18";"";"";"";"";"MADRID";"MADRID";"28003";"VALLEHERMOSO";"CHAMBERI";"439363";"4477365";"40.442846975188935";"-3.7163047859683083";"915 140 404  
";"915 360 660";"info.usp@ceu.es";"/contenido/entidadesYorganismos/Universidades"; 
2042;"Universidad San Pablo (CEU). Centro de Documentación Europea.";"  Centro de recursos informativos  sobre la Unión Europea, pertenece a la red de centros creada por la Comisión Europea, con el objeto de facilitar información y documentación sobre la Unión Europea a los miembros de la comunidad universitaria y a cualquier institución o ciudadano. ";"";" Además de los propios de cualquier biblioteca, como la lectura en sala y el préstamo de libros, también ofrece:    Resolución de consultas sobre la Unión Europea con atención personalizada al usuario.  Información bibliográfica y búsquedas en bases de datos especializadas.  Difusión selectiva de la información y alerta informativa.  Elaboración de boletín de sumarios de revistas y de novedades bibliográficas.  Actualización de la bibliografía básica recomendada por los docentes.  Formación en competencias informacionales para alumnos  ";" Metro: Guzmán el Bueno (líneas 6, 7), Metropolitano (línea 6)  Bus: 2, 12, 21, 44, 133, 202, C2 ";"";"0";"http://www.madrid.es/vgn-ext-templating/v/index.jsp?vgnextchannel=9e4c43db40317010VgnVCM100000dc0ca8c0RCRD&vgnextoid=071bae7cb2e4f010VgnVCM1000000b205a0aRCRD";"JULIAN ROMEA";"CALLE";"V";"22";"BAJA";"";"";"";"MADRID";"MADRID";"28003";"VALLEHERMOSO";"CHAMBERI";"439222";"4477373";"40.44290880207968";"-3.717956254985052";"915 140 400 (ext.: 5709, 5772)";"";"europa@ceu.es";"/contenido/entidadesYorganismos/ArchivosCentrosDocumentacion"; 
6337;"Universidad San Pablo (CEU). Facultad de Ciencias Económicas y Empresariales. Campus de Moncloa";"";"";"  Biblioteca Central  Foro Económico Empresarial  Programas de intercambio   Centro de documentación e Información de empleo (COIE)   Estudios de postgrado  ";" Metro: Guzmán el Bueno (líneas 6, 7), Islas Filipinas (línea 7)  Bus: 16, 178, 389, A1, B6,  ";"  Estudios de grado:    Administración y Dirección de Empresas  Economía ( mención en negocios internacionales o mención en finanzas)  Ciencias Económicas  Economía y Finanzas  Marketing y Gestión Comercial   Grado en Turismo    Grados simultáneos    Estudios de postgrado  ";"0";"http://www.madrid.es/vgn-ext-templating/v/index.jsp?vgnextchannel=9e4c43db40317010VgnVCM100000dc0ca8c0RCRD&vgnextoid=012f578b9671c010VgnVCM1000000b205a0aRCRD";"JULIAN ROMEA";"CALLE";"V";"23";"";"";"";"";"MADRID";"MADRID";"28003";"VALLEHERMOSO";"CHAMBERI";"439270";"4477347";"40.4426780240394";"-3.717399600089627";"914 566 300 ";"";"ecosec@ceu.es";"/contenido/entidadesYorganismos/Universidades/Facultades"; 
184405;"Universidad San Pablo (CEU). Facultad de Derecho. Campus de Moncloa";"";"";" Campus virtual e intercambios internacionales ";" Metro: Metropolitano (línea 6)  Bus: 16, 178, 389, A1, B6,  ";"";"0";"http://www.madrid.es/vgn-ext-templating/v/index.jsp?vgnextchannel=9e4c43db40317010VgnVCM100000dc0ca8c0RCRD&vgnextoid=dba6ad69b8e5d010VgnVCM2000000c205a0aRCRD";"VALLE";"AVENIDA";"V";"21";"";"";"";"";"MADRID";"MADRID";"28003";"VALLEHERMOSO";"CHAMBERI";"439229";"4477432";"40.44344081039908";"-3.7178793741771585";"915 140 400";"";"";"/contenido/entidadesYorganismos/Universidades/Facultades"; 
6339;"Universidad San Pablo (CEU). Facultad de Humanidades y Ciencias de la Comunicación. Campus de Moncloa";"";"";"";" Metro: Metropolitano (línea 6), Guzmán el Bueno (líneas 6, 7)  Bus: 16, 178, 289, A1, B6 ";"";"0";"http://www.madrid.es/vgn-ext-templating/v/index.jsp?vgnextchannel=9e4c43db40317010VgnVCM100000dc0ca8c0RCRD&vgnextoid=dd7f578b9671c010VgnVCM1000000b205a0aRCRD";"JUAN XXIII";"PASEO";"V";"6";"";"";"";"";"MADRID";"MADRID";"28040";"VALLEHERMOSO";"CHAMBERI";"439071";"4477548";"40.444483208735875";"-3.7197535677042612";"914 564 200";"";"humasec@ceu.es";"/contenido/entidadesYorganismos/Universidades/Facultades"; 
6302;"Universidad Suffolk (Suffolk University Madrid Campus)";"";"";"";" Metro: Metropolitano (línea 6), Guzmán el Bueno (línea 7)  Bus: F, 2, 44, C1 y C2 ";"  Titulaciones:       Licenciaturas (Bachelor of Arts, Bachelor of Science, Bachelor of Science in Journalism, Bachelor of Science in Business Administration, Bachelor of Science in Engineering, Bachelor of Fine Arts).     Dos cursos académicos en Madrid más dos en Suffolk University Boston (EEUU).     ";"0";"http://www.madrid.es/vgn-ext-templating/v/index.jsp?vgnextchannel=9e4c43db40317010VgnVCM100000dc0ca8c0RCRD&vgnextoid=609f578b9671c010VgnVCM1000000b205a0aRCRD";"VI&Ntilde;A";"CALLE";"V";"3";"";"";"";"";"MADRID";"MADRID";"28003";"VALLEHERMOSO";"CHAMBERI";"439167";"4477495";"40.44401273259772";"-3.7186283366452724";"915 335 935";"915 345 024";"helpesk@suffolk.es";"/contenido/entidadesYorganismos/Universidades"; 

