PK;NOMBRE;DESCRIPCION-ENTIDAD;HORARIO;EQUIPAMIENTO;TRANSPORTE;DESCRIPCION;ACCESIBILIDAD;CONTENT-URL;NOMBRE-VIA;CLASE-VIAL;TIPO-NUM;NUM;PLANTA;PUERTA;ESCALERAS;ORIENTACION;LOCALIDAD;PROVINCIA;CODIGO-POSTAL;BARRIO;DISTRITO;COORDENADA-X;COORDENADA-Y;LATITUD;LONGITUD;TELEFONO;FAX;EMAIL;TIPO;
1637;"Casa de Galicia";"";"   Atención al ciudadano:  de lunes a viernes de 9 a 14 horas    Oficina de Turismo:    De lunes a jueves de 9 a 14 y de 16 a 19 horas.  Viernes, de 8 a 15 horas.  Agosto: de lunes a viernes de 9 a 14 horas.     Exposiciones:    De lunes a sábado de 10 a 14 y de 16 a 20 horas.  Domingos y festivos de 10 a 14 horas.    ";"";"Bus: 10 , 14 , 19 , 27 , 34 , 37 , 45";"";"0";"http://www.madrid.es/vgn-ext-templating/v/index.jsp?vgnextchannel=9e4c43db40317010VgnVCM100000dc0ca8c0RCRD&vgnextoid=b6f40a47f441f010VgnVCM2000000c205a0aRCRD";"CASADO DEL ALISAL";"CALLE";"V";"8";"";"";"";"";"MADRID";"MADRID";"28014";"LOS JERONIMOS";"RETIRO";"441517";"4474128";"40.413841115871094";"-3.6906090973201957";"915 954 200 (centralita) / 915 954 214 (turismo)";"915 954 233 (secretaría)";"cii.oficinaturismo.madrid@xunta.es";"/contenido/entidadesYorganismos/OficinasTurismo"; 
4574232;"Centro de Turismo Colón";" Se trata del punto de Información turística más grande de Madrid. Situado en una ubicación idónea: junto al Paseo de Recoletos, el famoso Paseo del Arte, el Teatro Fernán Gómez, el Museo Arqueológico y la Biblioteca Nacional consiste en un espacio accesible con zonas de atención al público y salas de reunión en donde se celebran exposiciones temporales y proyecciones turísticas y culturales.  Obra del arquitecto portugués Álvaro Siza, cuenta con 1.017 m2 de superficie dotados con modernas tecnologías para atender las demandas de información turística de los visitantes de Madrid.   Denominación oficial : Centro de Turismo Colón ";" De lunes a domingo de 9:30 a 20:30 horas ";" Centro de turismo.   Atención presencial  Atención especializada  Autoconsulta  Área tecnológica: acceso gratuito a Internet, WIFI  Accesibilidad: mapas en 3D, mostradores adaptados  Certificado  ICTE  de Q de calidad turística Norma  UNE  187003:2008  ";" Metro: Colón (línea 4), Serrano (línea 4)  Bus: 5 , 14 , 21, 27 , 37, 45 , 53 , 150   Renfe: Recoletos ";"";"1";"http://www.madrid.es/vgn-ext-templating/v/index.jsp?vgnextchannel=9e4c43db40317010VgnVCM100000dc0ca8c0RCRD&vgnextoid=4fd0853969572110VgnVCM2000000c205a0aRCRD";"COLON";"PLAZA";"V";"1";"";"";"";"Paso subterráneo del Paseo de la Castellana, accesos, C/ Génova y C/ Goya";"MADRID";"MADRID";"28046";"JUSTICIA";"CENTRO";"441477";"4475368";"40.42500882822323";"-3.6911948422827687";"914 544 410 (información turística y Programa de Visitas Guiadas Oficiales)                               
";"";"turismo@esmadrid.com";"/contenido/entidadesYorganismos/OficinasTurismo"; 
7805;"Centro de Turismo Plaza Mayor";"";" De lunes a domingo de 9:30 a 21:30 horas.  Venta de entradas para el Programa de Visitas Guiadas Oficiales en el Centro de turismo de lunes a domingo de 9:30 a 20:30 horas. ";"  Atención presencial: especial idiomas asiáticos y ruso  Atención especializada  Autoconsulta  Programa Visitas Guiadas Oficiales  Área tecnológica: audiovisuales, acceso gratuito a Internet, WIFI  Accesibilidad: lengua de signos española, bucle magnético, encaminamientos podotáctiles, rótulos y folletos en braille, asientos ergonómicos, apoyos isquiáticos, mostradores adaptados, guía de turismo accesible  Tienda de Madrid con productos oficiales (tarjeta turística MadridCard y Bus Turístico); libros, camisetas,  CD&rsquo;s , etc.  Certificado  ICTE  de Q de calidad turística Norma  UNE  187003:2008  Certificado  AENOR  de Accesibilidad Universal Norma  UNE  170001-2:2007   ";" Metro: Sol (líneas 1, 2, 3), Ópera (línea 2, 5, Ramal)  Bus: 3, 5, 6, 15, 17, 18, 20, 23, 31, 32, 35, 50, 51, 52, 53, 65, 150  Renfe: Sol ";"";"1";"http://www.madrid.es/vgn-ext-templating/v/index.jsp?vgnextchannel=9e4c43db40317010VgnVCM100000dc0ca8c0RCRD&vgnextoid=b0a093e5fd61c010VgnVCM1000000b205a0aRCRD";"MAYOR";"PLAZA";"V";"27";"";"";"";"Casa de la Panadería";"MADRID";"MADRID";"28012";"SOL";"CENTRO";"440092";"4474361";"40.41583855082183";"-3.7074257084323636";"914 544 410 (información turística y Programa Visitas Guiadas Oficiales)                                                               
";"";"turismo@esmadrid.com";"/contenido/entidadesYorganismos/OficinasTurismo"; 
7846;"Delegación de la Generalitat de Cataluña. Oficina de Turismo";"";"De lunes a viernes de 10:30 a 15 y de 16 a 19:30 horas. ";"";" Metro: Banco de España (línea 2)  Bus: 5 , 9 , 52 , 53 , 146 , 150 ";"";"0";"http://www.madrid.es/vgn-ext-templating/v/index.jsp?vgnextchannel=9e4c43db40317010VgnVCM100000dc0ca8c0RCRD&vgnextoid=5c4c19d41471c010VgnVCM1000000b205a0aRCRD";"ALCALA";"CALLE";"V";"44";"";"";"";"";"MADRID";"MADRID";"28014";"CORTES";"CENTRO";"441066";"4474616";"40.4182053857487";"-3.6959697554881874";"915 241 892 (Oficina de turismo)          
";"";"turisme.blanquerna@gencat.cat";"/contenido/entidadesYorganismos/OficinasTurismo"; 
75606;"Oficina Central de Reservas e Información de la Comunidad de Madrid";"";"De lunes a viernes de 9 a 14 horas";"";" Metro: Banco de España (línea 2)  Bus: 1, 2, 9, 20, 27, 51, 52, 53, 146, 202, 203 ";"";"0";"http://www.madrid.es/vgn-ext-templating/v/index.jsp?vgnextchannel=9e4c43db40317010VgnVCM100000dc0ca8c0RCRD&vgnextoid=aff896e2cf41c010VgnVCM2000000c205a0aRCRD";"RECOLETOS";"PASEO";"V";"14";"";"";"";"ESQUINA CALLE RECOLETOS, 1";"MADRID";"MADRID";"28001";"RECOLETOS";"SALAMANCA";"441484";"4475090";"40.422504962784785";"-3.691086697178336";"912 767 478";"";"";"/contenido/entidadesYorganismos/OficinasTurismo"; 
7809;"Oficina de Turismo de Alemania";"";"";"";" Metro: Antón Martín (línea 1), Sol (líneas 1, 2, 3)  Bus: 5, 9, 10, 14, 15, 20, 27, 34, 37, 45, 51, 52, 53, 146, 150 ";"";"0";"http://www.madrid.es/vgn-ext-templating/v/index.jsp?vgnextchannel=9e4c43db40317010VgnVCM100000dc0ca8c0RCRD&vgnextoid=120c19d41471c010VgnVCM1000000b205a0aRCRD";"SAN AGUSTIN";"CALLE";"V";"2";"1º A";"Dcha.";"";"";"MADRID";"MADRID";"28014";"CORTES";"CENTRO";"440976";"4474277";"40.41515412751355";"-3.696999116580025";"914 293 551";"914 202 450";"";"/contenido/entidadesYorganismos/OficinasTurismo"; 
27402;"Oficina de Turismo de Andorra";"";"Consultar telefónicamente";"";" Metro: Retiro (línea 2)  Bus: 1, 2, 9, 15, 20, 28, 51, 52, 74, 146, 202 ";"";"0";"http://www.madrid.es/vgn-ext-templating/v/index.jsp?vgnextchannel=9e4c43db40317010VgnVCM100000dc0ca8c0RCRD&vgnextoid=eb68444a2951c010VgnVCM2000000c205a0aRCRD";"ALCALA";"CALLE";"V";"73";"";"";"";"";"MADRID";"MADRID";"28009";"RECOLETOS";"SALAMANCA";"441795";"4474861";"40.420463872305014";"-3.6873998628244578";"914 317 453 ";"915 776 341";"";"/contenido/entidadesYorganismos/OficinasTurismo"; 
164524;"Oficina de Turismo de Argentina";"";"Consultar telefónicamente";"";" Metro: Ventura Rodríguez (línea 3), Princesa (líneas 3, 10)  Bus: 1, 2, 44, 133, 202,  C  ";"";"0";"http://www.madrid.es/vgn-ext-templating/v/index.jsp?vgnextchannel=9e4c43db40317010VgnVCM100000dc0ca8c0RCRD&vgnextoid=fcf98f90a581c010VgnVCM1000000b205a0aRCRD";"PRINCESA";"CALLE";"V";"12";"";"";"";"";"MADRID";"MADRID";"28008";"UNIVERSIDAD";"CENTRO";"439666";"4475467";"40.4257710639095";"-3.712551676224903";"915 414 447";"";"oficinamadrid@argentina.travel";"/contenido/entidadesYorganismos/OficinasTurismo"; 
8132913;"Oficina de Turismo de Austria";"";"";"";" Metro: Plaza de España (líneas 3, 10)  Bus: 3, 46, 75, 138, 148 ";"";"0";"http://www.madrid.es/vgn-ext-templating/v/index.jsp?vgnextchannel=9e4c43db40317010VgnVCM100000dc0ca8c0RCRD&vgnextoid=b659eddb85d6e410VgnVCM1000000b205a0aRCRD";"JUAN ALVAREZ MENDIZABAL";"CALLE";"V";"1";"6º";"B";"";"";"MADRID";"MADRID";"28008";"ARGUELLES";"MONCLOA-ARAVACA";"439559";"4475218";"40.42352919018361";"-3.7137893492193244";"";"";"";"/contenido/entidadesYorganismos/OficinasTurismo"; 
127469;"Oficina de Turismo de Brasil";"";" De lunes a viernes de 10:30 a 13:30 horas ";"";" Metro: Alonso Martínez (líneas 4, 5, 10), Rubén Dario (línea 5)  Bus: 3, 5, 7, 14, 21, 27, 45, 150 ";"";"0";"http://www.madrid.es/vgn-ext-templating/v/index.jsp?vgnextchannel=9e4c43db40317010VgnVCM100000dc0ca8c0RCRD&vgnextoid=b15d47048781c010VgnVCM1000000b205a0aRCRD";"ALMAGRO";"CALLE";"V";"28";"2ª";"";"";"";"MADRID";"MADRID";"28010";"ALMAGRO";"CHAMBERI";"441348";"4475943";"40.43017960044132";"-3.692768600492918";"917 020 689";"";"secom.madrid@itamaraty.gov.br";"/contenido/entidadesYorganismos/OficinasTurismo"; 
7844;"Oficina de Turismo de Castilla - León";"";"";"";" Metro: Retiro (línea 2)  Bus: 1 , 2 , 15 , 19 , 20 , 28 , 51 , 52 , 74 , 146 ";"";"0";"http://www.madrid.es/vgn-ext-templating/v/index.jsp?vgnextchannel=9e4c43db40317010VgnVCM100000dc0ca8c0RCRD&vgnextoid=c93c19d41471c010VgnVCM1000000b205a0aRCRD";"ALCALÁ";"CALLE";"V";"105";"";"";"";"";"MADRID";"MADRID";"28009";"RECOLETOS";"SALAMANCA";"442183";"4475003";"40.42177018095319";"-3.6828394778643716";"915 780 324";"917 812 416";"oficinademadridfundacionsiglo@gmail.com";"/contenido/entidadesYorganismos/OficinasTurismo"; 
7839;"Oficina de Turismo de Chile";"";" Con cita previa ";"";" Metro: Nuñez de Balboa (líneas 5, 9)  Bus: 1, 9, 19, 51, 74  ";"";"0";"http://www.madrid.es/vgn-ext-templating/v/index.jsp?vgnextchannel=9e4c43db40317010VgnVCM100000dc0ca8c0RCRD&vgnextoid=717c19d41471c010VgnVCM1000000b205a0aRCRD";"VELAZQUEZ";"CALLE";"V";"80";"1";"Izda";"";"";"MADRID";"MADRID";"28001";"CASTELLANA";"SALAMANCA";"442133";"4475900";"40.42984738903388";"-3.6834988415722334";"914 357 834";"";"prochilespain@prochile.gov.cl";"/contenido/entidadesYorganismos/OficinasTurismo"; 
7843;"Oficina de Turismo de China";"";"";"";" Metro: Callao (línea 3)  Bus: 1, 2, 44, 46, 74, 75, 133, 146, 147, 148, 202 ";"";"0";"http://www.madrid.es/vgn-ext-templating/v/index.jsp?vgnextchannel=9e4c43db40317010VgnVCM100000dc0ca8c0RCRD&vgnextoid=0dad19d41471c010VgnVCM1000000b205a0aRCRD";"GRAN VIA";"CALLE";"V";"39";"8º";"Izqda";"";"";"MADRID";"MADRID";"28013";"SOL";"CENTRO";"440273";"4474832";"40.42009464369331";"-3.705324957516307";"915 480 011 (información sobre horarios)";"915 480 597";"";"/contenido/entidadesYorganismos/OficinasTurismo"; 
7413812;"Oficina de Turismo de Croacia";"";"";"";" Metro: Serrano (línea 4)  Bus: 1, 9, 19, 51, 74 ";"";"0";"http://www.madrid.es/vgn-ext-templating/v/index.jsp?vgnextchannel=9e4c43db40317010VgnVCM100000dc0ca8c0RCRD&vgnextoid=68adeea6bf715410VgnVCM1000000b205a0aRCRD";"CLAUDIO COELLO";"CALLE";"V";"22";"1º";"C";"";"";"MADRID";"MADRID";"28001";"RECOLETOS";"SALAMANCA";"441848";"4475150";"40.42308011875367";"-3.686789938909185";"917 815 514 (información sobre horarios)";"914 318 443";"info@visitacroacia.es";"/contenido/entidadesYorganismos/OficinasTurismo"; 
7837;"Oficina de Turismo de Cuba";"";"Consultar telefónicamente";"";" Metro: Santiago Bernabéu (línea 10)  Bus: 14, 27, 40, 43, 120, 126, 147, 150 ";"";"0";"http://www.madrid.es/vgn-ext-templating/v/index.jsp?vgnextchannel=9e4c43db40317010VgnVCM100000dc0ca8c0RCRD&vgnextoid=048c19d41471c010VgnVCM1000000b205a0aRCRD";"HABANA";"PASEO";"V";"50";"Bajo";"D";"";"";"MADRID";"MADRID";"28036";"EL VISO";"CHAMARTIN";"441898";"4478247";"40.4509737804771";"-3.6864959795755223";"914 113 097";"";"info@descubracuba.es";"/contenido/entidadesYorganismos/OficinasTurismo"; 
7812;"Oficina de Turismo de Ecuador";"";"";"";" Metro: Nuñez de Balboa (líneas 5, 9)  Bus: 9, 12, 19, 51, 61 ";"";"0";"http://www.madrid.es/vgn-ext-templating/v/index.jsp?vgnextchannel=9e4c43db40317010VgnVCM100000dc0ca8c0RCRD&vgnextoid=969c19d41471c010VgnVCM1000000b205a0aRCRD";"SERRANO";"CALLE";"V";"43";"7";"";"";"";"MADRID";"MADRID";"28001";"RECOLETOS";"SALAMANCA";"441799";"4475797";"40.42890517804677";"-3.687426857198854";"t.arregui@ecuatropic.es";"";"";"/contenido/entidadesYorganismos/OficinasTurismo"; 
7840;"Oficina de Turismo de Egipto";"";"";"";" Metro: Plaza de España (línea 3)  Bus: 1, 2, 3,  44, 46, 74, 75, 133, 138, 148, 202, C ";"";"0";"http://www.madrid.es/vgn-ext-templating/v/index.jsp?vgnextchannel=9e4c43db40317010VgnVCM100000dc0ca8c0RCRD&vgnextoid=29ac19d41471c010VgnVCM1000000b205a0aRCRD";"GRAN VIA";"CALLE";"V";"78";"8";"IZDA";"";"";"MADRID";"MADRID";"28013";"UNIVERSIDAD";"CENTRO";"439856";"4475183";"40.42323552836883";"-3.710273395725302";"915 592 121 (información sobre horarios)";"915 475 165";"info.es@egypt.travel";"/contenido/entidadesYorganismos/OficinasTurismo"; 
7814;"Oficina de Turismo de Francia";"";"  Horario de septiembre a junio:    Lunes a jueves: de 10 a 14 y de 15 a 17:30 horas  Viernes: de 9:30 a 14:30 horas     Horario julio y agosto:  de 9 a 15 horas ";"";" Metro: Retiro (línea 2), Serrrano (línea 2)  Bus: 1, 2, 9, 15, 19, 20, 21, 28, 51, 52, 53, 74, 146, 202  ";"Otra página web:  http://www.latiendadefrancia.es/ ";"0";"http://www.madrid.es/vgn-ext-templating/v/index.jsp?vgnextchannel=9e4c43db40317010VgnVCM100000dc0ca8c0RCRD&vgnextoid=bbbc19d41471c010VgnVCM1000000b205a0aRCRD";"SERRANO";"CALLE";"V";"40";"2º";"Dcha.";"";"";"MADRID";"MADRID";"28001";"RECOLETOS";"SALAMANCA";"441788";"4475478";"40.42603070001693";"-3.68752726535081";"915 489 737 (Información)           
";"";"";"/contenido/entidadesYorganismos/OficinasTurismo"; 
8132923;"Oficina de Turismo de Gran Bretaña";"";"";"";"";"";"0";"http://www.madrid.es/vgn-ext-templating/v/index.jsp?vgnextchannel=9e4c43db40317010VgnVCM100000dc0ca8c0RCRD&vgnextoid=fc37eddb85d6e410VgnVCM1000000b205a0aRCRD";"CASTELLANA";"PASEO";"V";"259";"";"";"";"";"MADRID";"MADRID";"28046";"LA PAZ";"FUENCARRAL-EL PARDO";"441853";"4481016";"40.47592404926307";"-3.6872691224974417";"917 146 497";"917 146 495";"";"/contenido/entidadesYorganismos/OficinasTurismo"; 
6416785;"Oficina de turismo de Guatemala";"";"";"";" Metro: Colón (línea 4)  Bus: 5, 14, 27, 45, 150 ";"";"0";"http://www.madrid.es/vgn-ext-templating/v/index.jsp?vgnextchannel=9e4c43db40317010VgnVCM100000dc0ca8c0RCRD&vgnextoid=df5f44e4373f6310VgnVCM1000000b205a0aRCRD";"FERNANDO EL SANTO";"CALLE";"V";"27";"3º";"B";"";"";"MADRID";"MADRID";"28010";"ALMAGRO";"CHAMBERI";"441530";"4475712";"40.42811147922819";"-3.69060179113649";"913 440 347 / 913 441 417";"";"";"/contenido/entidadesYorganismos/OficinasTurismo"; 
8132990;"Oficina de Turismo de Holanda";"";"";"";"Bus: 66, 173, 174, 176, 178";"";"0";"http://www.madrid.es/vgn-ext-templating/v/index.jsp?vgnextchannel=9e4c43db40317010VgnVCM100000dc0ca8c0RCRD&vgnextoid=d320ac7ab6d6e410VgnVCM1000000b205a0aRCRD";"CASTELLANA";"PASEO";"V";"259";"18";"";"";"DESPACHO C32";"MADRID";"MADRID";"28046";"LA PAZ";"FUENCARRAL-EL PARDO";"441853";"4481016";"40.47592404926307";"-3.6872691224974417";"917 498 082";"915 707 199";"hungria@hungriaturismo.com";"/contenido/entidadesYorganismos/OficinasTurismo"; 
7819;"Oficina de Turismo de Hungria";"";"Consultar telefónicamente";"";"";"";"0";"http://www.madrid.es/vgn-ext-templating/v/index.jsp?vgnextchannel=9e4c43db40317010VgnVCM100000dc0ca8c0RCRD&vgnextoid=63fc19d41471c010VgnVCM1000000b205a0aRCRD";"--";"--";"V";"--";"";"";"";"";"MADRID";"MADRID";"";"CASTILLEJOS";"";"9";"9";"";"";"915 569 348";"";"hungria@hungriaturismo.com";"/contenido/entidadesYorganismos/OficinasTurismo"; 
7821;"Oficina de Turismo de Irlanda";"";"De lunes a viernes de 10 a 14 horas";"";" Metro: Rubén Darío (línea 5)  Bus: 5, 14, 27, 45, 150 ";"";"0";"http://www.madrid.es/vgn-ext-templating/v/index.jsp?vgnextchannel=9e4c43db40317010VgnVCM100000dc0ca8c0RCRD&vgnextoid=f50d19d41471c010VgnVCM1000000b205a0aRCRD";"CASTELLANA";"PASEO";"V";"46";"2ª";"";"";"";"MADRID";"MADRID";"28046";"CASTELLANA";"SALAMANCA";"441766";"4476386";"40.43419977951646";"-3.6878816351465096";"917 456 420";"";"contact.españas@tourismireland.com";"/contenido/entidadesYorganismos/OficinasTurismo"; 
39693;"Oficina de Turismo de Irán";"";"";"Proporciona información a través de internet, correo y teléfono";" Metro: Avenida de América (líneas 4, 6, 7, 9)  Bus: 9, 16, 19, 51 ";"";"0";"http://www.madrid.es/vgn-ext-templating/v/index.jsp?vgnextchannel=9e4c43db40317010VgnVCM100000dc0ca8c0RCRD&vgnextoid=66e6e7510551c010VgnVCM2000000c205a0aRCRD";"MARIA DE MOLINA";"CALLE";"V";"26";"1ª";"Izqda.";"";"";"MADRID";"MADRID";"28006";"CASTELLANA";"SALAMANCA";"442030";"4476758";"40.4375784193194";"-3.6848033506224906";"915 643 613";"914 110 503";"iran@iransara.es";"/contenido/entidadesYorganismos/OficinasTurismo"; 
7822;"Oficina de Turismo de Israel";"";"";"";" Metro: Bilbao (líneas 1, 4), Tribunal (líneas 1, 10)  Bus: 21, 37, 40, 147, 149  ";"";"0";"http://www.madrid.es/vgn-ext-templating/v/index.jsp?vgnextchannel=9e4c43db40317010VgnVCM100000dc0ca8c0RCRD&vgnextoid=881d19d41471c010VgnVCM1000000b205a0aRCRD";"FUENCARRAL";"CALLE";"V";"101";"5º";"";"";"";"MADRID";"MADRID";"28004";"UNIVERSIDAD";"CENTRO";"440558";"4475696";"40.42789840100491";"-3.702046638888977";"915 943 211";"915 944 372";"israel@turisrael.com";"/contenido/entidadesYorganismos/OficinasTurismo"; 
7823;"Oficina de Turismo de Italia";"";"";"";" Metro: Gregorio Marañón (líneas 7, 10), Rubén Darío (línea 5)  Bus: 12, 16, 19, 9, 51, 61   ";"";"0";"http://www.madrid.es/vgn-ext-templating/v/index.jsp?vgnextchannel=9e4c43db40317010VgnVCM100000dc0ca8c0RCRD&vgnextoid=1b2d19d41471c010VgnVCM1000000b205a0aRCRD";"SERRANO";"CALLE";"V";"120";"1º";"Dcha";"";"";"MADRID";"MADRID";"28006";"CASTELLANA";"SALAMANCA";"441909";"4476632";"40.436434892176365";"-3.6862183867739926";"915 670 670 (información sobre horario)";"915 711 579";"madrid@enit.it";"/contenido/entidadesYorganismos/OficinasTurismo"; 
7834;"Oficina de Turismo de Jordania";"";"Consultar telefónicamente";"";" Metro: Retiro (línea 2)  Bus: 1, 9, 19, 51, 74 ";"";"0";"http://www.madrid.es/vgn-ext-templating/v/index.jsp?vgnextchannel=9e4c43db40317010VgnVCM100000dc0ca8c0RCRD&vgnextoid=ad3d19d41471c010VgnVCM1000000b205a0aRCRD";"VILLANUEVA";"CALLE";"V";"5";"";"";"";"";"MADRID";"MADRID";"28001";"RECOLETOS";"SALAMANCA";"441780";"4475095";"40.4225708087371";"-3.687598129527758";"917 813 987";"";"spain@visitjordan.com";"/contenido/entidadesYorganismos/OficinasTurismo"; 
7804;"Oficina de Turismo de la Comunidad de Madrid. Aeropuerto  de Barajas Terminal 1";"";"  De lunes a sábados de 9 a 20 horas.   Domingos y festivos de 9 a 14  horas, excepto 1 de mayo, 25 de diciembre y 1 de enero, que permencerá cerrada.  ";"Proporcionan información turística de la Comunidad de Madrid y de los lugares mas representativos de España";" Metro: Aeropuerto T1  Bus: 101 ";"";"0";"http://www.madrid.es/vgn-ext-templating/v/index.jsp?vgnextchannel=9e4c43db40317010VgnVCM100000dc0ca8c0RCRD&vgnextoid=305d19d41471c010VgnVCM1000000b205a0aRCRD";"BARAJAS";"AEROPUERTO";"S/N";"0";"";"";"";"Llegadas Internacionales (T1)";"MADRID";"MADRID";"28042";"AEROPUERTO";"BARAJAS";"451801";"4479639";"40.4641393496236";"-3.5698214842707134";"913 058 656 / Información turística y cultural: 902 100 007 ";"913 054 195";"turismo@madrid.org";"/contenido/entidadesYorganismos/OficinasTurismo"; 
190857;"Oficina de Turismo de la Comunidad de Madrid. Aeropuerto de Barajas Terminal 4";"";"  Todos los días de 9 a 20 horas  Cerrado: 1 de mayo, 25 de diciembre y 1 de enero  ";"Proporcionan información turística de la Comunidad de Madrid y de los lugares mas representativos de España";" Metro: Línea 8 - estación Aeropuerto T-4   Bus: Línea 201 Barajas - Aeropuerto T4  ";"";"0";"http://www.madrid.es/vgn-ext-templating/v/index.jsp?vgnextchannel=9e4c43db40317010VgnVCM100000dc0ca8c0RCRD&vgnextoid=28aa8f79e9c70110VgnVCM1000000b205a0aRCRD";"HISPANIDAD";"AVENIDA";"V";"2";"";"";"";"LLEGADAS INTERNACIONALES";"MADRID";"MADRID";"28042";"AEROPUERTO";"BARAJAS";"450422";"4478287";"40.45188738242834";"-3.5859807207200376";"Sala 11: 913 338 247  /     
Sala 10: 913 338 252      
Información turística y cultural: 902 100 007             
";"913 338 274 (Sala 11)";"turismo@madrid.org";"/contenido/entidadesYorganismos/OficinasTurismo"; 
6192812;"Oficina de Turismo de la Comunidad de Madrid. Calle Alcalá, 31";"";"  De lunes a sábados de 9 a 20 horas.   Domingos y festivos de 9 a 14 horas, excepto 1 de mayo, 25 de diciembre y 1 de enero, que permencerá cerrada.  ";"";" Metro: Sevilla (línea 2), Banco de España ( línea 2)  Bus: 1, 2, 9, 15, 20, 28, 51, 52, 74, 146, 202 ";"";"0";"http://www.madrid.es/vgn-ext-templating/v/index.jsp?vgnextchannel=9e4c43db40317010VgnVCM100000dc0ca8c0RCRD&vgnextoid=9a0b992ad93d2310VgnVCM2000000c205a0aRCRD";"ALCALA";"CALLE";"V";"31";"";"";"";"";"MADRID";"MADRID";"28014";"CORTES";"CENTRO";"440869";"4474642";"40.41842560545147";"-3.6982941133384717";"912 767 187   / Información turística y cultural: 902 100 007            
";"912 767 186";"turismo@madrid.org";"/contenido/entidadesYorganismos/OficinasTurismo"; 
7808;"Oficina de Turismo de la Comunidad de Madrid. Calle Duque de Medinaceli";"";"  De lunes a sábados de 8 a 15 horas.   Domingos y festivos de 9 a 14 horas  ";"Proporcionan información turística de la Comunidad de Madrid y de los lugares mas representativos de España";" Metro: Antón Martín (línea 1), Banco de España (línea 2)  Bus: 6, 26, 32, 57 ";"";"0";"http://www.madrid.es/vgn-ext-templating/v/index.jsp?vgnextchannel=9e4c43db40317010VgnVCM100000dc0ca8c0RCRD&vgnextoid=c26d19d41471c010VgnVCM1000000b205a0aRCRD";"DUQUE DE MEDINACELI";"CALLE";"V";"2";"";"";"";"";"MADRID";"MADRID";"28014";"CORTES";"CENTRO";"441062";"4474293";"40.415295360876854";"-3.6959869173057225";"Información turística y cultural:  902 100 007  / 914 294 951       
";"914 293 705";"turismo@madrid.org";"/contenido/entidadesYorganismos/OficinasTurismo"; 
7807;"Oficina de Turismo de la Comunidad de Madrid. Estación de Chamartín";"";"  De lunes a sábados de 8 a 20 horas.   Domingos y festivos de 9 a 14 horas, excepto 1 de mayo, 25 de diciembre y 1 de enero, que permanecerá cerrada  ";"Proporcionan información turística de la Comunidad de Madrid y de los lugares mas representativos de España";" Metro: Chamartín (líneas 1, 10)  Bus: 5, 80, 66, 124   Renfe: Chamartín ";"";"0";"http://www.madrid.es/vgn-ext-templating/v/index.jsp?vgnextchannel=9e4c43db40317010VgnVCM100000dc0ca8c0RCRD&vgnextoid=557d19d41471c010VgnVCM1000000b205a0aRCRD";"AGUSTIN DE FOXA";"CALLE";"V";"40";"";"";"";"VESTIBULO CENTRAL PUERTA 16";"MADRID";"MADRID";"28036";"CASTILLA";"CHAMARTIN";"442155";"4480566";"40.471891389559474";"-3.6836654329204537";"913 159 976 / Información turística y cultural: 902 100 007 ";"913 237 951";"turismo@madrid.org";"/contenido/entidadesYorganismos/OficinasTurismo"; 
68611;"Oficina de Turismo de la Comunidad de Madrid. Estación Puerta de Atocha";"";"  De lunes a sábados de 8 a 20 horas.   Domingos y festivos de 9 a 20 horas, excepto 1 de mayo, 25 de diciembre y 1 de enero, que permencerá cerrada.  ";"";" Metro: Atocha (línea 1)  Bus: 10 , 14 , 19 , 26 , 32 , 37 , 57   Renfe: Atocha ";"";"0";"http://www.madrid.es/vgn-ext-templating/v/index.jsp?vgnextchannel=9e4c43db40317010VgnVCM100000dc0ca8c0RCRD&vgnextoid=3f1f96e2cf41c010VgnVCM2000000c205a0aRCRD";"EMPERADOR CARLOS V";"PLAZA";"V";"3";"";"";"";"VESTÍBULO DE LLEGADA DEL AVE";"MADRID";"MADRID";"28045";"ATOCHA";"ARGANZUELA";"441366";"4473471";"40.4079119564538";"-3.6923163004968975";"Información turística y cultural: 902 100 007 / 915 284 630";"915 307 955";"turismo@madrid.org";"/contenido/entidadesYorganismos/OficinasTurismo"; 
6368119;"Oficina de Turismo de la Comunidad de Madrid. Ifema. Feria de Madrid";"";"Los días en que se celebren ferias, de 11 a 17 horas";"";" Metro: Campo de las Naciones (línea 8)  Bus: 122, 112, 828 ";"";"0";"http://www.madrid.es/vgn-ext-templating/v/index.jsp?vgnextchannel=9e4c43db40317010VgnVCM100000dc0ca8c0RCRD&vgnextoid=1286c040b8f36310VgnVCM2000000c205a0aRCRD";"PARTENON";"AVENIDA";"V";"5";"";"";"";"";"MADRID";"MADRID";"28042";"CORRALEJOS";"BARAJAS";"447852";"4479681";"40.46428771594393";"-3.6164023947650836";"917 210 599 / 917 210 604. Información turística y cultural: 902 100 007 ";"917 210 253";"turismo@madrid.org";"/contenido/entidadesYorganismos/OficinasTurismo"; 
181856;"Oficina de Turismo de la República Checa";"";"";"";" Metro: Pío XII (línea 9)  Bus: 16, 29, 150 ";"";"0";"http://www.madrid.es/vgn-ext-templating/v/index.jsp?vgnextchannel=9e4c43db40317010VgnVCM100000dc0ca8c0RCRD&vgnextoid=c9980e4e6d41c010VgnVCM2000000c205a0aRCRD";"PIO XII";"AVENIDA";"V";"22 -24";"";"";"";"";"MADRID";"MADRID";"28016";"NUEVA ESPAÑA";"CHAMARTIN";"442892";"4479929";"40.466195029254166";"-3.674926102930997";"913 457 112 (información sobre horarios)";"";"madrid@czachtourism.com";"/contenido/entidadesYorganismos/OficinasTurismo"; 
5801458;"Oficina de Turismo de La Rioja";"";"De lunes a viernes de 9 a 21:30 horas (en época de verano, consultar telefónicamente).";"";" Metro: Serrano (línea 4).  Bus: 1, 5, 9, 14, 19, 21, 27, 45, 51, 53, 74, 150. ";"";"0";"http://www.madrid.es/vgn-ext-templating/v/index.jsp?vgnextchannel=9e4c43db40317010VgnVCM100000dc0ca8c0RCRD&vgnextoid=5558bc4e9ef0b210VgnVCM1000000b205a0aRCRD";"SERRANO";"CALLE";"V";"25";"";"";"";"";"MADRID";"MADRID";"28001";"RECOLETOS";"SALAMANCA";"441763";"4475542";"40.426596411628736";"-3.687839531572201";"915 764 852";"";"crmadrid@centroriojano.com";"/contenido/entidadesYorganismos/OficinasTurismo"; 
52471;"Oficina de Turismo de Malta";"";" De lunes a viernes de 9 a 14 horas ";"";" Metro: Gregorio Marañón   Bus: 5, 7, 9, 14, 16, 19, 27, 40, 45, 51, 61, 147, 150 ";"";"0";"http://www.madrid.es/vgn-ext-templating/v/index.jsp?vgnextchannel=9e4c43db40317010VgnVCM100000dc0ca8c0RCRD&vgnextoid=f8f6e7510551c010VgnVCM2000000c205a0aRCRD";"CASTELLANA";"PASEO";"V";"45";"6ª";"";"";"";"MADRID";"MADRID";"28046";"ALMAGRO";"CHAMBERI";"441615";"4476553";"40.43569358766222";"-3.689677189614338";"913 913 061";"";"maltaembassy.madrid@gov.mt";"/contenido/entidadesYorganismos/OficinasTurismo"; 
7824;"Oficina de Turismo de Marruecos";"";"";"";" Metro: Ventura Rodríguez (línea 3), Plaza de España (línea 3)  Bus: 1, 2, 3, 44, 46, 74, 75, 133, 138, 148, C ";"";"0";"http://www.madrid.es/vgn-ext-templating/v/index.jsp?vgnextchannel=9e4c43db40317010VgnVCM100000dc0ca8c0RCRD&vgnextoid=9fbd19d41471c010VgnVCM1000000b205a0aRCRD";"VENTURA RODRIGUEZ";"CALLE";"V";"24";"1º";"Izq.";"";"";"MADRID";"MADRID";"28008";"ARGUELLES";"MONCLOA-ARAVACA";"439492";"4475294";"40.42420902572595";"-3.714574560417809";"915 412 995 (información sobre horarios)";"915 594 594";"";"/contenido/entidadesYorganismos/OficinasTurismo"; 
7825;"Oficina de Turismo de México";"";"";"";" Metro: Sevilla (línea 2)  Bus: 10, 14, 27, 34, 37, 45 ";"";"0";"http://www.madrid.es/vgn-ext-templating/v/index.jsp?vgnextchannel=9e4c43db40317010VgnVCM100000dc0ca8c0RCRD&vgnextoid=22dd19d41471c010VgnVCM1000000b205a0aRCRD";"SAN JERONIMO";"CARRERA";"V";"46";"2ª";"A";"";"";"MADRID";"MADRID";"28014";"CORTES";"CENTRO";"440947";"4474378";"40.41605298613373";"-3.697338423479512";"915 611 827 / 915 613 520";"914 110 759";"spain@visitmexico.com";"/contenido/entidadesYorganismos/OficinasTurismo"; 
27326;"Oficina de Turismo de Noruega";"";"";"Proporciona información a través de internet, correo y teléfono";" Metro: Colón (línea 4)  Bus: 5, 14, 27, 45, 150 ";"";"0";"http://www.madrid.es/vgn-ext-templating/v/index.jsp?vgnextchannel=9e4c43db40317010VgnVCM100000dc0ca8c0RCRD&vgnextoid=7e78444a2951c010VgnVCM2000000c205a0aRCRD";"COLON";"PLAZA";"V";"2";"";"";"";"";"MADRID";"MADRID";"28046";"ALMAGRO";"CHAMBERI";"441500";"4475441";"40.42567707652306";"-3.6909305470033527";"913 440 987";"913 440 947";"";"/contenido/entidadesYorganismos/OficinasTurismo"; 
5405170;"Oficina de Turismo de Nueva York";"";" De lunes a viernes de 9 a 17:30 horas ";"";" Metro: Iglesia ( línea 1)  Bus: 16, 37, 61, 149 ";"";"0";"http://www.madrid.es/vgn-ext-templating/v/index.jsp?vgnextchannel=9e4c43db40317010VgnVCM100000dc0ca8c0RCRD&vgnextoid=2e68a3eee7553210VgnVCM2000000c205a0aRCRD";"ELOY GONZALO";"CALLE";"V";"27";"3ª";"";"";"OFICINAS 4 Y 5";"MADRID";"MADRID";"28010";"TRAFALGAR";"CHAMBERI";"440696";"4476446";"40.43466453809479";"-3.700501765839506";"914 585 573";"";"nuevayork@aviareps.com";"/contenido/entidadesYorganismos/OficinasTurismo"; 
7826;"Oficina de Turismo de Perú";"";"";"";"";"";"0";"http://www.madrid.es/vgn-ext-templating/v/index.jsp?vgnextchannel=9e4c43db40317010VgnVCM100000dc0ca8c0RCRD&vgnextoid=b4ed19d41471c010VgnVCM1000000b205a0aRCRD";"MARQUES DE SALAMANCA";"PLAZA";"V";"10";"";"";"";"";"MADRID";"MADRID";"28006";"LISTA";"SALAMANCA";"442490";"4475878";"40.429674007218026";"-3.6792883340980196";"911 937 511";"";"comercial@embajadaperu.es";"/contenido/entidadesYorganismos/OficinasTurismo"; 
7835;"Oficina de Turismo de Polonia";"";"";"";" Metro: Plaza de España (línea 3)  Bus: 1, 2, 3, 44, 46, 74, 75, 133, 138, 148, 202,  ";"";"0";"http://www.madrid.es/vgn-ext-templating/v/index.jsp?vgnextchannel=9e4c43db40317010VgnVCM100000dc0ca8c0RCRD&vgnextoid=47fd19d41471c010VgnVCM1000000b205a0aRCRD";"PRINCESA";"CALLE";"V";"3";"";"";"";"";"MADRID";"MADRID";"28008";"ARGUELLES";"MONCLOA-ARAVACA";"439638";"4475352";"40.42474213964734";"-3.7128591034859424";"915 414 808 / 915 414 333";"915 413 423";"info.es@polonia.travel";"/contenido/entidadesYorganismos/OficinasTurismo"; 
5405234;"Oficina de Turismo de Portugal";"";"";"";" Metro: Núñez de Balboa (líneas 5, 9)  Bus: 1, 9, 19, 51, 74 ";"";"0";"http://www.madrid.es/vgn-ext-templating/v/index.jsp?vgnextchannel=9e4c43db40317010VgnVCM100000dc0ca8c0RCRD&vgnextoid=f3ad9a4aca553210VgnVCM2000000c205a0aRCRD";"LAGASCA";"CALLE";"V";"88";"4ª";"B";"";"";"MADRID";"MADRID";"28001";"CASTELLANA";"SALAMANCA";"442027";"4475908";"40.42991206232817";"-3.6847491581278606";"917 617 230";"";"";"/contenido/entidadesYorganismos/OficinasTurismo"; 
7828;"Oficina de Turismo de Puerto Rico";"";"";"";" Metro: Retiro (línea 2)  Bus: 1, 2, 9, 15, 20, 28, 51, 52, 74, 146, 202 ";"";"0";"http://www.madrid.es/vgn-ext-templating/v/index.jsp?vgnextchannel=9e4c43db40317010VgnVCM100000dc0ca8c0RCRD&vgnextoid=d90e19d41471c010VgnVCM1000000b205a0aRCRD";"CLAUDIO COELLO";"CALLE";"V";"22";"1º";"B";"";"";"MADRID";"MADRID";"28001";"RECOLETOS";"SALAMANCA";"441848";"4475150";"40.42308011875367";"-3.686789938909185";"914 312 128";"915 775 260";"";"/contenido/entidadesYorganismos/OficinasTurismo"; 
7829;"Oficina de Turismo de República Dominicana";"";"";"";" Metro: Rubén Darío (línea 5), Gregrorio Marañón (líneas 7, 10)  Bus: 9, 16, 19, 61 ";"";"0";"http://www.madrid.es/vgn-ext-templating/v/index.jsp?vgnextchannel=9e4c43db40317010VgnVCM100000dc0ca8c0RCRD&vgnextoid=6c1e19d41471c010VgnVCM1000000b205a0aRCRD";"SERRANO";"CALLE";"V";"114";"2º";"Ext. Izqda.";"";"";"MADRID";"MADRID";"28006";"CASTELLANA";"SALAMANCA";"441903";"4476556";"40.43574088970734";"-3.686270282394151";"914 177 375";"915 980 025";"";"/contenido/entidadesYorganismos/OficinasTurismo"; 
8132969;"Oficina de Turismo de Rumania";"";"";"";" Metro: Lista (línea 4)  Bus: 1, 26, 61, 74 ";"";"0";"http://www.madrid.es/vgn-ext-templating/v/index.jsp?vgnextchannel=9e4c43db40317010VgnVCM100000dc0ca8c0RCRD&vgnextoid=021399cf56d6e410VgnVCM1000000b205a0aRCRD";"ALCANTARA";"CALLE";"V";"49";"";"";"";"";"MADRID";"MADRID";"28006";"LISTA";"SALAMANCA";"442962";"4475981";"40.43064345216766";"-3.6737334953475242";"914 014 268";"914 027 183";"";"/contenido/entidadesYorganismos/OficinasTurismo"; 
63189;"Oficina de Turismo de Seychelles";"";"";"";" Metro: Arg&uuml;elles (líneas 3, 4, 6)  Bus: 5, 7, 14, 21, 27, 45, 150  ";"";"0";"http://www.madrid.es/vgn-ext-templating/v/index.jsp?vgnextchannel=9e4c43db40317010VgnVCM100000dc0ca8c0RCRD&vgnextoid=1e17e7510551c010VgnVCM2000000c205a0aRCRD";"PRINCESA";"CALLE";"V";"40";"";"";"";"HOTEL HUSA PRINCESA";"MADRID";"MADRID";"28008";"UNIVERSIDAD";"CENTRO";"439439";"4475886";"40.429538155017795";"-3.715255790482151";"917 020 804";"917 022 374";"info@turismoseychelles.com";"/contenido/entidadesYorganismos/OficinasTurismo"; 
5359801;"Oficina de Turismo de Tahití";"";" Consultar telefónicamente  ";"";" Metro: Serrano (línea 4)  Bus: 1, 9, 19, 21, 51, 53, 74 ";"";"0";"http://www.madrid.es/vgn-ext-templating/v/index.jsp?vgnextchannel=9e4c43db40317010VgnVCM100000dc0ca8c0RCRD&vgnextoid=90192b0194de1210VgnVCM2000000c205a0aRCRD";"SERRANO";"CALLE";"V";"40";"2º";"Dcha.";"";"";"MADRID";"MADRID";"28001";"RECOLETOS";"SALAMANCA";"441788";"4475478";"40.426021621426464";"-3.687538961488509";"915 489 747";"915 412 412";"info.es@atout-france.fr";"/contenido/entidadesYorganismos/OficinasTurismo"; 
7832;"Oficina de Turismo de Turquia";"";"";"";" Metro: Retiro (línea 2)  Bus: 1, 2, 3, 44, 46, 74, 75, 133, 138, 148, 202, C ";"";"0";"http://www.madrid.es/vgn-ext-templating/v/index.jsp?vgnextchannel=9e4c43db40317010VgnVCM100000dc0ca8c0RCRD&vgnextoid=a66e19d41471c010VgnVCM1000000b205a0aRCRD";"ANTONIO MAURA";"CALLE";"V";"18";"2º";"D";"";"";"MADRID";"MADRID";"28014";"LOS JERONIMOS";"RETIRO";"441589";"4474411";"40.416395587157496";"-3.6897865586854928";"915 597 014 / 915 597 114 ";"915 476 287";"turquia@telefonica.net";"/contenido/entidadesYorganismos/OficinasTurismo"; 
7841;"Oficina de Turismo de Túnez";"";"";"";" Metro: San Bernardo (líneas 2, 4)  Bus: 2, 21, 147, 202 ";"";"0";"http://www.madrid.es/vgn-ext-templating/v/index.jsp?vgnextchannel=9e4c43db40317010VgnVCM100000dc0ca8c0RCRD&vgnextoid=145e19d41471c010VgnVCM1000000b205a0aRCRD";"ALBERTO AGUILERA";"CALLE";"V";"11";"1º";"C";"";"";"MADRID";"MADRID";"28015";"UNIVERSIDAD";"CENTRO";"439994";"4475897";"40.42967754133076";"-3.7087142557455817";"915 481 435";"915 483 705";"administracion@turismodetunez.com";"/contenido/entidadesYorganismos/OficinasTurismo"; 
5405423;"Oficina de Turismo de Venezuela";"";"Consultar telefonicámente";"";" Metro: Santiago Bernabeu (línea 10)  Bus: 27, 40, 43, 126, 147 ";"";"0";"http://www.madrid.es/vgn-ext-templating/v/index.jsp?vgnextchannel=9e4c43db40317010VgnVCM100000dc0ca8c0RCRD&vgnextoid=2457116bb1653210VgnVCM2000000c205a0aRCRD";"CAPITAN HAYA";"CALLE";"V";"1";"";"";"";"";"MADRID";"MADRID";"28020";"CUATRO CAMINOS";"TETUAN";"441361";"4478506";"40.453269184872156";"-3.6928523641457414";"915 981 200";"";"turismo@embajadadevenezuela.es";"/contenido/entidadesYorganismos/OficinasTurismo"; 
7598719;"Oficina de Turismo del Ayuntamiento de Madrid. Sector Profesional";"";" De lunes a viernes de 9 a 17 horas (sólo para profesionales de turismo) ";"";" Metro: Sol (líneas 1, 2, 3), Ópera (línea 2, 5, Ramal)  Bus: 3, 5, 15, 17, 18, 20, 23, 31, 35, 50, 51, 52, 53, 65, 150 ";" Atiende a profesionales del sector, tanto locales como en origen ";"1";"http://www.madrid.es/vgn-ext-templating/v/index.jsp?vgnextchannel=9e4c43db40317010VgnVCM100000dc0ca8c0RCRD&vgnextoid=7e345b4cd5787410VgnVCM1000000b205a0aRCRD";"MAYOR";"PLAZA";"V";"27";"";"";"";"Casa de la Panadería";"MADRID";"MADRID";"28012";"SOL";"CENTRO";"440092";"4474361";"40.41583855082183";"-3.7074257084323636";"917 012 210";"";"";"/contenido/entidadesYorganismos/OficinasTurismo"; 
7836;"Oficina Joven Comunidad de Madrid. TIVE. Calle de Fernando el Católico";"";" De lunes a viernes de 9 a 14 horas  Desde el 1 de abril hasta el 30 de septiembre de 9 a 19 horas., ininterrumpidamente, para todos los servicios excepto para las inscripciones en actividades organizadas por la Dirección General de Juventud y Deportes, que sólo se realizarán de 9 a 14 horas. ";"  Obtención de carnets internacionales   Estudiante  (ISIC)   Profesor  (ITIC)   International Youth Travel Card (IYTC)  Albergues Juveniles  Carné Joven    Reservas en albergues juveniles internacionales  Cursos de idiomas en el extranjero  Seguros de viajes  Billetes de bus nacional e internacional  Billetes de tren nacional y emisión de billetes interRaíl  Oficina de Información Juvenil  Preinscripciones e inscripciones de participantes en campañas de la Dirección General de Juventud   ";" Metro: Moncloa (líneas 3, 6)  Bus: 1, 16, 44, 46, 61, 82, 83, 132, 133, 160, 161, 162, A, C1, C2, SE 796, SE 798 ";"";"0";"http://www.madrid.es/vgn-ext-templating/v/index.jsp?vgnextchannel=9e4c43db40317010VgnVCM100000dc0ca8c0RCRD&vgnextoid=397e19d41471c010VgnVCM1000000b205a0aRCRD";"FERNANDO EL CATOLICO";"CALLE";"V";"88";"";"";"";"";"MADRID";"MADRID";"28015";"GAZTAMBIDE";"CHAMBERI";"439229";"4476431";"40.43442331966472";"-3.717795251173153";"915 437 412";"915 492 243";"tive.juventud@madrid.org";"/contenido/entidadesYorganismos/OficinasTurismo"; 
4917035;"Oficina Joven Comunidad de Madrid. TIVE. Calle de Recoletos";"";" De lunes a viernes de 9 a 14 horas ";"  Obtención de carnets internacionales   Estudiante  (ISIC)   Profesor  (ITIC)       International Youth Travel Card   (IYTC)   Albergues Juveniles  Carné Joven    Oficina de Información Juvenil    ";" Bus: 1, 5, 9, 14, 19, 27, 37, 45, 51, 53, 74, 150 ";"";"0";"http://www.madrid.es/vgn-ext-templating/v/index.jsp?vgnextchannel=9e4c43db40317010VgnVCM100000dc0ca8c0RCRD&vgnextoid=145f8558aa00a110VgnVCM1000000b205a0aRCRD";"RECOLETOS";"CALLE";"V";"1";"";"";"";"c/v paseo de Recoletos, 14";"MADRID";"MADRID";"28001";"RECOLETOS";"SALAMANCA";"441496";"4475070";"40.42232563847626";"-3.6909434067579525";"901 510 610 / 912 767 563";"";"";"/contenido/entidadesYorganismos/OficinasTurismo"; 
5631196;"Punto de Información Turística Aeropuerto Adolfo Suárez Madrid -  Barajas Terminal 2";"";"De lunes a domingo de 9 a 20 horas";"  Punto de información sobre la oferta turística y cultural de Madrid.  Atención presencial  Autoconsulta  Audiovisuales  Certificado  ICTE  de  Q de calidad turística  Norma  UNE  187003:2008  ";" Metro: Aeropuerto T2 (línea 8)  Bus: 200 y autobús Express aeropuerto ";"";"0";"http://www.madrid.es/vgn-ext-templating/v/index.jsp?vgnextchannel=9e4c43db40317010VgnVCM100000dc0ca8c0RCRD&vgnextoid=88dfad2e06ea7210VgnVCM2000000c205a0aRCRD";"HISPANIDAD";"AVENIDA";"V";"0";"";"";"";"Aeropuerto de Barajas. Salas 5 y 6";"MADRID";"MADRID";"28042";"AEROPUERTO";"BARAJAS";"450422";"4478287";"40.45188738242834";"-3.5859807207200376";"914 544 410 (nformación turística y Programa de Visitas Guiadas Oficiales)";"";"turismo@esmadrid.com";"/contenido/entidadesYorganismos/OficinasTurismo"; 
178759;"Punto de Información Turística Aeropuerto Adolfo Suárez Madrid - Barajas Terminal 4";"";"De lunes a domingo de 9 a 20 horas";"  Punto de información sobre la oferta turística y cultural de Madrid.  Atención presencial  Autoconsulta  Audiovisuales  Accesibilidad: mostrador adaptado  Certificados  ICTE  de Q de calidad turística Norma  UNE  187003:2008  ";" Metro: Aeropuerto T 4 (línea 8)  Bus: 200 y Exprés Aeropuerto  Renfe: Aeropuerto T 4 ";"";"0";"http://www.madrid.es/vgn-ext-templating/v/index.jsp?vgnextchannel=9e4c43db40317010VgnVCM100000dc0ca8c0RCRD&vgnextoid=8f871c7a2c61c010VgnVCM1000000b205a0aRCRD";"HISPANIDAD";"AVENIDA";"V";"0";"";"";"";"Aeropuerto de Barajas. Salas 10 y 11.";"MADRID";"MADRID";"28042";"AEROPUERTO";"BARAJAS";"450422";"4478287";"40.45188738242834";"-3.5859807207200376";"914 544 410 (información turística y Programa Visitas Guiadas Oficiales)";"";"turismo@esmadrid.com";"/contenido/entidadesYorganismos/OficinasTurismo"; 
171082;"Punto de Información Turística Callao (en remodelación)";"";"De lunes a domingo de 9:30 a 20:30 horas";"  Punto de información sobre la oferta turística y cultural de Madrid.  Atención presencial  Autoconsulta  Certificado  ICTE  de  Q de calidad turística  Norma  UNE  187003:2008  ";" Metro: Callao (líneas 1, 3, 5)  Bus: 1, 2, 44, 46, 74, 75, 146, 147, 148, 133 y 202 ";"";"0";"http://www.madrid.es/vgn-ext-templating/v/index.jsp?vgnextchannel=9e4c43db40317010VgnVCM100000dc0ca8c0RCRD&vgnextoid=acf029ea9281c010VgnVCM1000000b205a0aRCRD";"CALLAO";"PLAZA";"V";"1";"";"";"";"";"MADRID";"MADRID";"28013";"SOL";"CENTRO";"440205";"4474794";"40.41974735763767";"-3.7061346665078845";"914 544 410 (información turística y Programa Visitas Guiadas Oficiales)";"";"turismo@esmadrid.com";"/contenido/entidadesYorganismos/OficinasTurismo"; 
171029;"Punto de Información Turística Cibeles";"";"De lunes a domingo de 9:30 a 20:30 horas";"  Punto de información sobre la oferta turística y cultural de Madrid.  Atención presencial  Certificado  ICTE  de  Q de calidad turística  Norma  UNE  187003:2008  ";" Metro: Banco de España (línea 2)  Bus: 1, 2, 5, 9, 10, 15, 20, 27, 34, 37, 45, 51, 52, 53, 74, 146, 150, 202  Renfe: Recoletos ";"";"0";"http://www.madrid.es/vgn-ext-templating/v/index.jsp?vgnextchannel=9e4c43db40317010VgnVCM100000dc0ca8c0RCRD&vgnextoid=f22129ea9281c010VgnVCM1000000b205a0aRCRD";"CIBELES";"PLAZA";"V";"";"";"";"";"Bulevar del Paseo del Prado";"MADRID";"MADRID";"28014";"LOS JERONIMOS";"RETIRO";"441386";"4474703";"40.419011767401095";"-3.692206111679657";"914 544 410 (información turística y Programa Visitas Guiadas Oficiales)";"";"turismo@esmadrid.com";"/contenido/entidadesYorganismos/OficinasTurismo"; 
4629416;"Punto de Información Turística Paseo del Arte";"";"De lunes a domingo de 9:30 a 20:30 horas. ";"  Punto de información sobre la oferta turística y cultural de Madrid.  Atención presencial  Autoconsulta  Accesibilidad: acceso adaptado  Certificado  ICTE  de  Q de calidad turística  Norma  UNE  187003:2008  ";" Metro: Atocha (línea 1)  Bus: 6, 10 , 14, 19, 26, 27, 32, 34, 37, 54, 57, 69  Renfe: Atocha ";"";"1";"http://www.madrid.es/vgn-ext-templating/v/index.jsp?vgnextchannel=9e4c43db40317010VgnVCM100000dc0ca8c0RCRD&vgnextoid=d4f94e40c7294110VgnVCM1000000b205a0aRCRD";"SANTA ISABEL";"CALLE";"V";"";"";"";"";"c/v glorieta del Emperador Carlos V";"MADRID";"MADRID";"28012";"EMBAJADORES";"CENTRO";"440765";"4473944";"40.41213027498252";"-3.6994547941964946";"914 544 410 (información turística y Programa Visitas Guiadas Oficiales)";"";"turismo@esmadrid.com";"/contenido/entidadesYorganismos/OficinasTurismo"; 
7050847;"Punto de Información Turística. Centrocentro";"";"  De martes a domingo de 10 a 20 horas  Cerrado todos los lunes, 1 y 6 de enero, 1 de mayo y 24, 25 y 31 de diciembre  ";"  Punto de información sobre la oferta turística y cultural de Madrid  Atención presencial  Autoconsulta  Audiovisuales  Accesibilidad: acceso adaptado  ";" Metro: Banco de España (línea 2)  Bus: 1, 2, 5, 9, 10, 15, 20, 27, 34, 37, 45, 51, 52, 53, 74, 146, 150, 202  Renfe: Recoletos ";"  Descripción monumental    Arquitecto:  Jacques Marquet (1760 - 1768)  Construido para sede central del Correo. Su estilo es del barroco más clásico. Destaca la combinación de materiales, del ladrillo y la piedra con el hierro labrado del balcón y los detalles escultóricos de Antonio Primo. La torrecilla del reloj data del siglo XIX, y fue regalo del relojero Losada. ";"0";"http://www.madrid.es/vgn-ext-templating/v/index.jsp?vgnextchannel=9e4c43db40317010VgnVCM100000dc0ca8c0RCRD&vgnextoid=81c63eebd56ff310VgnVCM2000000c205a0aRCRD";"CIBELES";"PLAZA";"V";"1";"";"";"";"";"MADRID";"MADRID";"28014";"LOS JERONIMOS";"RETIRO";"441386";"4474703";"40.419011767401095";"-3.692206111679657";"914 544 410 (información turística y Programa Visitas Guiadas Oficiales)";"";"turismo@esmadrid.com";"/contenido/entidadesYorganismos/OficinasTurismo"; 
4629537;"Servicio de Atención al Turista Extranjero (SATE). Comisaría de Centro";" El Servicio de Atención al Turista Extranjero - SATE - es un servicio especializado gestionado por la Empresa Municipal Madrid Destino, Cultura, Turismo y Negocio, S.A en colaboración con la Policia Nacional que tiene por finalidad atender al turista que, durante su estancia en Madrid, haya vivido una situación excepcional y requiera de apoyo policial ";"Todos los días de 9 a 24 horas";"";" Metro: Plaza de España (líneas 3, 10), Santo Domingo (línea 2), Callao (líneas 3, 5)  Bus: 1, 2, 25, 39, 44, 46, 74, 75, 138, 148, 202 ";"";"0";"http://www.madrid.es/vgn-ext-templating/v/index.jsp?vgnextchannel=9e4c43db40317010VgnVCM100000dc0ca8c0RCRD&vgnextoid=d37386bde6594110VgnVCM1000000b205a0aRCRD";"LEGANITOS";"CALLE";"V";"19";"";"";"";"";"MADRID";"MADRID";"28013";"PALACIO";"CENTRO";"439863";"4475000";"40.421578408057876";"-3.7101852392954386";"902 102 112 (denuncias 24 horas. Policía)";"";"satemadrid@esmadrid.com";"/contenido/entidadesYorganismos/AyuntamientoMadrid/OtrasEntidadesAdministrativasAyto"; 
5333067;"Servicio No Presencial de Información Turística de Madrid";"Información turística telefónica, por correo postal, correo electrónico y a través de la aplicación de chat de la página web  http://www.esmadrid.com/ ";"De lunes a domingo de 9:30 a 20:30 horas";"  Atiende aquellas consultas sobre la oferta turística de la ciudad, recibidas a través de teléfono, correo postal, correo electrónico y servicio de chat de la página  www.esmadrid.com.   Certificado  ICTE  de Q de calidad turística Norma  UNE  187003:2008   ";"";"";"0";"http://www.madrid.es/vgn-ext-templating/v/index.jsp?vgnextchannel=9e4c43db40317010VgnVCM100000dc0ca8c0RCRD&vgnextoid=c143f96a9e251210VgnVCM1000000b205a0aRCRD";"MAYOR";"PLAZA";"V";"27";"";"";"";"Para atención por correo postal";"MADRID";"MADRID";"28012";"SOL";"CENTRO";"440092";"4474361";"40.41583855082183";"-3.7074257084323636";"914 544 410 (información turística y Programa Visitas Guiadas Oficiales)";"915 310 074";"turismo@esmadrid.com";"/contenido/entidadesYorganismos/OficinasTurismo"; 
4977096;"Unidad Móvil de información turística de Madrid";"";"De 9:30 a 20:30 horas.";"  Punto itinerante de información turística de la ciudad de Madrid con atención presencial y personalizada en varios idiomas  Durante todo el año se sitúa junto a monumentos y edificios de gran afluencia turística como el Palacio Real, el Museo del Prado, Puerta del Sol y presta un servicio informativo de apoyo a los Servicios de Atención e Información Turística en las campañas especiales que se llevan a cabo con motivo de las diferentes celebraciones que tienen lugar en nuestra ciudad (Día del Libro, Semana del Orgullo Gay, Noche en Blanco, Día Mundial del Turismo, Festival Internacional de Jazz, ...)  Servicios   Atención presencial  Autoconsulta  Bucle magnético  Acceso adaptado    Certificado  ICTE  de Q de calidad turística Norma  UNE  187003:2008   ";"";"";"1";"http://www.madrid.es/vgn-ext-templating/v/index.jsp?vgnextchannel=9e4c43db40317010VgnVCM100000dc0ca8c0RCRD&vgnextoid=83f9cb82f05db110VgnVCM1000000b205a0aRCRD";"";"Punto itinerante";"";"";"";"";"";"";"MADRID";"MADRID";"";"";"";"0";"0";"";"";"";"";"";"/contenido/entidadesYorganismos/OficinasTurismo"; 

