NOMBRE;DESCRIPCION-ENTIDAD;HORARIO;EQUIPAMIENTO;TRANSPORTE;NOMBRE-VIA;CLASE-VIAL;NUM;CODIGO-POSTAL;DISTRITO;LATITUD;LONGITUD;TELEFONO;TIPO
Bosque del Recuerdo; El Bosque del Recuerdo, anteriormente conocido como Bosque de los Ausentes, es un monumento construido como homenaje a las 191 víctimas de los atentados del 11 de marzo de 2004 en Madrid y al agente de las fuerzas especiales muerto cuando siete autores de los atentados se suicidaron con bombas el 3 de abril de 2004 en Leganés.   El Bosque del Recuerdo se encuentra en la Chopera, en el madrileño parque del Retiro, cerca de la estación de Atocha, y consta de 118 áreas con 192 árboles (22 olivos y 170 cipreses), uno por cada asesinado. ;;;Bus: 19;ALFONSO XII;CALLE;48;28014;RETIRO;40.412.408.966.986.200;-3.689.050.463.043.600;; Parque
Jardines calles Raimundo Fernández Villaverde, Ponzano y Maudes; Jardines situados en la calle Raimundo Fernández Villaverde con gran superficie de pradera y dotada con áreas infantiles y aparatos de entrenamiento de mayores.                                                                                                                                     ;;  Zonas infantiles  Zonas de mayores  Circuito Biosaludable   ; Metro: Nuevos Ministerios (líneas 6, 8 y 10)  Bus: 5, 68, 149, C1, C2  RENFE: Nuevos Ministerios ;RAIMUNDO FERNANDEZ VILLAVERDE;CALLE;32;28003;CHAMBERI;4.044.613.326.792.270;-36.989.699.295.578.300;; Parque
Jardines de la Basílica;" Situados frente a la Basílica Hispanoamericana de la Merced y junto al colegio Patrocinio de San José. Zona principalmente pavimentada aunque tiene también gran superficie de pradera; se caracteriza por sus amplias zonas estacionales.                                                                                                        ";;; Metro: Nuevos Ministerios (líneas 6, 8 y 10)  RENFE: Nuevos Ministerios  Bus: 5 , 69 y 149  ;BASILICA;CALLE;15;28020;TETUAN;4.044.903.638.127.440;-3.695.615.530.710.880;; Parque
Jardines de la calle Teresita González Quevedo; Situados en la confluencia de la calle Capitán Haya con Teresita González de Quevedo. Zona de praderas con distintas especies de árboles y arbustos.                                           ;;;Bus:  3 ,  5 ,  126  ;SAN AMARO;PLAZA;4;28020;TETUAN;4.045.558.642.017.730;-36.970.275.649.098.400;; Parque
Jardines de la Organización Mundial del Turismo; Encontramos en estos jardines grandes zonas de pradera y áreas infantiles.    Otras denominaciones:  Jardines de la Avenida de Brasil                                      ;;;Bus: 5, 126, 149 ;BRASIL;AVENIDA;31;28020;TETUAN;40.458.706.953.002.200;-36.934.625.569.379.300;; Parque
Jardines de la Plaza Conde del Valle de Suchil; Plaza rectangular pavimentada con macizos de arbustos y dotada con dos áreas infantiles, área canina y fuente ornamental.                                                       ;;  Zonas infantiles  Zonas caninas  ; Metro: San Bernardo (líneas 2 y 4)  Bus: 16, 21, 61 ;RODRIGUEZ SAN PEDRO;CALLE;3;28015;CHAMBERI;4.043.137.597.367.300;-37.064.685.006.782.200;; Parque
Jardines de la Plaza de Chamberí;Plaza pavimentada situada junto a la Junta del Distrito en la que podemos encontrar área infantil, fuente ornamental y kiosco.                                                               ;;  Zonas Infantiles  ; Metro: Iglesia (línea 1) Bus: 3, 40 y 147;CHAMBERI;PLAZA;1;28010;CHAMBERI;4.043.285.328.749.450;-3.697.594.475.998.510;; Parque
Jardines de la Plaza de la Villa de París; Plaza formada por dos amplios espacios estanciales, con zonas ajardinadas y arboladas ante el Tribunal Superior de Justicia, antiguo convento de Santa Bárbara. Dotada de zona de juegos infantiles y con grandes espacios en terrizo para el paseo de los ciudadanos.                                                       ;;  Zonas infantiles  Zonas caninas  ; Metro: Colón (línea 4) Bus: 5, 14, 21 ,27, 37, 45, 53, 150;GENERAL CASTAÑOS;CALLE;6;28004;CENTRO;4.042.620.255.233.650;-36.934.468.983.675.800;; Parque
Jardines de la Plaza de Olavide; Plaza circular pavimentada situada entre bloques, dotada de área infantil y aparatos de entrenamiento de mayores.                                ;;  Zonas infantiles  Zonas de mayores    ; Metro: Bilbao (línea 1, 4)  Bus: 3, 16, 37, 40, 61, 149 ;OLAVIDE;PLAZA;16;28010;CHAMBERI;4.043.247.362.678.540;-37.007.855.621.824.200;; Parque
Jardines de la Plaza de Oriente, Lepanto y Cabo Noval; La plaza de Oriente, de forma rectangular cerrada en hemiciclo, está presidida por el Teatro Real y se abre en una gran perspectiva enmarcando la fachada oriental del Palacio Real. Se distinguen tres espacios diferenciados: el parterre central, que se desarrolla en el entorno del famoso grupo escultórico ecuestre  de Felipe  IV , y los jardines del cabo Noval y de Lepanto, que se sitúan a ambos lados.  El parterre central sigue el modelo decimonónico de jardinería: seto de complicados diseños geométricos y figuras toparías (ejemplares perfilados con diversas formas), todo ello guardando simetría con un eje principal. Se utilizan: para el seto el boj, en las esquinas tejos y entre ellos cipreses. Se encuentra un ejemplar de magnolio en el centro de cada figura, y dos fuentes artísticas en los cuadros más cercanos a palacio. Los jardines de Lepanto y Cabo Noval son espacios abiertos y ajardinados para el descanso y recreo de los visitantes. La cantidad de árboles hace de ambos jardines un lugar idóneo para la estancia y el ocio. Los jardines del Cabo Noval, integrados principalmente por plantaciones de plátanos, ocupan la parte septentrional de la Plaza de Oriente, junto a la calle de San Quintín. Los jardines de Lepanto se encuentran en la parte meridional de la plaza y su composición es muy similar.                                                                                                             ;;  Zonas infantiles  ; Metro: Ópera (líneas 2, 5 y ramal)  Bus: 25, 39 ;BAILEN;CALLE;17;28013;CENTRO;4.041.835.486.065.350;-3.712.838.830.603.040;; Parque
Jardines de las Vistillas; Jardín de 1,74 hectáreas que es usado por los madrileños para sentarse en verano en cualquiera de sus terrazas. Fue diseñado en los años 30 y 40 por los arquitectos Fernando García Mercadal (1932) y Manuel Herrero Palacios (1945) que configuraron un primer cuerpo rodeado por un murete al que se accede por unas escaleras, una zona estancial con árboles, fuente central y señalados macizos con césped, pasos de granito y farolas y un busto de Zuloaga. Denominado de las Vistillas por sus magníficas vistas de la ribera del Manzanares y la Casa de Campo, es lugar, además, de famosas verbenas y festejos populares.                                                       ;;  Zonas infantiles  ;Bus: 3, 31, 50, 65, 148;MORERIA;CALLE;12;28005;CENTRO;4.041.281.392.212.300;-37.143.597.156.687.000;; Parque
Jardines de Perón; Jardines situados en la avenida General Perón entre las calles Orense y Reina Mercedes con grandes superficies de praderas y arbustos. Tiene zonas estacionales e infantiles, área canina,  etc .                                                           ;;  Zonas infantiles   Zonas caninas  Instalaciones deportivas  ; Metro: Santiago Bernabéu (línea 10)  Bus: 3, 5, 43, 149  ;GENERAL PERON;AVENIDA;21;28020;TETUAN;4.045.257.591.499.540;-36.957.817.548.357.200;; Parque
Jardines de Sabatini;"  Los Jardines de Sabatini se encuentran situados frente a la fachada norte del Palacio Real, entre la calle de Bailén y la Cuesta de San Vicente, en una terraza colgada sobre el Campo del Moro. Se trata de un jardín de estilo neoclásico acorde con el palacio. Se accede al jardín desde dos puntos: la  c/  Bailén, cerca del palacio, a través de una escalera de doble trazado que debe salvar una altura de casi 20 metros desde la que domina la terraza inferior, y las entradas de la zona norte por las que se accede a las otras dos terrazas.  El jardín se divide en tres terrazas: la inferior, marcada por la simetría de los parterres a ambos lados de una gran lámina de agua a modo de espejo con dos surtidores, y enmarcada por cuatro cuadros con sendas fuentes rodeadas por figuras de seto;  la segunda, que forma un impresionante balcón sobre la primera, en donde se domina la totalidad de la fachada norte del Palacio y que bajo un bosque de pinos se extiende hacia la Cuesta de San Vicente, en donde se encuentra una nueva escalera de doble entrada que salva el desnivel hasta la calle; y la tercera, en una altura superior y al este de la segunda terraza, con un juego de parterres y grandes cedros.           ";;;;BAILEN;CALLE;2;28013;CENTRO;40.419.911.287.101.100;-3.713.185.308.888.600;; Parque
Jardines de San Fernando; Jardines ubicados alrededor de la Parroquia de San Fernando, delimitados por las Calles Alberto Alcocer, Doctor Fleming, Juan Hurtado de Mendoza y Juan Ramón Jiménez. Presenta extensas superficies de césped, macizos arbustivos varios, dos zonas infantiles y amplias zonas estanciales terrizas.                            ;;  Zonas infantiles  ; Metro: Cuzco (línea 10)  Bús: 5, 11, 40, 140, 150 ;ALBERTO ALCOCER;AVENIDA;9;28036;CHAMARTIN;4.045.978.849.094.370;-3.687.352.342.212.420;; Parque
Jardines del Arquitecto Ribera; Estos jardines forman unidad con el edificio del Museo y Biblioteca Municipal. La zona se encuentra presidida por una hermosa fuente llamada de Antonio Martín o de la Fama.                                              ;;; Metro: Tribunal (líneas 1 y 10)  Bus: 3, 40, 149 ;BARCELO;CALLE;2;28004;CENTRO;4.042.640.449.792.330;-37.002.981.748.621.900;; Parque
Jardines del Descubrimiento; Plaza idónea para la realización de eventos varios entre el Paseo de Recoletos y el Paseo de la Castellana rodeada de bonitos jardines. En ella se sitúa la estatua en honor a Cristóbal Colón y una fuente que representa el descubrimiento de América. Además en ella hay un gran mástil con la bandera de España.   Otras denominaciones:  Jardines de la Plaza Colón                                           ;;  Aseo público  ; Metro: Colón (línea 4) y Serrano (línea 4)  Bus: 1, 5, 9, 14, 19, 21, 27, 45, 51, 53, 74 y 150 ;GOYA;CALLE;2;28001;SALAMANCA;4.042.518.540.300.910;-36.887.800.207.651.400;; Parque
Jardines del Doctor Fleming; Jardines situados junto a bloques de viviendas en la Calle Doctor Fleming, que presentan mayoritariamente praderas delimitadas por borduras de seto.                       ;;; Metro: Cuzco (línea 10) Bus: 27, 40 , 126, 147 y 150;DOCTOR FLEMING;CALLE;1;28036;CHAMARTIN;4.045.454.215.758.870;-36.893.863.385.035.700;; Parque
Jardines del Mundial. Castellana; Jardineras de obra con especies arbóreas específicas de diferentes países.  Parque conmemorativo de los Mundiales de Fútbol 1982, posee especies originales de otros países.                                              ;;; Metro: Santiago Bernabéu (línea 10)  Bús: 14, 27, 40, 126, 147, 150 ;CASTELLANA;PASEO;142;28046;CHAMARTIN;404.530.917.282.714;-36.893.833.082.867.000;; Parque
Jardines del Príncipe de Anglona; Pequeño jardín histórico, situado en pleno centro de Madrid, donde el ciudadano puede disfrutar de un remanso de paz, dentro del estruendo de la ciudad. Antiguamente lugar de recreo de los distintos propietarios del palacio contiguo. Se trata de un jardín que aun conserva su estructura original, pese a haber sido reformado en varias ocasiones, con caminos de ladrillos aparejados a sardinel. Destacan varios arbustos singulares y una gran pérgola de rosales trepadores.                                                                        ; Invierno: de 10 a 18 horas.  Verano: de 10 a 22 horas. ;; Metro: La Latina (línea  5 )  Bus:  3  ,  31  ,  50  ,  65  ,  148  ;PAJA;PLAZA;6;28005;CENTRO;40.413.417.349.090.700;-3.711.466.649.831.880;; Parque
Jardines Gregorio Ordóñez; Jardines en memoria de Gregorio Ordóñez. Este cuidado jardín presenta dos amplias zonas infantiles, para diversión de los pequeños y posee un pequeño estanque en el centro del mismo rodeado de distintas especies de palmeras.                                                            ;;; Metro: Núñez de Balboa (líneas 5 y 9)  Bus: 1, 29, 52, 74 ;PRINCIPE DE VERGARA;CALLE;68;28006;SALAMANCA;4.043.346.186.779.770;-36.785.954.778.654.100;; Parque
Jardín Concejal Alejandro Muñoz Revenga; Plaza pavimentada con gran superficie de arbustos y una zona infantil                                                                                                                                           ;;  Zonas infantiles  ;Bus: 2, 16, 61 y 202;MELENDEZ VALDES;CALLE;32;28015;CHAMBERI;4.043.304.334.055.120;-3.712.227.582.685.090;; Parque
Jardín de Embajadores M-30 (Madroños); Pequeño parque limítrofe con la M-30, de diseño moderno, cuya función es actuar como barrera acústica.                                                                       ;;  Instalaciones deportivas  ;Bus: 62 y 88;PUERTO DE LA CRUZ VERDE;CALLE;29;28045;ARGANZUELA;4.038.418.473.435.090;-3.685.817.452.497.560;; Parque
Jardín de la Colonia Congosto; Área ajardinada formada por una gran zona estancial localizada en torno a la cafetería existente. El parque presenta gran cantidad de macizos arbustivos así como ejemplares arbóreos bien establecidos.   Otras denominaciones    Parque Congosto  Parque Camino Congosto                               ;;; Metro: Congosto (línea 1)  Bus: 54 y L1 ;CONGOSTO;CALLE;70;28031;VILLA DE VALLECAS;4.037.089.825.532.690;-3.618.365.854.832.580;; Parque
Jardín de Larra; Zona verde de ubicación privilegiada, ya que se encuentra frente a la Catedral de la Almudena y el Palacio Real. En forma de talud, separa las distintas alturas a las que se encuentran las calles que lo delimitan, Bailén y Factor, atravesándolo un pequeño camino terrizo.                                                               ;;; Metro: Opera (líneas 2, 5 y ramal) Bus: 3, 148;FACTOR;CALLE;7;28013;CENTRO;4.041.631.909.566.780;-3.712.793.771.176.400;; Parque
Jardín de las Bellas Artes; Talud ajardinado junto al paseo de la Castellana. Dispone de una fuente ornamental con un monumento en memoria de Isabel La Católica. Se trata de taludes con pradera y arbolado de gran porte y gran valor tanto botánico como ornamental. Rodea al Museo de Ciencias Naturales y a la                                                              Universidad Politécnica de Industriales.   Otras denominaciones:  Jardín Museo Nacional de Ciencias Naturales                                                                     ;;; Metro: Gregorio Marañón (líneas 7 y 10)  Bús: 7, 12, 14, 27, 40, 45, 147 y 150 ;CASTELLANA;PASEO;78;28046;CHAMARTIN;404.390.037.057.741;-36.905.481.652.485.300;; Parque
Jardín del Bulevar de Peña Gorbea;                                                                        ;;; Metro: Puente Vallecas (línea 1)  Bus: 10, 24, 54, 57, 58, 310 y 410 ;PEÑA GORBEA;CALLE;17;28053;PUENTE DE VALLECAS;403.957.812.018.463;-36.670.346.724.676.100;; Parque
Jardín del Maestro Padilla; Jardín urbano, distribuido en  dos alturas, donde predomina el pino piñonero y el tilo, con una pequeña zona infantil, muy próximo al Río Manzanares.                                                                         ;;  Zonas infantiles  ;Bus: 25, 33, 39, 41, 68, 69, 138;SAN ALEJANDRO;CALLE;1;28005;ARGANZUELA;40.404.491.323.444.900;-37.213.308.239.798.600;; Parque
Jardín del Templo de Debod; Jardines diseñados para acompañar al templo donado por Egipto a España en 1968, y que fue instalado en el lugar ocupado por el antiguo Cuartel de la Montaña. Con dos grupos de cipreses ejemplares, a modo de grandes columnas de recibimiento, se divide en dos ámbitos a derecha e izquierda. El templo se sitúa con orientación  E-O , acompañado por dos sencillas láminas de agua sin caños ni surtidores, que forman una figura troncocónica de reminiscencias egipcias con dos anchos paseos laterales que desembocan en un balcón. Desde aquí se puede contemplar la famosa cornisa del Manzanares, con el Palacio Real, la Casa de Campo y los atardeceres más hermosos de Madrid. Los parterres del jardín, que se desarrollan a ambos lados, sólo realizan la función de marco vegetal de esta atractiva perspectiva, y se cierran en sí mismos con plazas, plátanos de alineación y grupos de palmitos y plantas mediterráneas sobre las praderas.                             ;;  Zonas Infantiles  ; Metro: Plaza de España (líneas 3 y 10), Ventura Rodríguez (línea 3)  Bus: 25, 33, 39, 46, 74, 75, 148 ;FERRAZ;CALLE;1;28008;MONCLOA-ARAVACA;4.042.425.096.551.590;-3.716.531.855.540.270;; Parque
Jardín Dionisio Ridruejo;  Otras denominaciones:  Parque de Martala.                       ;;  Zonas infantiles  Instalaciones deportivas  ;Bus: 30 y 32;MOLINA DE SEGURA;CALLE;4;28030;MORATALAZ;4.040.748.540.000.100;-3.638.052.155.862.270;; Parque
Jardín Doña Concha Piquer; Pequeño parque con dos zonas infantiles y varias zonas estanciales, una gran densidad de arbolado que da cobijo a los visitantes en los calurosos días de verano.                                                             ;;  Zonas infantiles  ; Metro: Pirámides (línea 5)  Bus: 18 , 23 , 34 , 35 , 36 , 116 , 118 , 119 ;IMPERIAL;PASEO;93;28005;ARGANZUELA;40.402.080.397.498.900;-3.714.965.086.287.460;; Parque
Jardín el Torero; Zona verde formada por zonas terrizas y praderas de césped comunicadas entre sí por caminos adoquinados. Cuenta con dos pistas deportivas y una zona infantil. En el parque se pueden encontrar diversas especies arbóreas pero se observa un notable predominio de coníferas.                         ;;  Zonas infantiles  Instalaciones deportivas   ;Bus: 23 , 55 , 60 ;TORERO;CALLE;6;28026;USERA;4.039.218.269.145.890;-37.056.345.651.289.400;; Parque
Jardín Fachada Pirámides I; Pequeño parque situado entre dos vías importantes de Madrid como son la calle Toledo y el paseo de las Acacias.                                                                ;;; Metro: Pirámides (Linea 5)  Bus: 18, 23 , 34, 35, 36, 116, 118, 119 ;ACACIAS;PASEO;60;28005;ARGANZUELA;4.040.148.810.908.030;-3.713.132.255.123.730;; Parque
Jardín Glorieta de Azorín;" Pequeño jardincillo situado en la denominada Cuesta de la Vega, bajo la Catedral de la Almudena. Le debe su nombre al escritor José Martínez Ruiz &quot;Azorín&quot;.                                                             ";;;Bus: 31 , 41 , 50 , 65;VEGA;CUESTA;3;28013;CENTRO;40.414.757.673.901.900;-37.161.718.357.850.400;; Parque
Jardín Jazmín. Parque de la Cornisa;" Parque formado en su totalidad por pradera natural; plantaciones arbóreas y herbáceas en su mayoría, situado en la cubierta de las Cocheras de metro. Debido a sus limitaciones en suelo se ha diseñado con un claro enfoque sostenible, con plantas adaptadas al escaso espesor del suelo y resistentes a la sequía con un diseño en bandas y riego automático por goteo en la totalidad del parque.    Otras denominaciones  Parque de Cocheras                        ";;  Zonas infantiles  Instalaciones deportivas  ;Bus: 29, 125, 129, 150;ROQUETAS DE MAR;CALLE;10;28033;HORTALEZA;40.481.785.094.079.500;-3.660.098.332.215.650;; Parque
Jardín Palacio O'Reilly; Pequeño jardín interior, dotado de varias especies arbóreas destinadas al uso culinario,  donde puedes esconderte de la bulliciosa ciudad. Utilizado antiguamente como huerto por las hermanas Bernardas(S. XVII).    Otras denominaciones  Huerto de las Monjas                                                                       ; Lunes a viernes: abierto de 6 a 23 horas Fines de Semana: cerrado;;Bus: 31, 50, 65;CRUZ VERDE;PLAZA;2;28005;CENTRO;4.041.418.990.040.180;-37.118.283.820.550.700;; Parque
Pabellón de los Jardines de Cecilio Rodríguez;Entrada por avenida de Menéndez Pelayo, 67 (puerta de Granada) o desde el interior los Jardines de El Buen Retiro.; Visitas a los Jardines:   Octubre a marzo: de lunes a domingo de 10 a 18 horas.  Abril a septiembre: de lunes a domingo de 10 a 20 horas.  El Pabellón no es visitable.;Zona wifi;Bus: 20, 26, 63, C ;URUGUAY;PASEO;;28009;RETIRO;4.041.250.110.617.820;-3.676.499.075.231.230;; Parque
Parque Agustín Rodríguez Sahagún; Parque de grandes dimensiones y dotado de todo tipo de servicios como zonas deportivas e infantiles, aparatos de entrenamiento de mayores.   Parte del parque actualmente en obras, zona junto al Paseo de la Dirección. Fin de obra 2015. Datos referidos                                                a su situación anterior.                                                         ;;  Zonas infantiles  Zonas de mayores  Instalaciones deportivas  Auditorios  Carril Bici   ;Bus: 49 , 126 , 128 ;DIRECCION;PASEO;301;28029;TETUAN;4.047.022.952.429.580;-37.038.792.453.996.300;; Parque
Parque Alcampo;"  Parque formado por paseos y zonas estanciales terrizas delimitadas por praderas, en las que se incluyen plantaciones diversas, entre las que destacan olivos, piñoneros y olmos. El parque está separado de la  C/   C&ordm;  Vinateros por una valla peatonal y un seto de                                                                    durillo.                                                                                           ";;  Zonas infantiles  ; Metro: Estrella (línea 9)  Bus: 20, 30, 32 ;CAMINO DE LOS VINATEROS;CALLE;1;28030;MORATALAZ;40.410.944.943.237.800;-3.660.501.733.743.550;; Parque
Parque Almansa;" Parque emblemático de la zona al ser uno de los más antiguos del distrito. Se compone de arbolado maduro y de parterres de césped abundantes; aunque se ha plantado arbolado nuevo.  Es de gran uso por la juventud de la zona universitaria cercana y por los vecinos. Destaca que su perímetro está compuesto por una valla metálica con varias puertas principales y la ubicación de una caseta de mantenimiento                                                                     ";;;;ALMANSA;CALLE;97;28040;MONCLOA-ARAVACA;40.449.252.672.650.900;-37.133.420.888.843.100;; Parque
Parque Aluche - Poblados; Parque muy céntrico del distrito que cuenta con mucha sombra, agradables zonas de descanso, praderas, fuentes, fútbol sala, zonas infantiles y petancas.                                                             ;;  Zonas infantiles  Instalaciones deportivas  Pistas de petanca  ; Metro: Aluche (linea 5)  Bus: 17, 117, 139  Renfe: Aluche ;GUAREÑA;CALLE;22;28044;LATINA;4.038.543.450.752.230;-3.765.190.215.590.100;; Parque
Parque Alzola; Este parque se encuentra localizado entre la Avenida Rafaela Ybarra y la calle Guetaria, cuenta con praderas de césped y macizos arbustivos y en su parte lateral tiene una amplia zona terriza con arbolado. Las distintas partes del parque se encuentran comunicadas mediante un camino principal de adoquín que lo atraviesa de un extremo a otro. Cuenta en su parte central con una zona infantil cercana a una plaza estancial rodeada de rosales.                       ;;  Zonas infantiles  Parking  ; Bus: 60 , 131  ;BEASAIN;CALLE;2;28041;USERA;4.036.716.919.688.680;-37.136.655.626.692.800;; Parque
Parque Antonio Pirala; Este parque, cuyo diseño corrió a cargo de la arquitecta Myriam Silber Brodsky, fue galardonado en el año 1995 con el premio Alhambra de la Asociación española de Parques y Jardines Públicos.  Está situado en las confluencias de la calle Alcalá con el Puente de Ventas y la M-30 y una plaza aledaña en  C/  Santiago Massarnaú.  Se divide en varias zonas claramente diferenciadas:   Una escalinata conformada por varios tramos con una fuente ornamental en uno de los lados, plantaciones en jardineras de ladrillo y árboles dispuestos en cuadrícula, cuyo entramado se encuentra rodeado de acequias y que desemboca en un área de juegos infantiles y mesas de ajedrez y una segunda fuente ornamental en forma de pirámide truncada escalonada, con parterres que disponen de numerosos bancos.   Un área canina que da paso a varias pistas polideportivas rodeadas de plantaciones de diversas especies.  Una pequeña zona forestal que finaliza en una pasarela.                        ;;  Zonas infantiles  Zonas caninas  Instalaciones deportivas   ; Metro: Carmen, Ventas (linea 5 y linea 2)  Bus: 38, 106, 110, 146, 210 ;ANTONIO PIRALA;CALLE;8;28017;CIUDAD LINEAL;40.428.652.595.625.700;-3.659.649.292.346.210;; Parque
Parque Anunciación; Pequeño parque urbano con estancia de juegos infantiles. Destacan en él sus praderas y sus cedros de gran porte.                                      ;;;Bus: 20, 26, 63.;ANUNCIACION;CALLE;1;28009;RETIRO;4.041.192.841.997.150;-367.583.331.713.166;; Parque
Parque Arquitecto Antonio Palacios; El diseño del parque se basa en círculos concéntricos alrededor de las dos zonas más elevadas del parque. En los taludes de una de ellas se encuentran varias especies de  Juniperus  y los de la otra están tapizados de pradera. En cada círculo aparece una tipología diferente, terrizo, árboles, árboles con arbusto asociado. En la parte sur cuenta con una zona infantil y en la parte norte aparece una zona estancial en un grupo de pinos, que están rodeados por una glorieta circular con bancos, en cuyo centro hay instalada una escultura de acero de tres piezas verticales.                                                                      ;;  Zonas infantiles  Esculturas  ; Metro: Torre Arias (línea 5)  Bus: 28, 48 ;FENELON;CALLE;17;28022;SAN BLAS-CANILLEJAS;4.043.847.239.256.320;-36.087.501.533.089.900;; Parque
Parque Arroyo de los Pinos; Parque de reciente construcción con diferentes especies arbustivas, zonas de recreo y zona infantil.          ;;  Zonas infantiles     ; Metro: Antonio Machado (linea 7) Bus: 132;JOAQUIN LORENZO;CALLE;21;28035;FUENCARRAL-EL PARDO;4.047.343.735.166.940;-37.241.915.440.169.000;; Parque
Parque Arroyo Fontarrón; Zona verde periférica en talud que conecta los bordes de los barrios de Moratalaz con el lateral de la autovía A-3. Se diferencian dos zonas: una forestal y otra con plantaciones de árboles y arbustos ornamentales. El límite con la  C/  Arroyo Fontarrón es un paseo arbolado terrizo con carril bici.                            ;;  Zonas infantiles  Zonas caninas   ;Bus: 8, 20, 30, 100;ARROYO FONTARRON;CALLE;22;28030;MORATALAZ;4.039.476.596.114.840;-36.361.646.051.817.500;; Parque
Parque Arroyo Fresno;Zona Verde que consta de una parte ajardinada con césped y arbolado joven y otra parte más forestal con una lámina de agua de gran tamaño. También limita el parque una franja del carril bici que circunda Madrid y es de gran uso vecinal.                                                              ;;  Zonas infantiles  Instalaciones deportivas  Zona de petancas  ;Bus: 49;VENTISQUERO DE LA CONDESA;AVENIDA;43;28035;FUENCARRAL-EL PARDO;4.049.284.296.962.050;-37.169.069.720.385.400;; Parque
Parque Avenida de Portugal; Es una zona con parterres de diseño y floridos cerezos, ya que esta carretera va hacia Extremadura, zona conocida por este tipo de planta. De reciente construcción, ha dado a la zona un nuevo enfoque, además de cambiar radicalmente todo su entrono, ya que está construido sobre el nuevo túnel de la A-5. El adoquín es en forma de mosaico negro y beigue recordando los suelos lisboetas.                            ;;;Bus: 25, 33, 31, 36, 39, 65, 138;A-5;AUTOVIA;300;28011;LATINA;4.041.214.880.704.310;-37.356.620.312.409.300;; Parque
Parque Azorín; Este parque es el más emblemático y antiguo del distrito Puente de Vallecas, ya que data de los años 50. Se caracteriza por situarse en pendiente, a tres alturas: desde la zona destinada a uso infantil, la más baja, pasando por una zona de transición de paseos hasta la más alta donde existe una lámina de agua y juego de mayores.                      ;;  Zonas infantiles   Zonas de mayores  Instalaciones deportivas  Fuente ornamental  ; Metro: Buenos Aires (línea 1)  Bus: 10, 54, 58, 103, 136 ;ALBUFERA;AVENIDA;142;28038;PUENTE DE VALLECAS;4.039.144.717.132.170;-36.545.377.410.677.400;; Parque
Parque Barrio Las Musas; Zona verde diseñada en dos alturas, separadas mediante una rampa. La zona más baja, con entrada por Avda de Niza, se compone de unos terrizos sobre los que se asientan dos áreas infantiles y dos alineaciones de árboles. El talud que separa las dos zonas está cubierto con diversas plantas aromáticas. La zona más elevada es un terrizo con arbolado disperso, cruzado por un camino de loseta hidráulica y que dispone de unos bancos corridos dispuestos de forma circular. Entre esta explanada y la  C/  Julia García Boután aparecen una serie de paseos pavimentados rodeados de zonas de pradera, que a su vez están delimitadas por setos de aligustre, contando así mismo con arbolado consolidado de diferentes especies.                                                                                                                    ;;  Zonas Infantiles  ; Metro: Las Musas (linea 7)  Bus: 38, 140  ;NIZA;AVENIDA;55;28022;SAN BLAS-CANILLEJAS;4.043.173.953.068.980;-3.607.628.369.908.830;; Parque
Parque Begoña; Parque muy visible desde la M-30 con un gran talud de pradera. Tiene zonas infantiles a la salida del metro, lugares estanciales muy cómodos y campos de fútbol sala y baloncesto.             ;;; Bus: 125 y 135  RENFE: Ramón y Cajal ;SAN MODESTO;CALLE;1;28034;FUENCARRAL-EL PARDO;4.048.390.626.699.560;-3.687.220.746.230.510;; Parque
Parque Biosaludable; El Parque Biosaludable es el fruto de la recuperación ambiental de una zona de vertidos incontrolados en una zona verde. Aunque de reciente creación, se ha convertido en un lugar imprescindible de encuentro y esparcimiento en el distrito de Barajas. El parque se encuentra mayoritariamente formado por un pinar de pino carrasco con ejemplares de olivo y   alcornoque intercalados. Un bosque de encinas, plantado durante una actividad escolar, ocupa la zona más occidental del parque. Aunque la mayoría de los árboles son todavía jóvenes, podemos encontrar ejemplares de pino piñonero   y varios de castaños de indias   de gran porte y belleza. Varias zonas estanciales permiten disfrutar más tranquilamente de este lugar. Un carril bici cruza el parque uniendo el barrio Alameda de Osuna, en la zona conocida como Vía de la Gasolina, con el anillo ciclista y el parque Juan Carlos  I .                       ;;  Zonas caninas  Instalaciones deportivas   ; Metro: El Capricho (línea 5)  Bus: 101, 114, 115 y 151 ;ALAMEDA DE OSUNA;PASEO;8;28042;BARAJAS;40.452.057.731.817.300;-36.036.483.614.197.700;; Parque
Parque Camino de Vasares; Zona verde formada por diversas zonas estanciales tanto terrizas como pavimentadas con plantaciones diversas.    Otras denominaciones  Parque Vasares                        ;;  Zonas Infantiles  ; Bus: 54, 58, 103, 142 y N9  Metro: Villa de Vallecas (línea 1) ;VASARES;CAMINO;4;28031;VILLA DE VALLECAS;4.038.328.847.671.290;-3.617.866.520.556.780;; Parque
Parque Campo de la Paloma;" Zona verde de estilo francés, formada por una parte central, estancial, donde existe un templete, y rodeada por diversos parterres ajardinados. Las zonas que limitan con la calle &quot;Campo de la Paloma&quot; están formadas por extensas praderas.                                                      ";;  Zonas infantiles   Zonas caninas   ;;RAFAEL ALBERTI;AVENIDA;38;28018;PUENTE DE VALLECAS;4.038.339.946.706.650;-3.643.762.543.356.840;; Parque
Parque Caramuel; Zona ajardinada consolidada y pegada a otra forestal que ocupa casi un tercio del parque. Tenemos un recorrido biosaludable, agradables zonas de descanso e infantiles,                                                                                                  etc ...                                                      ;;  Zonas infantiles  Zonas de mayores  Instalaciones deportivas  Zona de patinaje  ;Bus: 138;CARAMUEL;CALLE;53;28011;LATINA;404.081.704.733.386;-3.729.395.994.595.500;; Parque
Parque Carlos Arias Navarro; Es uno de los parques principales del distrito, situado en el centro del mismo y dispone de servicios como kiosco, zonas infantiles, deportivas, para mayores, carril bici,  etc . Encontramos una lámina de agua, diferentes plantas y cedros y chopos de gran porte. Entre sus instalaciones se encuentra un arroyo con cascadas en recuerdo del Río Luche, que transcurrió por allí.                                         ;;  Zonas infantiles  Zonas de mayores  Instalaciones deportivas  Auditorios  Carril bici  Carrusel  Kiosco  ; Metro: Aluche (linea 5)  Bus: 25, 121, 131 y 138  RENFE: Aluche ;TEMBLEQUE;CALLE;45;28024;LATINA;40.394.320.359.418.800;-37.592.814.565.910.500;; Parque
Parque Cerro Almodóvar; Parque con una elevada cantidad de arbolado con gran representación de olmos y pino piñonero. Existen zonas de mayores y varias zonas infantiles, plazas de recreo..                                                                         ;;  Zonas infantiles  Zonas de mayores  Zonas caninas  Instalaciones deportivas  Auditorios  Monumento y kiosco  ; Bus: 25, 31 y 138 ;MARCELINO CASTILLO;CALLE;29;28047;LATINA;40.393.928.614.376;-3.744.713.323.980.890;; Parque
Parque Cerro del Tío Pío; Parque dotado de alturas y pendientes, con extensas superficies de praderas y largas alineaciones de arbolado en los paseos. Dispone de equipamientos deportivos en su zona baja y de carril bici, kiosko y mirador en la zona alta.                                             ;;  Zonas infantiles  Zonas de mayores  Instalaciones deportivas  Kiosco Bar  ;Bus: 54, 141 y 143;BENJAMIN PALENCIA;CALLE;2;28038;PUENTE DE VALLECAS;4.039.701.982.315.700;-3.655.239.797.848.880;; Parque
Parque Cerro Peñabel;Cuenta con una plataforma semicircular a modo de mirador y dos glorietas de juegos infantiles. En el centro del parque hay una rotonda bordeada de agua y taludes boscosos                                                           ;;  Zonas infantiles  ;Bus: 42, 132 y 137;CANDIDO MATEOS;CALLE;12;28035;FUENCARRAL-EL PARDO;4.047.406.043.289.470;-3.718.181.785.566.960;; Parque
Parque Cerro Águila; Parque de carácter forestal, el cual destaca por su gran pinar homogéneo de pino piñonero y vegetación de bosque mediterráneo. Está atravesado en su mitad por el camino del cerro del Águila que va a desembocar al  I.E.S.E . de la Universidad de Navarra. En su parte este está limitado por un campo de golf. Existen numerosas mesas para uso y disfrute de los vecinos, así como zonas de merenderos y carteles informativos de la fauna y flora del lugar.                                                                                             ;;;;CERRO DEL AGUILA;CAMINO;1;28023;MONCLOA-ARAVACA;4.045.190.771.190.820;-3.761.757.187.185.660;; Parque
Parque Ciudad de los Ángeles; Parque situado en una zona con gran densidad poblacional. Tiene dos paseos centrales adoquinados con alineaciones de  castaños de indias, que confluyen en un templete. El Parque está compuesto por superficies de césped con diferentes macizos de arbustos, una zona infantil, un parque para mayores y varias pistas deportivas. Dada su ubicación y características, este parque presenta un elevado número de usuarios.                                                                                ;;  Zonas infantiles  Zonas de mayores  Instalaciones deportivas  Templete  ; Metro: Villaverde Bajo Cruce (linea 3)  Bus: 18, 126 y 86 ;ANOETA;CALLE;14;28041;VILLAVERDE;40.352.850.949.880.200;-36.963.807.727.286.300;; Parque
Parque Cuesta del Galbán;Parque Forestal con pendiente media que separa la zona de la Rosa de Luxemburgo en dos partes marcadas. En él se encuentran vegetación típica del bosque mediterráneo: encinas, pinos, esparragueras, y algunos árboles de carácter colonizador. Es una zona de paso para los vecinos residentes ya que se observan sendas marcadas por el uso continuo.                                                                       ;;;Bus: 160;GALBAN;CUESTA;2;28023;MONCLOA-ARAVACA;4.045.019.927.443.570;-3.768.070.614.824.990;; Parque
Parque Cuña Verde de Vicálvaro. Zona A; Parque periurbano situado en el extremo noroeste de Vicálvaro con amplias zonas caninas, pistas deportivas y de patinaje, zonas infantiles y un jardín para ciegos con numerosas especies arbustivas aromáticas etiquetadas en braille.                                     ;;  Zonas infantiles  Zonas de mayores  Zonas caninas  Instalaciones deportivas.  ; Metro: Vicálvaro (linea 9)  Bus: E3 ;DAROCA;AVENIDA;300;28032;VICALVARO;4.040.969.329.689.750;-3.618.025.439.807.100;; Parque
Parque Cuña Verde de Vicálvaro. Zona B; Parque periurbano de transición entre las edificaciones de Vicálvaro y las autopistas periféricas M-40 y Radial 3. Parque urbano con plantaciones de árboles y pradera natural, cuenta con zonas ajardinadas, zonas deportivas, un río artificial y un auditorio.                                   ;;  Zonas infantiles  Zonas de mayores  Zonas caninas  Instalaciones deportivas  Auditorios    ; Metro: San Cipriano (linea 9)  Bus: 4 , E3, 100 ;DAROCA;AVENIDA;299;28032;VICALVARO;4.040.930.295.868.700;-3.616.890.442.862.420;; Parque
Parque de Alfonso XIII; Parque limitado por las calles Alfonso  XIII , Santa María Magdalena y Federico Salmón con amplias praderas algunas de ellas bordeadas por seto de aligustre, amplios macizos de arbustos y diversas alineaciones arbóreas en terrizos.                                                          ;;  Zonas infantiles  Instalaciones deportivas  ;Bus: 52;ALFONSO XIII;AVENIDA;136;28016;CHAMARTIN;4.045.990.434.942.110;-3.669.142.805.075.650;; Parque
Parque de Amos Acero; Parque urbano de uso muy intensivo integrado en el barrio de San Diego, en Vallecas. Aunque no es de grandes dimensiones, tiene diversidad de usos tales como pistas de petanca, zona de gradas de obra, zonas infantiles, zona estancial,  etc .    Otras denominaciones:  Parque de Palomeras                                                                                      ;;  Zonas infantiles  ;Bus: 103, 111, 57, 144, 310;SIERRA MOLINA;CALLE;1;28053;PUENTE DE VALLECAS;4.038.903.628.994.230;-36.665.321.826.830.200;; Parque
Parque de Ana Tutor; El parque hace esquina con dos grandes ejes del distrito y dispone de una zona de patinaje y otra de fútbol sala. Mezcla arbolado nuevo con antiguos de más tamaño y zonas estanciales.                                                                                                                        ;;  Instalaciones deportivas  Zona de patinaje  ;Bus: 49, 64 ;VALLE DE PINARES LLANOS;CALLE;1;28035;FUENCARRAL-EL PARDO;4.048.559.668.319.750;-37.174.080.145.343.400;; Parque
Parque de Arriaga; Parque situado longitudinalmente y al lado de la calle de Arriaga, posee una gran red de paseos y zonas estanciales. Tiene varias pistas deportivas y espacios de juegos infantiles. Existe asimismo un gran estanque circular con fuente en uno de los laterales.                       ;;  Zonas infantiles  Instalaciones deportivas    ;Bus: 106 , 109;DAROCA;AVENIDA;95;28017;CIUDAD LINEAL;40.425.090.271.008.600;-36.427.216.652.412.800;; Parque
Parque de Atenas; Uno de los parques más amplios del distrito Centro, con un papel fundamental dentro de la ciudad debido a la gran diversidad de flora y fauna. Hay que destacar además dentro de su importancia que en él se celebran numerosos actos festivos. Cuenta con zonas recreativas y deportivas.                                                                    ;;  Zonas infantiles  Instalaciones deportivas - Aseos públicos  ;Bus: 3 , 31 , 41 , 50 , 65 , 148 , C1 , L3 ;SEGOVIA;CALLE;28;28005;CENTRO;40.413.971.277.014.000;-3.715.138.075.489.170;; Parque
Parque de Berlín; Parque urbano limitado por las calles Ramón y Cajal, Marcenado y San Ernesto. Como significativo del mismo presenta restos procedentes de la caída del muro de Berlín adornado con bonitas fuentes ornamentales y amplios espacios estanciales, zonas infantiles y macizos arbustivos y extensas masas arbóreas.                                                                       ;;  Zonas infantiles  Zonas de mayores  Zonas caninas  Instalaciones deportivas  Auditorios  Aseo público  Senda botánica   ; Metro: Concha Espina (línea 9)  Bus: 16, 29, 43, 52 y 120 ;RAMON Y CAJAL;AVENIDA;2;28016;CHAMARTIN;4.045.150.372.849.220;-36.760.645.355.093.700;; Parque
Parque de Breogán; Parque delimitado por la Avenida de Brasilia y M-30, el cual presenta amplios terrizos con bosquetes de pinos y alineaciones de ciruelos y zonas infantiles de arena para el esparcimiento de los usuarios. También presenta amplias praderas y limitando a la M-30 macizos de adelfas y rosales.                                                                                      ;;  Zonas infantiles  Instalaciones deportivas    ; Metro: Parque Avenidas (línea 7)  Bus: 21, 43, 48 , 53 y 74 ;BRASILIA;AVENIDA;2;28028;SALAMANCA;40.437.140.971.249.700;-36.608.995.093.418.300;; Parque
Parque de Canillejas;" Situado en el centro del Barrio de Canillejas, cuenta con dos áreas infantiles y una gran explanada donde se localiza un auditorio al aire libre. Los paseos perimetrales se encuentran resguardados por unas pérgolas que sustentan plantas trepadoras. En el lateral que da a la  C/  San Mariano aparece un monumento en homenaje al matador de toros José Cubero &quot;Yiyo&quot;, que fue vecino del barrio. La zona infantil de mayor tamaño está rodeada de praderas sobre las que se disponen varios macizos de flor. En los terrizos cercanos al auditorio se ha instalado un circuito biosaludable para uso vecinal.                                                                             ";;  Zonas infantiles  Zonas de mayores  Zonas caninas  Instalaciones deportivas  Auditorios  Monumentos  ; Bus: 28, 48  ;CIRCE;CALLE;57;28022;SAN BLAS-CANILLEJAS;4.044.191.186.628.210;-3.610.832.880.429.790;; Parque
Parque de Comillas; Este parque se encuentra en la calle Antonio Leyva, entre Plaza Elíptica y Glorieta Marqués de Vadillo. Su jardinería consta de grandes praderas con arbolado y macizos de arbustos y flor. Los paseos por los que podemos caminar son terrizos y pavimentados. Posee zonas estanciales terrizas. En este parque se encuentran varias pistas deportivas como de fútbol, baloncesto, patinaje y petanca. También contamos con zonas infantiles y de mayores. Junto a la calle Baleares, nos encontramos una zona estancial con una fuente ornamental.                                             ;;  Zonas infantiles  Zonas de mayores  Zonas caninas  Instalaciones deportivas  ;Bus: 55, 60 y 116;MIGUEL SORIANO;CALLE;1;28019;CARABANCHEL;4.039.191.419.121.820;-37.141.505.979.369.000;; Parque
Parque de Darwin; Zona verde formada por plazas terrizas con plantaciones diversas. En la parte más próxima a la calle Julia García Boutan existe una zona interbloque formada por parterres de césped rodeados por seto de aligustre.                       ;;  Zonas infantiles  Zonas de mayores  Zonas caninas  Instalaciones deportivas   ;Bus: 8, 20 y 113. ;MANUEL MARIA ARRILLAGA;CALLE;29;28030;MORATALAZ;4.040.687.979.108.530;-3.660.862.691.056.580;; Parque
Parque de Doña Guiomar; Parque dispuesto en taludes con pendientes bastante pronunciadas. Lo más emblemático es la fuente con cascada asociada que se sitúa en la zona más representativa del parque, encajando toda la distribución de la superficie alrededor de la misma. En la zona inferior de la cascada se distribuyen numerosos bancos, a modo de mirador, que invitan a sentarse y relajarse con el ruido del agua al caer. Este parque ha sido recientemente remodelado gracias a las obras del Plan E.                       ;Abierto 24 horas.;;Bus: 7 y 29;ESTACION DE HORTALEZA;CARRETERA;7;28033;HORTALEZA;4.047.600.256.074.510;-36.551.340.067.790.500;; Parque
Parque de Enrique Herreros; Parque situado en la confluencia de las calles Cea Bermúdez y Bravo Murillo. Gran superficie de pradera, zona infantil y de petanca y fuente ornamental.                                                                                                                            ;De 8 a 22 horas;  Zonas infantiles  Zonas de mayores  Zonas caninas  Instalaciones deportivas   ; Metro: Canal (líneas 2, 7) Bus: 3 , 12 , 37 , 149;BRAVO MURILLO;CALLE;49;28003;CHAMBERI;4.043.934.359.051.520;-37.043.941.647.283.200;; Parque
Parque de Francos Rodríguez; Parque antiguo y bastante usado, cuya mejor caracterización es una ría que divide la zona verde en dos partes. Dispone de zonas infantiles en el paseo de las Moreras. También dispone de praderas en buen estado para el uso y disfrute de los vecinos.                       ;;  Zonas infantiles  Aparcamientos de bicicletas  ; Bus: 132, 44  Metro: Francos Rodríguez (línea 7) ;DOCTOR FEDERICO RUBIO Y GALI;AVENIDA;63;28040;MONCLOA-ARAVACA;4.045.374.298.443.810;-3.714.179.732.136.820;; Parque
Parque de Fuencarral; Encuadrado dentro del Barrio de Valverde, al norte del casco antiguo del pueblo de Fuencarral. Nació sobre una zona existente de pinar y cuenta con caminos y paseos, zonas arboladas y taludes, plantaciones de pinos, arbustos y especies arbóreas de sombra, con zonas estanciales.   Dentro de los límites del parque se encuentran unos depósitos del Canal de Santillana.  Son destacables los pinos piñoneros centenarios.                                                            ;;  Zonas infantiles  Zonas de mayores  Instalaciones deportivas  Templete  ;Bus: 66, 137;NUESTRA SEÑORA DE VALVERDE;CALLE;151;28034;FUENCARRAL-EL PARDO;4.050.021.894.773.630;-36.861.244.200.250.700;; Parque
Parque de Fuentechica;Zona verde situada cerca del metro de Fuencarral y es muy transitada por los viandantes. Goza de arbolado variado de gran altura que proporciona sombra, una zona infantil.                                                        ;;;Bus: 66, 137 ;ANASTASIA LOPEZ;CALLE;21;28034;FUENCARRAL-EL PARDO;4.049.571.829.898.630;-36.915.305.267.345.900;; Parque
Parque de Fuentelarreina; Parque con pinos y chopos de buen tamaño sobre praderas naturales. Dispone de zona infantil y zona deportiva.                                                        ;;  Zonas infantiles  ;Bus: 67, 82;ROSALIA DE CASTRO;CALLE;80;28035;FUENCARRAL-EL PARDO;4.048.346.692.636.290;-37.337.736.098.964.600;; Parque
Parque de Gabriela Mistral;Zona verde bastante extensa que abarca desde una zona forestal de 7.5  ha  con pinos, chopos, árboles del paraíso, cipreses,  etc.  y una pista deportiva hasta otra más ajardinada bien equipada. El carril bici transcurre bajo la sombra sus árboles.                                                                                                                                                                    ;;  Pista deportiva  Carril bici   ;Bus: 67;ROSALIA DE CASTRO;CALLE;69;28035;FUENCARRAL-EL PARDO;40.484.467.522.541.800;-37.336.783.173.806.600;; Parque
Parque de Isabel Clara Eugenia; Parque de cuatro hectáreas de superficie con cerramiento perimetral recientemente restaurado para adecuarlo con el resto de la trama urbana y que cuenta con un diseño propio de un jardín particular romántico. La reforma  en el año 2007, recuperó el foro, dotó la zona de nuevo alumbrado público y nuevos accesos, y modificó el diseño del muro. Lo más representativo es, sin duda, el foro, que dispone de gradas y cávea realizada mediante un sistema de hormigón impreso.                       ; Verano: de 7 a 1:30 horas  Invierno: de 7 a 24 horas ;;Bus: 9, 72, 125, 229;MAR CASPIO;CALLE;4;28033;HORTALEZA;40.473.611.797.871.500;-3.646.133.317.289.780;; Parque
Parque de Juan XXIII; Parque de reciente construcción donde destacan sus cambios de pendientes y sus numerosos recovecos, ya que en la zona central existe un bloque de edificios que separan la zona este con la oeste del parque. Está compuesto de numerosos parterres arbustivos y de poco arbolado en su mayoría joven, aunque destaca una higuera de considerable tamaño. Consta de una red de caminos amplia por toda su superficie.                                                                       ;;  Zonas infantiles  ;Metro: Guzmán el Bueno (línea 6 y 7);JUAN XXIII;PASEO;21;28040;MONCLOA-ARAVACA;40.450.619.984.285.900;-37.136.749.543.495.600;; Parque
Parque de la Alcazaba;Parque muy cercano al Parque de la Ventilla. Hasta la calle Ribadavia, el parque baja en talud con césped que se salva mediante una rampa italiana con bordillo. Talud que también se continúa en los desniveles de terreno con la calle Sinesio Delgado. Presenta un gran número de pozos.                                                     ;;  Zonas infantiles  Instalaciones deportivas  Miradores  ;Bus: 42;RIBADAVIA;CALLE;45;28029;FUENCARRAL-EL PARDO;4.047.266.915.640.930;-3.707.125.226.601.670;; Parque
Parque de la Almudena; Parque de grandes dimensiones, con amplios paseos rodeados de setos de aligustre y arbolado. Dispone de multitud de zonas de descanso.    Otras denominaciones  Parque del crematorio de la Almudena                        ;;  Zonas infantiles  ;Bus: 70 , 106;NICOLAS SALMERON;CALLE;4;28017;CIUDAD LINEAL;4.042.060.649.869.600;-36.324.237.307.227.600;; Parque
Parque de la Amistad; Parque que cuenta con un entramado de paseos adoquinados que lo recorren entre praderas de césped y macizos arbustivos, destacando las plantaciones de rosales en forma de estrella de las praderas centrales. Tiene varias pistas deportivas que se sitúan al sur del parque así como zonas infantiles repartidas por su superficie.                                                                               ;;  Zonas infantiles  Instalaciones deportivas  ; Metro: Villaverde Bajo - Cruce (linea 3)  Bus: 18, 116 ;SANTA PETRONILA;CALLE;21;28021;VILLAVERDE;40.348.326.631.620.100;-36.921.658.727.994.700;; Parque
Parque de la Bombilla; Zona verde de gran extensión con un precioso paseo de arbolado maduro, extensas praderas y plantas de todo tipo. Dispone de plazas, zonas infantiles y acceso a una pista municipal de campos de tenis. Son famosas las fiestas de San Antonio que se celebran en junio en dicho parque con actuaciones diversas.                                  ;;  Zonas infantiles  Instalaciones deportivas  Parking de bicicletas  ; Bus : 41, 46 y 75 ;VALLADOLID;AVENIDA;4;28008;MONCLOA-ARAVACA;4.042.834.456.035.840;-3.728.941.931.668.390;; Parque
Parque de la Cuesta de la Vega; Pequeño jardincillo situado en la denominada Cuesta de la Vega, bajo la Catedral de la Almudena. Contiene un busto dedicado al músico italiano Luigi de Boccherini.   Otras denominaciones   Jardín de la Glorieta de Bocherini                                                  ;;;Bus: 31 , 41 , 50 , 65;VEGA;CUESTA;1;28013;CENTRO;4.041.476.219.795.400;-37.154.411.142.835.300;; Parque
Parque de la Dehesa Boyal; Parque que consta de dos zonas claramente diferenciadas: una constituida por praderas de césped y macizos arbustivos que atravesada por un entramado de paseos y caminos se sitúa alrededor de una fuente de grandes dimensiones. La otra zona la forma una masa de pinos carrascos y piñoneros y donde es fácil observar la población de ardillas que allí habita.                                                                                ;;  Zonas infantiles  Zonas de mayores  Circuito deportivo  ; Bus: 59 y 79 ;BURJASOT;CALLE;1;28021;VILLAVERDE;4.034.452.019.989.430;-3.686.887.364.713.820;; Parque
Parque de la Maceta; Parque urbano que conecta la parte edificada de Casalarreina con la cuña verde. Se articula sobre paseos que definen praderas arboladas. El porte de los chopos y plátanos dan al parque una gran sensación de volumen.   Otras denominaciones : Parque Casalarreina                                                           ;;  Zonas infantiles  Zonas caninas  Instalaciones deportivas  ; Metro: Vicálvaro (línea 9)   Bus: E3 , 4 , 100 , 106 , 130  ;DAROCA;AVENIDA;301;28032;VICALVARO;4.040.838.172.678.720;-36.156.327.652.234.800;; Parque
Parque de la Peseta; Este parque como su nombre indica se encuentra junto a la arteria principal del  PAU   (Plan de Actuación Urbanística) de Carabanchel, la Avenida de la Peseta y junto a la estación de metro del mismo nombre. La zona verde en cuestión es de muy reciente construcción, lo mismo que la estación de metro, ya que está construida sobre ella. El parque está formado mayoritariamente por zonas estanciales terrizas y pavimentadas y sobre todo por macizos arbustivos  situados en terrizo. Tan sólo encontramos una pradera longitudinal en un lateral del parque. Esta zona verde municipal está formada por dos niveles, el nivel más bajo que está junto a la Avenida de la Peseta en la que encontramos un gran auditorio y la boca de metro, y la zona más alta en la que encontramos una pequeña lámina de agua y un monolito, que es un antiguo anillo de la tuneladora que pasó bajo el parque. Todas las especies vegetales, tanto arbóreas como arbustivas son muy jóvenes y el parque aun no tiene suficiente sombra en verano.                       ;;  Zonas infantiles  Zonas de mayores  Auditorios  Petanca  ;Bus: 35 Metro: La Peseta (línea 11);SALVADOR ALLENDE;CALLE;3;28054;CARABANCHEL;40.364.341.448.699.800;-3.757.402.071.835.870;; Parque
Parque de la Supermanzana;Parque de entrebloques y en varias alturas con zonas de pinar, paseos, zonas infantiles y campo de fútbol. Tiene alguna pradera y preciosos sauces llorones.                                                                                                                                                                                        ;;  Zonas infantiles.  Instalaciones deportivas  ; Metro: Herrera Oria (línea 9)  Bus: 67, 83 ;SANGENJO;CALLE;27;28034;FUENCARRAL-EL PARDO;4.048.531.189.120.050;-37.006.858.825.216.600;; Parque
Parque de la Vaguada; El parque se estructura en diferentes sectores: paseos, estanques,  etc.  En su extremo oriental está ubicado el Centro Cívico, con un singular diseño a modo de arquería clásica en donde se incorporan los diversos servicios. Hay corrientes de aguas subterráneas y presencia de pozos.                                                                                                                                                                                                         ;;  Zonas infantiles  Zonas de mayores  Instalaciones deportivas  Templete   ;Bus:   67, 83, 124, 127 y 133;VAGUADA;PASEO;13;28029;FUENCARRAL-EL PARDO;4.048.016.602.497.200;-37.112.978.051.427.500;; Parque
Parque de la Ventilla; Zona de pinar delimitado por las calles Sinesio Delgado, Avenida de Asturias, Vía Límite y calle Magnolias. Podemos encontrar aparatos de entrenamiento deportivo, zonas infantiles, área canina así como zonas para hacer picnic, etc. Parque forestal, que ha sido recientemente objeto de obras de mejora.                                                                               ;;  Zonas infantiles  Zonas caninas  Instalaciones deportivas  Circuito biosaludable   ;Bus: 42 , 67 , 147 ;VIA LIMITE;CALLE;51;28029;TETUAN;4.047.342.193.811.740;-36.929.061.067.371.700;; Parque
Parque de la Vicalvarada; El parque gira sobre tres plazas circulares unidas por paseos arbolados formando un gran triángulo. Se definen grandes zonas estanciales y praderas arboladas.                                   ;;  Zonas infantiles  Zonas de mayores  Instalaciones deportivas    ;Bus: 4 , 100 , 106 ;VILLABLANCA;CALLE;1;28032;VICALVARO;4.040.930.182.229.150;-3.608.605.091.516.180;; Parque
Parque de las Avenidas; Parque limitado por la Avenida de Brasilia y M-30, presentando extensas praderas, amplios terrizos con bosquetes de pinos mayoritariamente y varias zonas infantiles.                                                                         ;;  Zonas infantiles  Zonas de mayores  Instalaciones deportivas  Circuito biosaludable   ; Metro: Parque de las Avenidas (línea 7)  Bus: 53, 122 ;BRASILIA;AVENIDA;6;28028;SALAMANCA;4.044.185.168.357.490;-36.610.753.472.863.700;; Parque
Parque de Las Cruces; Parque de gran extensión y arbolado consolidado situado entre Carabanchel y Latina. Presenta masas arbóreas generalmente de pino piñonero y de olmo. Lo más característico es su lago artificial con surtidor central en el que viven  numerosos animales, como patos, cangrejos,  etc . También dispone de numerosas zonas infantiles, quiosco, zonas deportivas variadas, carril bici, varias fuentes y una ría.    Otras denominaciones  Parque de las Tres Cruces                                                     ;;  Zonas infantiles  Instalaciones deportivas  Kiosco  Carril-bici  Pistas de petanca  ; Metro: Aluche (línea 5)  Bus: 17, 117, 121, 131, 139, 155  Renfe: Aluche ;POBLADOS;AVENIDA;74;28044;CARABANCHEL;4.037.746.689.917.420;-37.547.689.345.277.900;; Parque
Parque de las Delicias; Aprovechando la superficie de una antigua estación de ferrocarril, se ha creado un jardín con una distribución alargada, donde predominan unos inmensos cipreses, entre otras especies, que acompañan al visitante en el paseo por el parque. De la estación aun se conservan en el parque las antiguas vías de los trenes, ya que limítrofe con este se sitúa el Museo del Ferrocarril.                                                                       ;;  Zonas infantiles  ; Metro: Delicias (línea 3)  Bus: 8, 19, 45, 47, 59, 85, 86 y 247 ;PARROCO EUSEBIO CUENCA;CALLE;13;28045;ARGANZUELA;40.396.280.768.551.800;-36.893.809.207.693.900;; Parque
Parque de los Llanos;" El parque de Los Llanos, es el más grande de los que existen en el distrito de Hortaleza, con casi 10 hectáreas de superficie ajardinada. Consta de anchas avenidas longitudinales, enmarcadas por alineaciones de   pino piñonero   y arce de hoja de fresno; son ideales para correr o pasear. Dispone, asimismo, de 3 pistas polideportivas, distribuidas en diferentes puntos de su superficie. También se encuentra un área de descanso en el interior del parque, a la altura de la  C/  Francisco Morejón.                       ";Abierto las 24 horas.;  Zonas infantiles  Instalaciones deportivas  ; Metro: Canillas (línea 4).  Bus: 73 , 112 , 120 , 122 , 153. ;DIONISIO INCA YUPANQUI;CALLE;8;28043;HORTALEZA;40.461.621.132.349.000;-36.281.020.785.174.800;; Parque
Parque de los Tilos Fase I; Zona verde que recibe su nombre de la gran cantidad de árboles de la especie Tilia platyphyllos que vegetan en él. Tiene un diseño abierto en el que destacan las pérgolas de madera y los muretes de ladrillo para salvar los pequeños desniveles.                          ;;  Zonas infantiles  ;Bus: 70 y 106;NICOLAS SALMERON;CALLE;1;28017;CIUDAD LINEAL;40.422.169.759.145.500;-36.348.548.961.758.200;; Parque
Parque de Malmoe;" Zona verde de carácter fundamentalmente forestal con grandes terrizos y árboles; atravesada por un carril bici y una red de paseos.                          ";;  Zonas infantiles  ;Bus: 106;MALMOE;CALLE;2;28032;CIUDAD LINEAL;4.041.540.866.888.320;-3.625.727.333.816.080;; Parque
Parque de Manoteras;" El parque, situado a la altura del  n&ordm;  4 de la  C/  Velez Rubio, se ubica en un terreno en forma de cuenca, lo que ha servido para la instalación de unas gradas anexas a una pista polideportiva situada en la parte más baja. Fue inaugurado a primeros de 1979. Junto a éste, en la  C/  Purchena  n&ordm;  16, se encuentra otro pequeño parque cuyo atractivo principal es la presencia de un rocódromo para la práctica de la escalada. Este parque ha sido recientemente remodelado gracias a las obras del Plan E.                                                                      ";Abierto las 24 horas;; Metro: Manoteras (línea 4)  Bus: 7, 29 ;BACARES;CALLE;22;28033;HORTALEZA;40.476.654.320.025.500;-3.662.490.150.184.710;; Parque
Parque de Moratalaz;" Parque urbano inserto entre las viviendas del Polígono &quot;Z&quot; de Moratalaz. El Parque está reticulado por una red de viales de slurry de color, definiendo teselas de praderas y arbustos. Importante cubierta arbórea a base de Plátanos de sombra.                    ";;  Zonas infantiles  Zonas de mayores  Zonas caninas  Instalaciones deportivas    ;Bus: 32, 71;MORATALAZ;AVENIDA;183;28030;MORATALAZ;4.040.882.236.801.760;-3.643.898.652.734.270;; Parque
Parque de Pan Bendito; En el Parque se pueden distinguir claramente dos zonas, una de reciente remodelación con proyecto  FEIL  (Fondo Estatal de Inversión Local), y otra más antigua, que alberga la estación de metro de Abrantes. La nueva está formada por grandes masas arbustivas, pinos de gran envergadura y una pequeña zona de pradera y está dotada con áreas estanciales pavimentadas y terrizas y una zona infantil y otra de juego de mayores. El resto del parque es un gran terrizo, con alguna mesa de ajedrez, y unidades arbóreas aisladas.                        ;;  Zonas infantiles  Zonas de mayores  Zonas caninas  Petanca  ;Bus: 47 , 108 , 118 , 121 , 131 Metro: Pan Bendito (línea 11);POBLADOS;AVENIDA;35;28044;CARABANCHEL;4.038.951.896.001.850;-376.740.436.374.511;; Parque
Parque de Peñagrande; Zona verde con pinos maduros que dan buena sombra debajo de praderas.                                                    ;;  Zonas infantiles  ;Bus: 82;LEOPOLDO ALAS CLARIN;CALLE;53;28035;FUENCARRAL-EL PARDO;4.048.185.149.371.300;-3.732.800.354.586.840;; Parque
Parque de Pinar de Barajas; Zona  forestal de casi  21 hectáreas  que  se  extiende en  su parte  sur a lo largo de la A-2, en el tramo comprendido entre la  C/  Peonías y la  C/  Ignacio Sánchez Mejías, y en su parte norte a lo largo de la Avenida Carondelet. Las especies más representativas, con un 74 % de porcentaje sobre el total de unidades son el pino piñonero y el pino carrasco.               ;Abierto las 24 horas.;;Bus: 114 , 115;A-2;AUTOVIA;700;28027;HORTALEZA;4.044.943.999.585.460;-36.315.854.281.089.800;; Parque
Parque de Plata y Castañar;" Parque con dos zonas claramente diferenciadas  que generan espacios diferentes: una primera colindante con el P&ordm; Ferroviarios y que cuenta con praderas de césped y alineaciones vertebradas por paseos que confluyen  cerca del antiguo auditorio y que cuentan con zonas deportivas e infantiles  salpicadas por toda la zona y otro espacio, más agreste, que perimetra el parque y que, siguiendo los caminos nos permite pasear entre bosquetes de chopos, olmedas y pinares  mostrándonos en su recorrido la avifauna que puebla el parque.                                                                               ";;  Zonas infantiles  Instalaciones deportivas    ; Bus: 22, 76 ;MIRADOR DEL SUR;GLORIETA;1;28021;VILLAVERDE;40.348.762.550.258.800;-3.715.284.870.727.620;; Parque
Parque de Pradolongo;" El parque tiene una superficie de 59,7 hectáreas organizadas en tres grandes ejes con unas medianas ajardinadas que confluyen en una gran plaza situada junto a un lago de 29.586,18  m&sup2; .   En esta zona verde nos encontramos un gran número de zonas estanciales, paseos, fuentes ornamentales y diferentes áreas destinadas a los usuarios del parque como son: zonas infantiles, juegos para mayores, instalaciones deportivas, circuito de bicicletas. Tenemos que destacar la presencia de varios elementos importantes como son una senda ecológica, un jardín botánico, una ría artificial, una montaña artificial y la existencia de un templete de música.                        ";;  Zonas infantiles  Zonas de mayores  Instalaciones deportivas  Auditorios  Senda Ecológica  Jardín Botánico  Aseo público  Carril bici  Mirador Templete  ; Metro: Hospital 12 de Octubre (línea 3)  Bus: 6 , 60 , 78 , 81 , 121 , 131   Cercanías RENFE: 12 de Octubre  ;RAFAELA YBARRA;AVENIDA;85;28026;USERA;4.037.557.617.692.420;-3.711.963.730.232.900;; Parque
Parque de Rafael Finat;  Otras denominaciones :   Miniparque Rafael Finat.                                                                  ;;  Zonas infantiles  Pista de patinaje  ;Bus: 17, 117, 139;VIDAUBA;CALLE;4;28044;LATINA;40.383.406.554.321.300;-37.639.655.933.540.000;; Parque
Parque de San Isidro;" Es el segundo parque más importante en superficie después del Parque Emperatriz  M&ordf;  de Austria y es regado con agua regenerada. Se encuentra cercano a la histórica Ermita de San Isidro y en él se celebran las fiestas del Santo que le da nombre.  Se distinguen dos zonas:    El recinto ferial donde se montan parte de las fiestas de San Isidro en el mes de mayo, dedicado a actividades deportivas durante todo año  El resto del parque, con el Jardín de Palmeras, de reciente creación, y especies palmáceas y vivaces, una senda botánica y una fuente central. Esta última zona consta de grandes praderas con arbolado, macizos de arbustos y de flor y caminos terrizos por los que se puede pasear, al igual que un carril bici, dos fuentes ornamentales y una lámina de agua que se puede atravesar a través de un puente.                        ";;  Zonas infantiles  Zonas de mayores  Zonas caninas  Instalaciones deportivas  Recinto ferial  ; Metro: Marqués de Vadillo (línea 5)  Bus: 17 , 50 ;ERMITA DEL SANTO;PASEO;74;28019;CARABANCHEL;4.039.924.815.906.880;-37.284.983.869.120.600;; Parque
Parque de Santa Ana; Zona verde con numeroso arbolado joven, con caminos adoquinados por toda su superficie. En la calle de acceso se ubica una vez a la semana un mercadillo para el use de los vecinos, por lo que el parque es de frecuente uso. A un lateral del parque, pasa el Camino de Santiago.                                                                                                                                         ;;  Zonas infantiles  ;Bus: 66, 137;SAN CUGAT DEL VALLES;CALLE;4;28034;FUENCARRAL-EL PARDO;4.049.738.155.071.240;-36.936.009.892.949.100;; Parque
Parque de Villarosa; Parque situado en el corazón del distrito de Hortaleza. Se inauguró en el mes de julio del año 1983. Cuenta con numerosos atractivos a lo largo de toda su superficie, entre los que cabe destacar un reloj de sol horizontal, realizado en piedra artificial y con gnomon de acero, que da inicio a la ría que discurre por toda la superficie longitudinal del parque, y en cuyo recorrido se pueden observar diversos elementos y esculturas, como la casa derrumbada, el templete en homenaje a la tranquilidad o el palomar. Como elemento singular cabe destacar el área dedicada a la atracción de las mariposas, con especies vegetales cuidadosamente elegidas para tal fin. El anillo verde ciclista también atraviesa parte de su superficie. Este parque ha sido recientemente remodelado gracias a las obras del Plan E.                                         ;Abierto las 24 horas.;  Zonas infantiles  Zonas de mayores  Zonas caninas  Instalaciones deportivas  Esculturas  Mariposario  Monumentos  Ría  ;Bus: 73 y 104;ACONCAGUA;CALLE;2;28043;HORTALEZA;40.468.674.190.501.800;-3.631.588.640.594.870;; Parque
Parque del Bronce; Colindante con el Parque Enrique Tierno Galván, de estructura alargada, abarca una superficie importante dentro del barrio de los Metales.                                                                           ;;  Zonas infantiles  ;Bus: 62, 88 y 148;BRONCE;CALLE;5;28045;ARGANZUELA;40.390.471.636.161.100;-36.875.778.883.164.500;; Parque
Parque del Espinillo; Este parque invita a realizar largos paseos recorriendo los caminos de adoquín que lo cruzan de oeste a este entre alineaciones de castaños de indias y arces dejando a ambos lados praderas de césped donde se insertan diferentes formaciones arbustivas así como zonas estanciales, juegos infantiles y pistas deportivas que hacen de este parque uno de los más significativos del Distrito de Villaverde.                                              ;;  Zonas infantiles  Petanca  Circuito deportivo  ; Metro: Ciudad de los Ángeles (línea 3)  Bus: 23, 130 ;UNANIMIDAD;CALLE;23;28041;VILLAVERDE;40.361.196.526.923.800;-36.853.017.812.008;; Parque
Parque del Museo del Prado; Parque emblemático que rodea el Museo del Prado, dispone de pequeñas praderas y varios ejemplares de arbolado catalogado o de gran porte.                                 ;;; Metro: Atocha (línea 1).  Bus: 10 , 14 , 27 , 34 , 37 , 45 , 59 , 141.  RENFE: Atocha RENFE. ;PRADO;PASEO;11;28014;RETIRO;4.041.374.876.020.890;-36.924.939.830.736.900;; Parque
Parque del Norte; Zona verde de gran extensión, con zona de pinar y muy bien adaptado a la orografía de la zona. Su arbolado más bien maduro nos ofrece buenas sombras y áreas de descanso, infantiles,  etc . En su interior hay un centro cultural.                                                                                                                      ;;  Zonas infantiles  Zonas de mayores  Instalaciones deportivas  Mirador  ;Bus: 124, 137;ARZOBISPO MORCILLO;CALLE;7;28029;FUENCARRAL-EL PARDO;4.048.106.787.416.520;-36.933.504.628.706.000;; Parque
Parque del Pueblo del Pardo; Constituye una zona estancial convenientemente ajardinada y ordenada que deja la primera línea del trazado junto a la vía de circulación para las terrazas de los restaurantes allí situados.    Otras denominaciones:  Parque de la Mar Océana                                                         ;;  Zonas infantiles  Restaurante  ;Bus: 601;GUARDIA;AVENIDA;4;28048;FUENCARRAL-EL PARDO;405.186.002.228.516;-37.753.787.533.567.500;; Parque
Parque Duque de Ahumada; Parque urbano interbloques situado en el Casco Histórico de Vicálvaro. Vertebrado longitudinalmente con paseos de adoquín que definen praderas. Alineaciones de pinos y plátanos.    Otras denominaciones   Parque de Ambroz                                                                   ;;  Zonas infantiles  Zonas caninas    ; Metro: San Cipriano (línea 9)   Bus: 4 , 106  ;LAGO VAN;CALLE;16;28032;VICALVARO;404.048.457.851.104;-36.062.315.414.157.600;; Parque
Parque El Calero; Quizá se trate del parque más emblemático del Distrito de Ciudad Lineal, dada su ubicación, dimensiones, servicios y afluencia de ciudadanos. Es centro de reunión su auditorio al aire libre donde cada periodo estival se realizan actividades culturales.                       ;;  Zonas infantiles  Zonas de mayores  Zonas caninas  Instalaciones deportivas  Auditorios   ; Metro: Quintana y Carmen (línea 5)  Bus: 21, 48 y 146 ;JOSE DEL HIERRO;CALLE;1;28027;CIUDAD LINEAL;4.043.555.222.953.490;-36.519.351.470.803.500;; Parque
Parque El Cedral; El parque El Cedral se encuentra situado en las confluencias de  C/  Arturo Soria,  C/  Rodríguez Illanes y  C/  Asunción Pérez Vizcaíno. La entrada principal se encuentra enmarcada por un pórtico de ladrillo que continúa con un murete que rodea la parte localizada en la  C/  Arturo Soria estando el lado interior del parque decorado por una arquería del mismo material. Un camino terrizo discurre por el parque con plantaciones de diversas especies a su alrededor con especial atención a las aromáticas y rodeando la zona donde se encuentran los cedros, de gran porte y belleza, que dan nombre al parque. Un monolito en homenaje a Arturo Soria se localiza en la zona inferior. El parque que presenta una gran pendiente hacia la Calle 30 y se encuentra equipado con una pista deportiva en la zona más cercana a la misma.                        ;;  Instalaciones deportivas  ;Bus: 7, 9, 70, 72 y 87;ARTURO SORIA;CALLE;233;28033;CIUDAD LINEAL;40.462.882.951.414.200;-36.650.441.004.626.500;; Parque
Parque El Cruce; Jardín que discurre a lo largo de un paseo que cruza el mismo de norte a sur y alrededor del cual se generan diferentes superficies arbustivas y de rocalla bajo la protección de pinos y castaños de indias principalmente. El jardín se ensancha hacia el oeste manteniendo la estructura de terrizos y zonas arbustivas que albergan zonas estanciales e infantiles. Destacan las composiciones florales y de rocalla situadas en los flancos de la puerta norte del jardín.                                                                  ;;  Zonas infantiles  Zonas de mayores  Zonas caninas  Instalaciones deportivas  ; Metro: Villaverde Bajo - Cruce (línea 3)  Autobús: 18, 22, 86, 116 y 130 ;ALCOCER;CALLE;1;28021;VILLAVERDE;40.350.970.403.692.300;-36.944.891.243.298.500;; Parque
Parque Emir Mohamed I; Creado como recuerdo de la diversidad de culturas que han vivido en la ciudad de Madrid, en el se encuentran los resto de la antigua muralla del Emir Mohamed  I , con un diseño al estilo Al-Ándalus.                                   ;;;Bus: 3, 31 , 41 , 50 , 65;RAMON;CUESTA;1;28013;CENTRO;4.041.438.785.232.730;-37.147.888.896.558.100;; Parque
Parque Emperatriz María de Austria; Es el más grande en extensión del Distrito de Carabanchel y está regado con agua regenerada de sus propios depósitos.  Consta de tres zonas diferenciadas:    Zona del Intercambiador de Plaza Elíptica con praderas elevadas, jardineras y macizos de arbustos. Algunas especies tienen carteles indicativos mostrando sus características principales.  Zona Central, la más antigua, entre el Intercambiador y el Parque Familiar, con grandes praderas, tanto naturales como de céspec, arbolado de distintas especies y macizos de arbustos y un entramado de caminos y zonas estanciales terrizas con juegos infantiles, juegos para la tercera edad, pistas de chito y calva y un circuito biosaludable.  Zona Parque Familiar, de creación posterior, entre la zona central y la Avenida de los Poblados, con jardinería formada por grandes praderas naturales y de césped, arbolado y macizos de arbustos y flor. Posee diversas zonas deportivas para la práctica de petanca, fútbol, fútbol sala, etc. Tiene dos niveles, el superior con las zonas deportivas y en el inferior con un gran lago y una ría que desemboca en el mismo.    Otras denominaciones  Parque Sur                       ;;  Zonas infantiles  Zonas de mayores  Zonas caninas  Instalaciones deportivas  Auditorios  Circuito deportivo  Carril bici  Zona bicicrós  Zona cometas  ;Bus: 47 , 81 , 108 , 116 , 121 , 131 , 155 Metro: Plaza Elíptica (línea 6 y 11) , Abrantes (línea 11);VIA LUSITANA;CALLE;3;28025;CARABANCHEL;40.382.311.100.280.700;-37.227.552.919.050.500;; Parque
Parque Enrique Tierno Galván; Parque de grandes dimensiones, que posee tres estanques con tres pequeñas pasarelas que les cruzan. Zona verde donde puedes olvidarte de la ciudad, mientras paseas por los anchos paseos en los que destacan las diferentes especies arbóreas, con una gran diversidad tanto de flora como de fauna. Cuenta a su vez con un circuito deportivo y dos zonas infantiles. En el que además se incluye el Planetario y el IMAX                                                          ;;  Zonas infantiles  Instalaciones deportivas  Auditorios  Carril bici  Circuito Biosaludable   En el mismo se encuentran el Planetario y el Cine IMAX ;Bus: 148;MENESES;CALLE;4;28045;ARGANZUELA;4.039.210.151.448.580;-3.681.620.654.746.180;; Parque
Parque Entrevías Forestal; Zona verde situada al sur de Vallecas, compuesto por arbolado consolidado, en su mayoría coníferas. Es una de los tramos por donde discurre el anillo verde de Madrid.                                                                                                                             ;;  Carril bici  Mirador  ;Bus: 88;EMBAJADORES;CALLE;251;28053;PUENTE DE VALLECAS;4.036.782.603.611.020;-36.670.181.171.393.000;; Parque
Parque Entrevías Urbano; Zona verde destacada por su amplio paseo de plátanos de sombra. Este parque tiene la particularidad de que se riega con agua regenerada. Existe un ramal del carril bici que atraviesa el parque. Utilizado por ciudadanos de distintas edades.                                               ;;  Zonas infantiles  Zonas caninas  Instalaciones deportivas  Auditorios  Bar  Mirador  ; Bus: 102, 111  Renfe: Asamblea de Madrid, Entrevías ;SUR;RONDA;8;28053;PUENTE DE VALLECAS;4.037.253.969.509.110;-36.698.091.602.059.600;; Parque
Parque Este de Valdebernardo; Parque periurbano de vocación forestal. Situado en el extremo oriental del barrio de Valdebernardo, enlaza éste con la Avenida de la Democracia. El parque cuenta con plantaciones de árboles y arbustos aromáticos dispuestos en parcelas definidas por caminos terrizos. Numerosas instalaciones deportivas.   Otras denominaciones:  Parque del lago                       ;;Ruta para bicicletas con circuito de habilidad para mountain-bike; Metro: Valdebernardo (línea 9)  Bus: 71  ;DEMOCRACIA;AVENIDA;25;28031;VICALVARO;40.393.429.973.468.200;-36.183.833.916.362.700;; Parque
Parque Eugenia de Montijo; Este parque, regado con agua regenerada, cuenta con dos partes separadas por la calle Monseñor Oscar Romero. Una zona se encuentra limítrofe con Nuestra Señora de la Luz, y muy cercano al Parque Eugenia de Montijo. La otra se encuentra junto a la Avenida de los Poblados y la ya inexistente Cárcel de Carabanchel.  La primera zona verde ha sufrido una reciente remodelación debido al intento de construcción de una carretera que iba a atravesar el parque y que no se llegó a realizar. Posee dos niveles, el superior con zonas terrizas y praderas y el inferior de zona terriza con masas arbustivas y una zona de juegos infantiles y elementos deportivos. Ambos niveles se unen por grandes praderas.  La segunda es de forma alargada con praderas con arbolado y grandes zonas estanciales terrizas. La jardinería también está formada por árboles en terrizo y macizos de arbustos y de flor. Sus paseos son pavimentados y terrizos. Posee varias pistas deportivas, juegos infantiles y de mayores y una zona baja con un pequeño lago rodeado de majestuosos cipreses.                         ;;  Zonas infantiles  Zonas de mayores  Instalaciones deportivas  Circuito Deportivo  ; Metro: Eugenia de Montijo (línea 5)  Bus: 17 , 35 , 121 , 131 , 139 ;PARQUE EUGENIA DE MONTIJO;CALLE;3;28047;CARABANCHEL;4.037.942.623.334.730;-37.527.174.453.988.700;; Parque
Parque Eva Duarte; Parque junto a la Plaza de Manuel Becerra. Presenta amplios espacios terrizos con alineaciones de plátano de sombra mayoritariamente, extensas praderas, con arbustos individuales en su interior de gran vistosidad. Posee fuentes ornamentales de gran singularidad y un busto en honor de Eva Duarte de Perón en conmemoración a su figura.                                                                               ;Abierto de 7:30 a 00 horas;  Zonas infantiles  Zonas de mayores  Zonas caninas  Instalaciones deportivas  ; Metro: Manuel Becerra (línea 2 y 6)  Bus: 12, 43, 56, 143, 156  ;DOCTOR GOMEZ ULLA;CALLE;9;28028;SALAMANCA;4.042.985.671.996.890;-3.668.031.432.543.620;; Parque
Parque Félix Rodríguez de la Fuente; Parque delimitado por la M-30, Avenida Ramón y Cajal y Padre Claret, que posee bosquetes diversos de pinos y chopos mayoritariamente y amplias zonas terrizas con aparatos deportivos y zonas infantiles para el deleite de los usuarios. Posee grupo escultórico a Félix Rodríguez de la Fuente.                                                                       ;;  Zonas infantiles  Instalaciones deportivas  Circuito Biosaludable   ; Metro: Avenida la Paz (línea 4)  Bus: 9 , 72 , 73 , 120 ;PADRE CLARET;CALLE;38;28002;CHAMARTIN;4.045.205.238.274.070;-36.653.500.732.558.700;; Parque
Parque General Fanjul - Santa Margarita; Parque con paseo y parterres de praderas siempre verdes con precioso arbolado en perfecto estado, sombras, zonas de descanso, infantiles, pista de fútbol sala.                                                              ;;  Zonas infantiles  Zonas de mayores  Instalaciones deportivas  Monumento  ; Bus: 17, 34, 39, 117, 139  Renfe: Las Águilas ;GENERAL FANJUL;AVENIDA;144;28044;LATINA;4.038.033.890.061.460;-37.834.984.766.161.800;; Parque
Parque Hortaleza; Parque construido en diferentes niveles, con una pista polideportiva en la zona inferior del parque. El carril bici atraviesa este parque, localizándose un área de descanso en el interior del parque, al final de la carretera de acceso a la Estación de Hortaleza. En este parque se realizó una importante obra de remodelación de los caminos interiores y de la red de drenaje en el año 2007. Los domingos existe un mercadillo de barrio en el aparcamiento en superficie situado anexo al mismo.    Otras denominaciones  Parque Hortaleza. Santa Adela                       ;Abierto las 24 horas.;  Zonas infantiles  Zonas caninas  Instalaciones deportivas   ;Bus: 7 , 9 , 29 , 72 , 87 , 107 , 129 , 172 , 172SF;ESTACION DE HORTALEZA;CARRETERA;18;28033;HORTALEZA;4.048.024.318.499.320;-3.650.809.942.180.930;; Parque
Parque Huerta del Obispo (Tetuán); Parque dotado de grandes superficies de praderas y servicios tales como zonas deportivas e infantiles, zonas estanciales y fuente ornamental.   Parte del parque en obras, zona junto al Paseo de la Dirección. Fin de obra 2015.                                                                                                ;;  Zonas infantiles  Zonas de mayores  Instalaciones deportivas  Circuito biosaludable  Aseo público   ;Bus: 22 , 76 , 79 ;DIRECCION;PASEO;200;28039;TETUAN;4.046.618.230.558.720;-3.708.661.389.822.730;; Parque
Parque Huerta del Obispo (Villaverde); Jardín ubicado entre los taludes cubiertos de césped que se sitúan al sur y el Instituto Celestino Mutis que lo limita al norte. El resultado es un paseo que va de este a oeste a lo largo del cual se reparten zonas estanciales, pistas deportivas y zonas infantiles bajo un frondoso dosel arbóreo. Las praderas de césped rompen su continuidad por la presencia de macizos arbustivos de diferentes especies que generan interesantes contrastes estacionales.                                                          ;;  Zonas infantiles  Instalaciones deportivas    ; Bus: 22 , 76 , 79 ;PALOMARES;CALLE;34;28021;VILLAVERDE;40.346.980.092.315.500;-3.712.145.719.392.740;; Parque
Parque La Rinconada; Parque destacable por su gran extensión y por su ubicación en zona de urbanizaciones. Su construcción es reciente y se han añadido plantaciones de arbolado nuevo manteniendo el que había en el lugar previamente. Consta de una red de caminos amplia y es un una zona que invita al paseo y recreo del vecindario por ser muy tranquila y de gozar de unas privilegiadas vistas de la ciudad de Madrid.                                         ;;  Zonas infantiles  ;Bus: 160;HIENDELAENCINA;CALLE;9;28023;MONCLOA-ARAVACA;4.045.750.725.687.830;-37.664.554.910.416.200;; Parque
Parque La Viña; Zona verde con diversos desniveles y diferentes zonas estanciales con diversos usos para todo tipo de ciudadanos. Posee praderas con riego automático en las zonas próximas a la Calle Concejo de Teverga.                                                                          ;;  Zonas infantiles  Instalaciones deportivas  ; Bus: 102  Renfe: Asamblea de Madrid- Entrevías ;TIMOTEO PEREZ RUBIO;CALLE;9;28053;PUENTE DE VALLECAS;4.038.556.774.381.460;-367.430.914.572.838;; Parque
Parque Ladera de los Almendros; Parque periurbano de transición entre las viviendas de Valdebernardo y la autopista M-40. El Parque se articula sobre un paseo arbolado paralelo a la M-40 y una amplia zona estancial junto al Centro de Mayores adyacente.                                    ;;  Zonas infantiles  Zonas caninas   ;Bus: 8 , 71 ;M - 40;AUTOVÍA;;28032;VICALVARO;;;; Parque
Parque Lineal de Palomeras; Parque formado por grandes praderas y 10 plazas estanciales. Existen dos láminas de agua. Forma parte del itinerario por donde pasa el anillo verde de Madrid. Posee un gran paseo de plátanos de sombra en zona terriza. Es muy característico por sus lomas observadas desde la M-40.                        ;;; Bus: 54, 58, 103, 142, 143, 310  Metro: Miguel Hernández ;ALBUFERA;AVENIDA;293;28038;PUENTE DE VALLECAS;4.038.581.882.868.550;-36.363.631.773.029.300;; Parque
Parque Martin Luther King; Parque urbano paralelo a la M-30, idóneo para el paseo, con un campo de fútbol de césped artificial y una pista de baloncesto. Dispone de dos estancias con juegos infantiles y una pasarela hacia Puente de Vallecas. Parte de la zona verde asemeja la ribera de un río con arbolado típico de ribera.                                                 Durante el año 2009 se remodeló.                                                                    ;;  Zonas infantiles  Instalaciones deportivas  Auditorios   ; Metro: Conde de Casal (línea 6).  Bus: 8 , 10 , 24 , 54 , 56 , 57 , 113 , 136, 141 , 148 , 310. ;CERRO NEGRO;CALLE;1;28007;RETIRO;40.398.195.733.324.100;-36.701.340.560.704.000;; Parque
Parque Meseta de Orcasitas;" El parque tiene una superficie de 48414  m&sup2;  en el que nos encontramos un paseo perimetral que lo recorre a lo largo de toda su longitud localizándose a ambos lados de este paseo una serie de parterres ajardinados y todas las áreas de esparcimiento de los usuarios del parque como son las pistas deportivas, zonas infantiles y un área canina.                       ";;  Zonas infantiles  Zonas caninas  Instalaciones deportivas   ;Bus: 60;COOPERATIVAS;RONDA;6;28041;USERA;403.673.502.443.602;-37.076.605.178.679.000;; Parque
Parque Mirador de las Cárcavas; Parque situado a lo largo de la M-11, en el tramo comprendido entre la  C/  Gregorio Sánchez Herráez y la  C/  Antonio López Torres. Como su propio nombre indica dispone de un mirador en la parte más alta del parque. Además, cuenta con instalaciones deportivas y juegos infantiles. Este parque presenta agrupaciones de dos especies arbóreas poco extendidas, como son la Pawlonia tomentosa y la Zelkova serrata.                                                                         ;Abierto las 24 horas.;  Zonas infantiles  Instalaciones deportivas  Mirador  ;Bus: 87;RAFAELA APARICIO;CALLE;2;28055;HORTALEZA;4.047.917.989.766.590;-36.330.084.507.532.600;; Parque
Parque Mirador de Tierno Galván; Completa junto con el Parque Enrique Tierno Galván una gran superficie verde, dentro de un barrio en proceso de crecimiento. Cuenta con una diversidad de especies arbustivas. De forma triangular, posee una pasarela, que le recorre en altura.                                                                          ;;;Bus: 148;NEBULOSAS;CALLE;7;28045;ARGANZUELA;40.394.735.491.209.400;-36.856.299.107.811.300;; Parque
Parque Nudo Norte de Begoña;Parque muy visible desde la M-30 con un gran talud de pradera. Tiene zonas infantiles a la salida del metro, lugares estanciales muy cómodos y campos de fútbol sala y baloncesto.                                                                                        ;;  Zonas infantiles  Instalaciones deportivas    ; Metro: Begoña (línea 10)  Bus: 124, 137 ;LLANO CASTELLANO;AVENIDA;1;28034;FUENCARRAL-EL PARDO;40.483.895.554.775.700;-36.844.715.393.162.700;; Parque
Parque Olof Palme;" Este parque de 48867  m 2  , cuenta con dos zonas claramente diferenciadas separadas por la calle Cerecinos. La zona principal situada entre esta calle y la avenida Rafaela Ybarra está formada por praderas de césped, zonas terrizas, zonas infantiles y una zona canina. Esta zona se encuentra articulada mediante caminos de adoquín y de zahorra. En la zona norte de dicha parte hay un auditorio que enlaza mediante varios tramos de escaleras con una fuente ornamental situada en el centro del parque. La otra zona, situada entre la calle Cerecinos y la calle San Magín, cuenta con zonas terrizas con grandes masas arbustivas que tapizan gran parte de las mismas y en su parte central tiene una pequeña zona estancial. Cerca de los edificios que lindan con la calle Cerecinos cuenta con una zona infantil y una zona de elementos de  3&ordf;  edad.                       ";;  Zonas infantiles  Zonas de mayores  Zonas caninas    ; Metro: Plaza Elíptica (línea 6 y 11)  Bús: 47 , 60 , 81 , 247 ;CERECINOS;CALLE;1;28026;USERA;4.038.439.900.273.860;-37.129.519.968.429.400;; Parque
Parque Paseo Muñoz Grandes; Se trata de una zona ajardinada de superficie reducida pero muy céntrica. Se encuentra junto al Paseo que da su nombre y a la histórica Plaza de Toros de Vistalegre. Su jardinería consta de praderas con macizos arbustivos y agrupaciones arbóreas. En esta placita podemos encontrar también varias zonas estanciales principalmente pavimentadas que se sitúan en torno a dos fuentes ornamentales de diferente tamaño e importancia. Junto a todo esto se sitúa una zona de juegos infantiles y una zona canina.                        ;;  Zonas infantiles  Zonas caninas    ;Bus: 34 , 35;MUÑOZ GRANDES;PASEO;6;28025;CARABANCHEL;40.385.086.008.433.300;-37.398.326.701.482.000;; Parque
Parque Payaso Fofó; Parque estructurado en varias alturas, con taludes y extensas praderas naturales y artificiales. Largas alineaciones arboladas en los paseos. Dotado de maravillosas vistas de Madrid.                                                                          ;;  Zonas infantiles  Zonas caninas  Instalaciones deportivas  ; Bus: 310, 410, 144, 57, 136  RENFE: Asamblea de Madrid - Entrevías. ;PAYASO FOFO;CALLE;11;28018;PUENTE DE VALLECAS;4.038.901.086.962.940;-36.599.692.832.803.800;; Parque
Parque Peñuelas; Uno de los parques urbanos más utilizado dentro del distrito de Arganzuela con varias zonas infantiles, cuenta además con dos grandes zonas caninas, ubicado sobre un parking, muestra de la integración de las diversas zonas verdes con una ciudad cosmopolita como Madrid.                                                                              ;;  Zonas infantiles  Zonas caninas  ; Metro: Pirámides (línea 5)  Bus:18, 62 ;GARGANTILLA;CALLE;2;28005;ARGANZUELA;4.039.900.396.358.790;-3.703.926.416.750.330;; Parque
Parque Pinar de la Elipa; Gran superficie arbolada atravesada por carril bici y una red de paseos que la convierten en una zona muy utilizada para el paseo. Dispone de unas excepcionales vistas del nudo de O`Donnell y del emblemático                                                                                        Pirulí.                                           ;;  Zonas infantiles  Instalaciones deportivas   ;Bus: 28 , 71 , 110 , 113 , 210;FELIX RODRIGUEZ DE LA FUENTE;CALLE;26;28017;CIUDAD LINEAL;40.418.806.485.625.400;-36.563.469.592.354.300;; Parque
Parque Pinar del Rey;" Parque construido en 3 niveles; en el primero, el más cercano a la glorieta Pilar Miró se sitúa un pequeño bar con terraza rodeado de árboles como el ciruelo japonés variedad pisardii y la magnolia grandiflora; a continuación, se encuentra el auditorio al aire libre del parque; el segundo nivel corresponde a una zona terriza rodeada por una alineación de castaños de indias en la que se sitúan las casetas de feria durante las fiestas de la primavera del distrito de Hortaleza; por último, el tercer nivel corresponde a la zona en la que se ubican 2 áreas infantiles y numerosas mesas debajo de agrupaciones de pino piñonero, asociada a esta zona se encuentra la Zona forestal de Pinar del Rey.                       ";Abierto las 24 horas.;  Zonas infantiles  Auditorios  Cafetería con terraza  ;Bus: 9 , 72 , 87 , 125 , 229;CANILLAS;CARRETERA;1;28043;HORTALEZA;40.463.441.129.364.200;-36.556.488.853.143.400;; Parque
Parque Plaza Chozas de Canales; Jardín situado en una zona de intenso tránsito peatonal. Se extiende alrededor de una fuente central rodeada de rosales y praderas de césped donde se sitúan diferentes macizos de arbustos creando intensos contrastes. La zona estancial alberga unos juegos infantiles que junto al resto de elementos y ornamentos invitan a realizar un alto en el camino.                                                                 ;;  Zonas infantiles  ; Metro: Villaverde Bajo Cruce (línea 3)  Bus: 22, 59, 79, 85, 123, 130 ;VILLAVERDE A VALLECAS;CARRETERA;10;28021;VILLAVERDE;4.035.277.786.522.200;-36.905.392.176.697.700;; Parque
Parque Plaza Colonia Oroquieta; Este parque se caracteriza por una distribución de espacios enfocada claramente al uso del mismo por parte de los usuarios contando con una serie de zonas estanciales, pistas deportivas y zonas infantiles que ocupan la mayor parte de su superficie, perimetrado todo ello por  combinaciones de setos, macizos arbustivos y praderas de césped que generan intensos contrastes en función de la época del año.                                                                               ;;  Zonas infantiles  Instalaciones deportivas  ; Metro: Villaverde Cruce (línea 3)  Bus: 22, 59, 79, 85, 123, 130 ;VILLAVERDE A VALLECAS;CARRETERA;1;28041;VILLAVERDE;4.035.239.211.569.250;-3.691.771.736.219.460;; Parque
Parque Plaza de España; Parque de la zona centro de Madrid con monumento y lámina de agua. Es un lugar muy visitado por turistas y con una localización geográfica muy importante, ya que se encuentra en una de las arterias principales de la ciudad. Alberga muchos meses al año todo tipo de eventos, como mercadillos,  etc .    Otras denominaciones  Jardines de Plaza España                        ;;; Metro: Plaza España (línea 2 y 3) Bus: 1, 2, 44, 74, C ;ESPAÑA;PLAZA;20;28008;MONCLOA-ARAVACA;4.042.372.251.184.830;-37.116.577.340.508.500;; Parque
Parque Roma; Parque de grandes dimensiones situado a la orilla de la M-30, idóneo para pasear por sus paseos delimitados por arbolado de grandes dimensiones. Dispone de 4 recintos de juegos infantiles, un circuito para mayores, un lago y un rocódromo. En él se sitúa un jardín para ciegos y el escudo de Madrid realizado con flor de temporada.                            ;;  Zonas infantiles  Zonas de mayores  Zonas caninas  Instalaciones deportivas  ; Metro: Saínz de Baranda (línea 6 y 9)  Bus: 30 , 56 , 143 ;JUAN ESPLANDIU;CALLE;4;28007;RETIRO;4.041.641.041.087.390;-3.662.606.100.328.210;; Parque
Parque Salvador de Madariaga; Parque situado entre la Mezquita de Madrid y el tanatorio de la Calle 30, posee áreas de césped y arbolado. Como elemento distintivo de otros parques de Madrid, posee una pista de frontenis. Recientemente una pasarela peatonal que salva la  Avda . de la Paz une el parque con su vecino parque de Breogán.      Otras denominaciones  Parque de la mezquita. Parque del tanatorio                                                                   ;;  Zonas infantiles  Instalaciones deportivas   ;Bus: 21 , 48 , 53;SALVADOR DE MADARIAGA;CALLE;9;28027;CIUDAD LINEAL;40.439.387.584.092.600;-36.571.484.128.652.300;; Parque
Parque San Blas. El Paraíso; Se trata del mayor parque del Distrito de San Blas, en cuanto a superficie, arbolado e instalaciones. Se puede recorrer en su totalidad de una forma rápida y sencilla, ya que ademas de los viales de áridos que lo atraviesan, dispone de un circuito deportivo, y de un carril-bici a lo largo de toda su longitud. En su parte central se encuentra un moderno auditorio de reciente inauguración, sobre el que giran las Fiestas del Distrito. Dispone de amplias praderas y arbolado de gran porte que proporciona sombra a grandes zonas, por lo que es un parque muy concurrido. También cuenta con doce áreas infantiles, dos pistas de petanca, una de patinaje, y un circuito biosaludable para personas mayores. El equipamiento del parque se completa con dos fuentes ornamentales, un reloj de sol y una pérgola con plantas trepadoras.                                                                                          ;;  Zonas infantiles  Zonas de mayores  Instalaciones deportivas  Auditorios  Reloj de sol  Fuentes ornamentales  ; Metro: Simancas (línea 7)  Bus: 38, 109 y L7 ;ARCENTALES;AVENIDA;4;28037;SAN BLAS-CANILLEJAS;4.042.996.840.999.020;-3.622.184.001.035.280;; Parque
Parque San José de Calasanz; Plaza situada en la calle Joaquin María López. Zona pavimentada con gran superficie de arbustos y zona infantil.    Otras denominaciones  Jardines de Joaquín María López                                                                   ;;  Zonas Infantiles  ;Bus: 2, 16, 61, 202;JOAQUIN MARIA LOPEZ;CALLE;39;28015;CHAMBERI;4.043.761.436.823.090;-37.145.867.743.039.800;; Parque
Parque San Juan Bautista; Zona verde con arbolado consolidado y zonas de césped muy utilizadas por los estudiantes de colegios e institutos cercanos al parque.                       ;;  Zonas infantiles  Instalaciones deportivas    ;Bus: 53;AGASTIA;CALLE;87;28043;CIUDAD LINEAL;40.451.304.609.076.600;-36.558.964.974.118.300;; Parque
Parque Sancho Dávila; Parque limitado junto a Calle 30 y Calle Sancho Dávila con amplias praderas y macizos arbustivos diversos, además de bosquetes varios de chopos, pinos y cedros. Presenta dos amplias zonas infantiles, para el disfrute de los más pequeños.                                                                       ;;  Zonas infantiles  ; Metro: Ventas (línea 2 y 5)  Bus: 12 ;AMERICA ESPAÑOLA;PLAZA;4;28028;SALAMANCA;4.042.949.627.920.970;-36.617.795.915.510.400;; Parque
Parque Santa Eugenia; Zona verde donde se puede destacar la gran variedad y diversidad de elementos dirigidos al disfrute de usuarios de todas las edades. Se trata de una zona con una elevada densidad de elementos vegetales tanto arbóreos como arbustivos en su mayoría ya consolidados.    Otras denominaciones  Parque viejo de Santa Eugenia           ;;  Zonas infantiles  Instalaciones deportivas  ;Bus: 58 , 63 , N9 , 145;ZAZUAR;CALLE;12;28031;VILLA DE VALLECAS;4.038.131.130.575.190;-3.608.459.149.580.720;; Parque
Parque Santa Rita;  Este parque se encuentra junto a las plazas pequeñas pero de gran importancia Plaza de Carabanchel, en la que se encuentra actualmente la Junta Municipal de Distrito y la Plaza de la Iglesia de Carabanchel en la que se encuentra la histórica Iglesia de San Sebastián.  La superficie de este parque está formada principalmente por grandes praderas y un campo deportivo. La jardinería consta de estas praderas y macizos de arbustos mayoritariamente de rosales. Nos podemos encontrar también macizos de flor y otros arbustos diferentes a los rosales. El arbolado que nos encontramos es principalmente joven aunque existe algún pie aislado con bastantes años. Los paseos y zonas estanciales existentes en este parque pueden ser tanto terrizos como pavimentados. Esta zona verde también la componen varias zonas de juegos infantiles y una zona canina.                       ;;  Zonas infantiles  Zonas caninas - Instalaciones deportivas  ;Bus: 34;ALBA DE TORMES;CALLE;2;28025;CARABANCHEL;40.379.040.097.900.200;-3.742.770.522.229.550;; Parque
Parque Segura; Zona verde recientemente remodelada que se encuentra constituida por una serie de paseos terrizos, zonas estanciales franqueadas por parterres ajardinados de praderas y macizos arbustivos. En este parque nos encontramos una serie de áreas destinadas a distintos usuarios como son una zona para mayores, una zona infantil, un circuito biosaludable y una zona canina.                       ;;  Zonas infantiles.  Zonas de mayores.  Zonas caninas.  Circuito deportivo  ;Bus: 60;SEGURA;CALLE;5;28041;USERA;40.368.011.394.592.600;-37.158.770.172.855.800;; Parque
Parque Soto de Entrevías; Zona verde continuación del Parque Entrevías Urbano. Dispone de un recorrido por distintas áreas temáticas pasando por un arboreto con especies singulares y diferentes tipos de vegetación de la sierra madrileña. El parque está estructurado en dos plataformas, la inferior es la compuesta por dos láminas de agua. Todo el parque se riega con agua regenerada.                                                      ;;  Zonas caninas.  Puntos de información ambiental    ;Bus:  102, 111;ACCESO A LA ESTACION DE AUTOBUSES DE LA E.M.T.;CARRETERA;9;28053;PUENTE DE VALLECAS;40.376.563.359.161.300;-3.675.043.967.167.770;; Parque
Parque Valdebernardo Este; Parque periurbano situado en el extremo oriental del barrio de Valdebernardo que enlaza éste con la Avenida de la Democracia. Cuenta con plantaciones de árboles y arbustos aromáticos dispuestos en parcelas definidas por caminos terrizos y con numerosas instalaciones deportivas y zonas infantiles.                     ;;  Zonas infantiles  Instalaciones deportivas  ; Metro: Valdebernardo (línea 9)  Bus: 71 ;CORDEL DE PAVONES;CALLE;s/n;28032;VICALVARO;4.039.852.345.013.530;-3.619.443.399.695.570;; Parque
Parque Valdebernardo M - 40; Zona verde localizada en el distrito de Vicálvaro que discurre paralela a la M - 40. Posee zonas deportivas para mayores, zonas infantiles y un largo carril bici que lo atraviesa de norte a sur.   Otras denominaciones:  Parque Norte de Valdebernardo                     ;;  Zonas  infantiles  Zonas de mayores  Zonas caninas  Instalaciones deportivas  ; Metro: Valdebernardo (línea 9)  Bus: 20 ;LADERA DE LOS ALMENDROS;CALLE;0;28032;VICALVARO;4.040.418.961.057.290;-3.622.901.144.863.190;; Parque
Parque Valle de Enmedio; Zona verde con arbolado joven con grandes paseos pavimentados dotados a lo largo de todo el recorrido con numerosos parques infantiles                                                              ;;  Zonas infantiles  Instalaciones deportivas  Zonas de petancas y patinaje  ; Bus: 64  Metro: Lacoma (línea 7) ;MIRADOR DE LA REINA;CALLE;22;28035;FUENCARRAL-EL PARDO;4.048.922.371.593.960;-37.237.594.350.747.100;; Parque
Parque Vandel; El parque se asienta sobre la explanación del antiguo tren de Arganda. Posee viales terrizos de trazado geométrico, que definen parcelas plantadas de arbustos aromáticos. Amplias zonas terrizas estanciales arboladas.                                                                      ;;  Zonas infantiles  ;Bus: 32;MOLINA DE SEGURA;CALLE;10;28030;MORATALAZ;404.049.148.503.112;-3.636.955.454.805.140;; Parque
Parque Virgen de la Esperanza; Parque ubicado entre bloques de viviendas, que se abre hacia el oeste ante la proximidad de una vía férrea adquiriendo una estructura más cercana a los espacios abiertos de los grandes parques. Está constituido principalmente por zonas de césped con macizos arbustivos y zonas terrizas. Cuenta con zonas estanciales e infantiles así como pistas deportivas.                                                                                                            ;;  Zonas infantiles  Instalaciones deportivas   ; Bus: 22 , 76 , 79 ;ANOETA;CALLE;45;28041;VILLAVERDE;40.351.030.215.596.500;-37.010.015.933.831.000;; Parque
Planta de transformación de residuos vegetales de Migas Calientes; Centro de producción inaugurado en noviembre de 1997 donde se realiza el compostaje de los residuos vegetales generados por las labores de mantenimiento de jardines del Ayuntamiento de Madrid.   Otras denominaciones:  Planta de compostaje.                                                                             ; Acceso restringido salvo visitas programadas. ;;;M-30;AUTOVIA;2200;28040;MONCLOA-ARAVACA;40.445.355.536.117.100;-37.399.742.609.916.600;; Parque
Quinta de Torre Arias;La finca de Torre Arias tiene 17 hectáreas de superficie en la que destacan sus impresionantes  Jardines  donde se pueden encontrar hasta 51 especies diferentes de árboles, algunos excepcionales como una encina con más de 300 años, algunos almendros y pinos y cedros en gran cantidad. Ha pertenecido a la aristocracia madrileña desde el año 1600 hasta la actualidad.  Su última propietaria Tatiana Pérez de Guzmán el Bueno, firmó junto a su marido, el 15 julio de 1986 un convenio mediante el cual donaba la finca al Ayuntamiento de Madrid. A su fallecimiento, la totalidad del ámbito ha pasado a ser, por tanto, de propiedad municipal.  El Ayuntamiento de Madrid organiza visitas guiadas por educadores ambientales, por caminos habilitados que no ofrezcan peligro para el visitante y para grupos de un máximo de 25 personas. Se compatibilizarán con los trabajos de recuperación de los Jardines, según los criterios históricos de los mismos, que se seguirán realizando en el parque.  En cuanto al recinto del palacio que se encuentra en la finca, permanece cerrado, y no es visitable, pues sus condiciones estructurables así lo aconsejan. ; Las visitas guiadas por educadores ambientales, se realizarán los jueves, de 16:00 a 18:00 horas, y los domingos de 11:00 a 13:00 horas.  Las visitas serán gratuitas y pueden reservarse en el teléfono 916 397 869 ó a través del correo electrónico  paa@talher.com  ;; Metro: Torre Arias (línea 5)  Bus: 104, 77, 150, 143. ;ALCALA;CALLE;551;28027;SAN BLAS-CANILLEJAS;40.443.385.945.708.400;-36.182.513.751.654.100;; Parque
Real Jardín Botánico; Centro de investigación del  CSIC  que alberga cuatro terrazas con plantas de América, Europa y el Pacífico, así como una colección de bonsáis.  ; El Jardín está abierto al público todos los días del año, excepto los días de Navidad y Año Nuevo.   Enero y febrero: de 10 a 18 horas  Marzo: de 10 a 19 horas  Abril: de 10 a 20 horas  De mayo a agosto de 10 a 21 horas  Septiembre: de 10 a 20 horas  Octubre: de 10 a 19 horas  Noviembre y diciembre: de 10 a 18 horas  ;; Metro: Atocha (línea 1)  Bus: 10, 14, 19, 24, 26, 27, 32, 34, 45, 57, 140, Circular  RENFE: Atocha ;MURILLO;PLAZA;2;28014;RETIRO;4.041.238.214.985.830;-3.692.032.097.926.270;914 203 017 (centralita); Parque
Vivero de la Casa de Campo; Zona de ribera de 17  ha.  entre sus instalaciones: 657  m2  de invernaderos y 110  m2  de umbráculos. En él se producen árboles y arbustos con destino a las distintas zonas verdes municipales. Las distintas labores: estaquillado, enmaletado, repicados, podas de formación, planta a raíz desnuda, etc... son realizadas por un equipo de 32 oficiales jardineros municipales.                                ;  Invierno de 8 a 15 horas  Verano de 7 a 14 horas   El acceso al público está gestionado a través de visitas guiadas en grupos organizados. ;;Metro: Príncipe Pío (líneas 6 y 10 y ramal), Lago (línea 10);AZUL;PASEO;2;28011;MONCLOA-ARAVACA;4.041.984.158.690.350;-37.286.969.080.235.400;; Parque
Vivero Estufas del Retiro; Zona de 35.000  m2 , entre sus instalaciones: 3.000  m2  de invernaderos, 1.000  m2  de umbráculos, 25.000  m2  zonas de cultivo exteriores. Se producen 800.000 plantas de temporada anuales con destino a las distintas zonas verdes municipales. Se realizan 700 servicios de adornos municipales anuales. Se realizan ensayos de evaluación de novedades de plantas de temporada y vivaces. Las distintas labores: estaquillado, enmacetado, repicado, escarda, poda, pinzado, mantenimiento de plantas de interior, a cargo de 35 oficiales jardineros municipales.    Otras denominaciones:  Viveros Municipales                                                           ; Invierno de 7 a 23 horas.  El acceso al público está gestionado a través de visitas guiadas en grupos organizados. ;; Metro: Atocha (línea 1), Ibiza (línea 9)  Bus: 26, 63 , 152, C1, C2 ;ANGEL CAIDO;GLORIETA;4;28009;RETIRO;40.409.899.256.936.300;-36.823.305.487.957.100;; Parque
Zona verde C/ Fresnedillas;" Esta nueva zona verde situada entre las calles: Fresnedillas, Los Gavilanes y Gabriela Mistral del Distrito Fuencarral- El Pardo, se ha estructurado caminos terminados en jabre, aprovechando las sendas creadas por el uso de los vecinos. Las diferencias de nivel existentes entre la calle Fresnedillas y el fondo de la vaguada y entre esta y el carril bici se salvan con hileras de gaviones (muros de contención realizados con piedras retenidas con malla de alambre) que suavizan las pendientes evitando las escorrentías y crean espacios, casi planos entre ellos, donde se han realizado las plantaciones.  En la zona baja de la parcela se ha creado un bosquete de fresnos, por donde en su día discurría el arroyo del Fresno, plantándose también alineaciones arbóreas y arbustivas y parterres con plantas de temporada y aromáticas.  Se ha instalado riego por goteo y se ha dotado la zona con alumbrado público y cada área con su mobiliario específico con bancos corridos sobre los gaviones y papeleras y se ha construido una red de saneamiento para evacuar las escorrentías que se produzcan al alcantarillado público.  La zona al sureste del &quot;carril bici&quot; se ha adecuado como zona deportiva, estructurando lo que ya existía: un solar con una superficie bastante regular que se utilizaba para la práctica informal de juegos deportivos. Se ha construido un estacionamiento en superficie por petición vecinal, con 18 plazas, que suple las que utilizaban los vecinos en una zona que ahora está ajardinada.          ";;  Zona de juegos infantiles  Área de juegos para mayores  Zonas de lectura  Zona canina  ;;FRESNEDILLAS;CALLE;1;28035;FUENCARRAL-EL PARDO;40.477.263.871.475.100;-37.430.025.162.285.100;; Parque
