NOMBRE;DESCRIPCION-ENTIDAD;HORARIO;EQUIPAMIENTO;TRANSPORTE;NOMBRE-VIA;CLASE-VIAL;NUM;CODIGO-POSTAL;DISTRITO;LATITUD;LONGITUD;TELEFONO;TIPO
Arte Público (Museo al Aire Libre de la Castellana);;;; Metro: Rubén Darío (línea 5)  Bus: 5, 14, 27, 45, 150 ;CASTELLANA;PASEO;40;28046;SALAMANCA;40.433.219.398.671.100;-36.876.122.680.805.900;;Museo
Casa - Museo del Ratoncito Pérez; La residencia de la familia Pérez está  situada en los sótanos de la confitería Prasi,  en el número ocho de la calle del Arenal, según cita Luis Coloma. ;  Lunes  de 17 a 20 horas.  De martes a viernes de 11 a 14 horas y de 17 a 20 horas.  Sábados de 11 a 15 horas y de 16 a 20 horas.  Domingos y festivos de 12 a 15 horas y de 16 a 19 horas.  Horario orientativo, consultar disponiblidad en la web del Museo.    ;; Metro: Sol (líneas: 1, 2 y 3)  Bus: 3, 50 ;ARENAL;CALLE;8;28013;CENTRO;4.041.704.834.412.290;-37.055.288.844.865.200;915 226 968;Museo
Casa Museo Lope de Vega;"&quot;Mi casilla, mi quietud, mi g&uuml;ertecillo y estudio&quot;. Así define su casa Félix Lope de Vega (1562-1635) en una carta dirigida a un amigo. Situada en pleno centro histórico, en el Barrio de las Letras, la Casa Museo Lope de Vega se ubica en el edificio donde el escritor vivió sus últimos 25 años. La recreación de ambientes, cuyo objetivo es que se respire la presencia de Lope, evoca la vida cotidiana del Siglo de Oro y nos acerca a su intimidad. El equipamiento de la casa incorpora obras de arte, mobiliario, enseres y ediciones bibliográficas vinculadas al literato y su tiempo. "; Para la visita es  imprescindible reserva anticipada  en:  casamuseolopedevega@madrid.org  o en el teléfono: 914 299 216, en horario del museo   De martes a domingo de 10 a 18 horas.   Cerrado los lunes, días 1 y 6 de enero, 1 y 15 de mayo y 24, 25 y 31 de diciembre   Este horario puede sufrir alteraciones por actividades extraordinarias que se celebran en este espacio. ;; Metro: Antón Martín (línea 1)   Bus: 6, 9, 10, 14, 26, 27, 32, 34, 37, 45, 57 ;CERVANTES;CALLE;11;28014;CENTRO;40.414.358.466.555.200;-36.974.741.545.860.000;914 299 216;Museo
Castillo de la Alameda;"El edificio está incorporado al sistema &quot;museosdemadrid&quot; donde se realizan talleres para escolares y actividades en verano.";  Abierto fines de semana y festivos (incluso los lunes festivos)  De abril a septiembre: sábados, domingos y festivos de 10 a 21 horas  De octubre a marzo: sábados, domingos y festivos de 10 a 18 horas  Cerrado: 24, 25, 31 de diciembre, 1 de enero, 6 de enero, 1 de mayo.  ;  Accesibilidad    Rampas de acceso  Servicios para minusválidos  Información en Braille para invidentes  ; Metro: Alameda de Osuna (línea 5), El Capricho (línea 5)  Autobuses: 101, 105, 112, 114, 115 y 151 ;ANTONIO SANCHA;CALLE;1;28042;BARAJAS;4.045.835.460.563.490;-35.932.903.820.278.700;"913 667 415                                                                   
";Museo
Casón del Buen Retiro; Edificio que forma parte del Museo Nacional del Prado, donde pueden consultarse fondos de la Biblioteca, del Archivo y del Servicio de Documentación de la colección del Museo y de otras fuentes relativas a la historia del arte. ;  Mañanas    De lunes a jueves, de 9 a 15 horas. (Servicio de libros y otros materiales hasta las 14:30 horas)   Viernes, de 9 a 14:30 horas. (Servicio de libros y otros materiales hasta las 14 horas)     Tardes.  Lunes y miércoles, de 15 a 18 horas. (Servicio de libros y otros materiales hasta las 17:30 horas)   Horario de verano     Desde el 16 de junio al 15 de septiembre  Lunes a viernes, de 9 a 14:30 horas   ;; Metro: Atocha (Línea 1)  Bus: 19, 10, 14, 27, 34, 37, 45  Renfe: Atocha ;ALFONSO XII;CALLE;28;28014;RETIRO;40.415.263.749.471.500;-3.689.232.811.717.630;902 107 077;Museo
Centro Social y Cultural la Casa Encendida; Edificio de carácter monumental. De estilo neomudéjar, fue diseñado por el arquitecto Fernando Arbós e inaugurado en el año 1913. Cuenta con más de 6.000 metros cuadrados de instalaciones divididas en 4 plantas y una azotea. ;  De lunes a domingo de 10 a 22 horas (todos los días del año, excepto festividades nacionales y de la Comunidad de Madrid)  Exposiciones: de 10 a 21:45 horas  ;   Biblioteca  (consulta catálogo  http://catalogo.bibliotecas.obrasocialcajamadrid.es/ )   Sala de consulta y Hemeroteca: de lunes a domingos, de 10 a 21:15 horas  Mediateca y Sala de trabajo Ofimática: de lunes a domingos, de 10 a 21:15 horas  Biblioteca joven: de lunes a viernes, de 10 a 20:30, sábados y domingos de 10 a 13:30  Bebeteca: sábados y domingos de 10 a 13:30 horas     Estudio multimedia : cuenta con equipos profesionales para la edición de video con Final Cut Studio, Premiere, etc. Su uso tendrá un precio de cinco a ocho euros por turno de cinco horas dependiendo del tipo de asistencia técnica.   Laboratorio de radio:  dispone de un equipo completo de grabación y equipamiento profesional. Su uso tendrá un precio de diez euros por turnos de cinco horas.   Laboratorio fotográfico    Tienda solidaria:  consultar horario   Cafetería:  todos los días, excepto festivos, de 10 a 21:45 horas  ; Metro: Embajadores (línea 3), Lavapies (línea 3), Atocha (línea 1)   Bus: 27, 34, 36, 41, 68, 69, 119   Renfe: Embajadores ;VALENCIA;RONDA;2;28012;CENTRO;4.040.595.710.517.700;-3.699.779.793.558.760;"902 430 322                                              
";Museo
Ermita de San Antonio de la Florida (Museo); Ermita dedicada a San Antonio de Padua y pequeño museo. Las pinturas murales que la decoran son de Francisco de Goya. Alberga los restos mortales del artista desde 1919. Para preservar sus pinturas, en 1929 se trasladó el culto a una ermita gemela construida a su lado, dejando el edificio original como museo. ;  De martes a domingos y festivos de 9:30 a 20 horas.   Cerrado  los lunes, incluidos festivos, y los días 1 y 6 de enero, 1 de mayo y 24, 25 y 31 de diciembre.   Último pase de visita:  20 minutos antes del cierre (el desalojo de las salas comenzará 10 minutos antes)   Por motivos de conservación, el aforo máximo es de 50 personas en el interior de la capilla.  Los sábados que se celebren Visitas animadas para familias se interrumpirá la visita durante el desarrollo de las mismas.  Este horario y la apertura de salas pueden sufrir modificaciones, por favor, confírmelo en el teléfono de información del museo.  ; Tienda, en la que se pueden adquirir las guías y publicaciones sobre la ermita editadas por el Museo y otros organismos públicos, así como catálogos y publicaciones de instituciones culturales del Ayuntamiento de Madrid. ; Metro: Príncipe Pío (líneas 5, 10 y ramal Ópera - Príncipe Pío)  Bus: 41, 46 y 75 (Intercambiador Príncipe Pío)  Renfe: Príncipe Pío ;SAN ANTONIO DE LA FLORIDA;GLORIETA;5;28008;MONCLOA-ARAVACA;40.425.256.682.855.800;-3.725.725.718.176.110;"915 420 722 / 917 011 863                                                                                                                              
";Museo
Espacio Fundación Telefónica;; De martes a domingo, de 10 a 20 horas.  Cerrado al público todos los lunes y los festivos, día 25 de diciembre y días 1 y 6 de enero. ;  Accesos y espacios habilitados para personas con movilidad reducida, aseos adaptados y con cambiador de pañales, ascensor, zonas de descanso y silla de ruedas para uso en las salas.  Tabletas con guía multimedia de las exposiciones, disponibles en el mostrador de información.  Conexión WIFI.  ; Metro: Gran Vía (líneas 1, 5)  Bus: 1, 2, 46, 74, 146, 202 ;FUENCARRAL;CALLE;3;28004;CENTRO;4.042.041.458.612.880;-37.016.034.186.955.000;915 808 700 (información general);Museo
Fundación AMYC (Arte Moderno y Contemporáneo). Casa - Museo Fuente del Rey;; De lunes a viernes de 10 a 19 horas. Sábados y domingos cerrado.   Visitas  guiadas y concertadas con cita previa. ; Siguiendo la iniciativa del mecenazgo de Francisco Daurella, en 2009 decide crear la Fundación  AMYC , para la que recupera, rehabilita y acondicona una casa de uso privado para transformala en Casa - Museo. En sus instalaciones acogerá diferentes salas expositivas y una sala polivalente para actos culturales. El eje principal de la colección de más de 250 obras, es dar una visión muy dinámica de lo sucedido entre fianles del siglo  XIX  y mediados del siglo  XX . ;Bus: 161, I;FUENTE DEL REY;CALLE;11;28023;MONCLOA-ARAVACA;4.045.546.180.290.310;-37.705.836.264.842.500;913 579 116;Museo
Monasterio de las Descalzas Reales; Convento fundado por la Princesa Juana de Austria, transformando un antiguo palacio de su madre Isabel de Portugal. ; Sólo con visita guiada.    De martes a sábado de 10 a 14 horas y de 16 a 18:30 horas  Domingos y festivos, de 10 a 15 horas. Cerrado los lunes  Cierre de taquillas una hora antes  Cerrado:   Enero: días 1, 6.  Abril: del 1 al 4 inclusive, semana santa.  Mayo: día 1.  Diciembre: 24, 25 y 31 de diciembre.    El  7 de diciembre  abierto en horario de mañana y tarde.     Atención telefónica:    De lunes a sábados de 9:30 a 17 horas  Domingos y festivos de 9 a 14 horas  ;; Metro: Callao (líneas 3, 5) , Santo Domingo (línea 2) , Sol (líneas 1, 2, 3) Gran Vía (líneas 1, 5)  Bus: 1, 2, 3, 5, 15, 20, 25, 39, 40, 44, 46, 50, 51, 52, 53, 74, 75, 133, 146, 147, 148, 149, 150, 202 ;DESCALZAS;PLAZA;3;28013;CENTRO;40.418.233.359.889.400;-3.706.213.134.639.160;"914 548 700                                                      
";Museo
Museo ABC;Centro de arte, dibujo e ilustración. ;  De martes a sábados: de 11 a 20 horas  Domingos: de 10 a 14 horas   ;; Metro: San Bernardo (líneas 2, 4), Noviciado (línea 2), Ventura Rodríguez (línea 3), Plaza de España (líneas 3, 10)  Bus: M2, 3, 147 ;AMANIEL;CALLE;29;28015;CENTRO;4.042.740.213.531.280;-370.955.095.379.701;917 588 379;Museo
Museo Africano Mundo Negro;Situado en los locales de los Misioneros de Madrid y abierto al público en 1985, se propone divulgar la cultura africana, promoviendo el conocimiento de la vida, de la historia y de las diversas culturas africanas. ;   Grupos con cita previa : de lunes a sábado   Particulares  (visitas guiadas): domingos a las 11,30 horas   Cerrado : julio, agosto y septiembre  ;;Bus: 11, 70, 114, 115, 122, 200;ARTURO SORIA;CALLE;101;28043;CIUDAD LINEAL;40.449.455.579.055.800;-3.651.503.432.956.760;914 152 412;Museo
Museo Arqueológico Nacional; Construído en 1866 según proyectos de Jareño y Alarcón y terminado por Ruiz de Salces. Ocupa el mismo edificio que la Biblioteca Nacional. De estilo neoclásico. ;  De martes a sábados de 9:30 a 20 horas  Domingos y festivos de 9:30 a 15 horas     Cerrado    Todos los lunes del año.  1 y 6 de enero, 1de mayo y 24, 25 y 31 de diciembre    Horario de cierre de las taquillas: 15 minutos antes del cierre del Museo.  En caso de que el aforo esté completo, el Museo podrá cerrar el acceso con anterioridad, lo que se comunicará in situ a los visitantes. ;  Sistema de bucle inductivo de audio para personas con problemas de audición en la proyección audiovisual  y áreas de atención a público  Acceso para personas con movilidad reducida   Actividades culturales y didácticas   Visitas para grupos previa concertación de cita   Publicaciones   Servicio fotográfico  ; Metro: Serrano (línea 4), Colón (línea 4), Velázquez (línea 4)  Bus: 1, 2, 5, 9, 14, 15, 19, 20, 21, 27, 28, 37, 45, 51, 52, 53, 74, 146, 150, 203  Renfe: Recoletos (línea C-1, C-2, C-7, C-8 y C-10) ;SERRANO;CALLE;13;28001;SALAMANCA;4.042.326.842.040.790;-36.884.539.762.461.900;"915 777 912                                                            
                                                                            
";Museo
Museo Casa de la Moneda; El Museo Casa de la Moneda alberga colecciones numismáticas y de artes gráficas: importantes dibujos, estampas, loterías, sellos,... Se trata de la que posiblemente sea la mayor exposición numismática del mundo, cubriendo la historia de la moneda desde el siglo  VII a.C.  hasta nuestros días. ;"  De martes a viernes ininterrumpidamente de 10 a 17:30 horas. Sábados, domingos y festivos de 10 a 14 horas.  Cerrado los lunes, y los días 1 y 6 de enero; 19 de marzo, 2, 3, 4 y 5 de abril; 1, 2, 3 y 15 de mayo; 24, 25 y 31 de diciembre.  ";El público puede acuñar una moneda durante su visita. Accesible a personas con minusvalía (física y sensorial). Visitas guiadas e introduce la lengua de signos para personas sordas ;" Metro: O&acute;Donnell (línea 6)  Bus: 2, 28, 30, 56, 71, 143, C ";DOCTOR ESQUERDO;CALLE;36;28028;SALAMANCA;4.042.258.896.520.150;-36.691.501.169.061.000;"915 666 544                      
";Museo
Museo Cerralbo; Este Palacio, construido entre 1883 y 1893, fue concebido como vivienda y como museo para sede de las obras de arte reunidas por los Marqueses de Cerralbo y sus hijos, los Marqueses de Villa Huerta, durante los numerosos viajes que realizaron por España y Europa.   Objetivos y Fines de la Fundación Cerralbo (en la misma sede)    Velar porque las colecciones no se disgreguen ni enajenen y permanezcan reunidas en su sede de Ventura Rodríguez.   Conceder premios y becas para artistas e investigadores y celebrar actos culturales.   Colaborar en la custodia, exhibición y mejora del patrimonio que el Estado heredó del Marqués, perpetuando así su memoria.   ;  De martes a sábado de 9:30 a 15 horas   Jueves de 17 a 20 horas. Excepto festivos.   Domingos y festivos de 10 a 15 horas.    Cerrado todos los lunes, y los días 1 y 6 de enero, 1 de mayo, 24, 25 y 31 de diciembre y una fiesta local.   ;  Biblioteca  Sala de Exposiciones  Sala de Conferencias  Gabinete dietético  Gabinete de dibujo y laboratorio de restauración  ; Metro: Ventura Rodríguez (línea 3), Plaza de España (líneas 3, 10)  Bus: 1, 2, 3, 25, 39, 44, 46, 74, 75, 133, 138, 148, 202, 749, C1, C2 ;VENTURA RODRIGUEZ;CALLE;17;28008;MONCLOA-ARAVACA;4.042.376.732.078.650;-37.146.170.388.153.400;915 473 646 / 47;Museo
Museo Colecciones del Instituto de Crédito Oficial (ICO); El Museo Colecciones  ICO  abrió sus puertas al público en marzo de 1996. Su objetivo era difundir la colección de arte del Instituto de Crédito Oficial, una de las más importantes de arte español contemporáneo.  ;  De martes a domingo: de 11 a 20 horas  Festivos: de 10 a  14 horas      Cerrado:  Todos los lunes del año (incluidos festivos) y los días 1 de enero, 1 de mayo y 25 de diciembre.   ;  Colecciones:  Suite Vollard, de Pablo Picasso - Pintura Española Contemporánea - Escultura Moderna Española con Dibujo.   Servicios:  además de exponer y difundir sus propios fondos, trabaja en la realización de exposiciones temporales que parten, principalmente, de tres líneas. La primera está dedicada a la realización de exposiciones de  arquitectura y diseño , tanto de arquitectos nacionales como de ámbito internacional. La segunda línea se dedica a la colaboración anual que el museo mantiene con el festival de fotografía  PHotoEspaña  y que ha permitido la exposición de reputados artistas como Man Ray o Dorothea Lange. Por último, la tercera de estas líneas está dedicada a la difusión de la  obra poco conocida de artistas presentes en las colecciones  ICO .  Esta política expositiva ha permitido conocer nuevas facetas de artistas como Susana Solano, Guillermo Pérez Villalta o Darío Urzay.  ; Metro: Banco de España (línea 2) , Sevilla (línea 2)  Bus: 5, 9, 15, 10, 14, 27, 34, 37, 45, 51, 150 ;ZORRILLA;CALLE;3;28014;CENTRO;4.041.675.330.128.860;-36.977.346.235.068.300;914 201 242;Museo
Museo de Aeronáutica y Astronáutica; Emplazado en Cuatro Vientos desde 1966, tiene como objetivo narrar la historia y el desarrollo científico - técnico de la Aeronáutica y Astronaútica españolas con 150 aeronaves, uniformes, condecoraciones, maquetas, armamento y una destacada colección de motores en 70.000  m2  , distribuidos en siete hangares y siete plataformas al aire libre.  ;  De martes a domingo de 10 a 14 horas.  Cerrado los días 1 y 6 de enero, el mes de agosto, Jueves y Viernes Santos, 12 de octubre, 10 de diciembre (Patrona de Aviación), 24,25 y 31 de diciembre.  ;  Aparcameinto: gratuito, de 10 a 14 horas  Cafetería: de 10 a 13:30 horas  Punto de venta: de 10 a 13:30 horas  Visitas guiadas para grupos: de martes a domingo de 10 a 14 horas, previa petición de autorización por carta o correo electrónico (museodelaire@ea.mde.es). Se recomienda anticipar las peticiones por teléfono de lunes a viernes. Grupo mínimo de 10 personas  Obtención de fotografías y/o filmaciones   Tratándose de fotografías o filmaciones para uso particular no es necesario pedir ningún tipo de autorización  Es necesaria la solicitud de permiso previo mediante fax 917 106 847, si el objetivo es la difusión por medios de comunicación. El permiso se ajustará a lo dispuesto en la Instrucción 65/2004, de 31 de marzo, del Secretario de Estado de Defensa     Para más información teléfono 915 091 690 ; Metro: Cuatro Vientos (línea 10)  Bus: 518, 521, 522, 523 ;A-5;AUTOVIA;10.500;28024;LATINA;403.733.013.700.739;-3.798.200.034.372.680;915 091 690 (centralita);Museo
Museo de América; Colecciones arqueológicas, etnográficas y de arte colonial traídas a España entre los siglos XVI y XX, cuya temática abarca desde la Prehistoria americana hasta la actualidad. Destacan el Tesoro de los Quimbayas, los Enonchados de la Conquista de México y las colecciones europeas más antiguas sobre los indios de las praderas.   Página web del Museo de América  ;  Horario:    De martes a sábado, de 9:30 a 15 horas  Jueves, apertura continuada de 9:30 a 19 horas  Domingos y festivos de 10 a 15 horas     Cerrado:  todos los lunes del año, día 1 y 6 de enero, día 1 de mayo, días 24, 25 y 31 de diciembre y un festivo local. ; Biblioteca - Tienda - Cafetería - Accesible a personas con minusvalía (física) - Visita guiada para grupos - Visitas guiadas a las piezas más representativas de las colecciones del museo (sábados a las 11 horas) - Club de Lectura   ; Bus: 1, 12, 44, 82, 132  Metro: Moncloa (Líneas 3, 6) ;REYES CATOLICOS;AVENIDA;6;28040;MONCLOA-ARAVACA;4.043.797.469.898.850;-3.721.841.843.311.360;915 439 437 / 915 492 641;Museo
Museo de Arte Contemporáneo de Madrid;;  Martes a Sábado: de 10 a 14 y de 17:30 a 21 horas  Domingos y festivos: de 10.30 a 14 horas   Cerrado :  Lunes (incluso festivos)  1 y 6 de enero, 1 de mayo y 25 de diciembre.     Las salas se desalojan 15 minutos antes del cierre. ;; Metro: Ventura Rodríguez (línea 3), Plaza de España líneas 3, 10), San Bernardo (líneas 2, 4), Noviciado (línea 7, 10)  Bus: 1, 2, 21, 44, 74, 133, C, M2  Renfe: Príncipe Pío  Aparcamiento público: plaza de España (accesible) ;CONDE DUQUE;CALLE;9;28015;CENTRO;4.042.737.760.210.630;-37.106.116.887.809.800;915 885 928  /  915 885 861;Museo
Museo de Artes y Tradiciones Populares. Centro Cultural La Corrala; El Museo se forma tras la donación de la colección de Guadalupe González Hontoria a la Universidad Autónoma de Madrid. Las piezas comprenden:   El ciclo vital humano y religiosidad popular  El ciclo festivo anual, instrumentos musicales, bailes y juegos de adultos  Tareas domésticas  Agricultura, ganadería, caza y pesca  Los oficios artesanales y transporte rural.  ;  Permanece abierto al público de lunes a viernes con horario de 10 a 20 horas. Sábados de 10 a 14 horas.  Cerrado domingos, festivos y mes de agosto  ; Visitas guiadas previa cita en el teléfono del Museo o en  visitas.atp@mam.es  ; Metro: La Latina (línea 5)  Bus: 41, 60, 148 y Circular  Renfe: Embajadores /Atocha ;CARLOS ARNICHES;CALLE;03-may;28005;CENTRO;40.408.814.891.299.500;-37.083.421.466.389.100;914 976 500;Museo
Museo de Astronomía y Geodesia; La colección se compone de objetos relacionados con el mundo de la Astronomía, como teodolitos, cronómetros, brújulas topográficas, sextantes giroscópicos, astrolabios de prisma, cámaras fotográficas para eclipse,  etc   ;Visita con cita previa;;Bus: 82 , F , 132 , I , G ;CIENCIAS;PLAZA;3;28040;MONCLOA-ARAVACA;4.044.942.472.705.850;-37.262.214.898.219.100;913 944 615;Museo
Museo de Bomberos;; Abierto todos los días de  09:30  a  14:00  horas, excepto 25 de diciembre, 1 enero,  6 de enero y 1 de mayo.    Nota:   El museo permanecera cerrado hasta octubre de 2015 por obras de acondicionamiento.      Visitas Guiadas  Se pueden concertar en el teléfono: 91 478 65 72 ( Museo )  Más información: 91 588 99 07 - 91 588 82 40  ;   Exposición fotográfica  Un recorrido por toda su historia: grandes incendios, construcción de los primeros parques, bomberos fallecidos en acto de servicio...   Vehículos  Una amplia gama de los vehículos utilizados en los últimos 400 años: Las primeras bombas brazales, clásicos de los años veinte y vehículos adaptados de la II Guerra Mundial.   Herramientas y equipos  Diferentes escalas de gancho, extintores primitivos o las primeras lonas de salvamento nos dan una idea de cómo han trabajado los bomberos en los últimos siglos así como herramientas de distintas épocas que nos muestran el avance tecnológico en la lucha contra el fuego y salvamento.   Cascos  Amplia exposición en la que se muestra la evolución de los cascos en Madrid. Además se expone una colección internacional en la que se aprecia, en su diseño, la mezcla de protección, materiales y comodidad en los diferentes países del mundo.   Uniformes  De época, trajes de gala, así como varios modelos que fueron utilizados en sucesos destacados de la historia de Madrid. Completan esta colección varios trajes de aproximación al fuego y protección química especial entre otros.   Comunicaciones  Antiguamente los bomberos se comunicaban mediante toques de corneta. Esta exposición muestra las partituras con sus particulares comandas. Además, la exposición incluye la evolución de los equipos de comunicaciones.   Sanitario  Una cámara de recuperación respiratoria para los bomberos intoxicados por el humo en los fuegos es uno de los mayores atractivos de este área.  ;  Metro : L1- Buenos Aires  Bus : 141 y 143 ;BOADA;CALLE;4;28038;PUENTE DE VALLECAS;4.039.453.171.263.190;-36.539.313.207.612.200;"91 478 65 72 (Museo),                                                                                                                                           
                                                                                                                                               
";Museo
Museo de Calcografía Nacional; Expone colecciones de planchas y grabados.  ;  De octubre a junio de lunes a viernes de 9 a 17 horas.  Verano: de julio a septiembre de 9 a 15 horas.   Agosto cerrado   En el caso de que se celebren exposiciones, consultar horario, ya que puede variar.  ;  Sala de exposiciones   Biblioteca  ; Metro: Sol (líneas 1, 2, 3), Sevilla (línea 2)  Bus: 5, 15, 20, 51, 52, 53, 150 ;ALCALA;CALLE;13;28014;CENTRO;4.041.764.548.040.700;-3.700.667.044.636.170;915 240 864;Museo
Museo de Cera;;  De lunes a viernes de 10 a 14:30 y de 16:30 a 20:30 horas.  Sábados, domingos y festivos de 10 a 20:30 horas.  Los días 25 de diciembre y 1 de enero, el museo abre de 10 a 14:30 horas y de 16:30 a 20:30 horas.  Las taquillas cierran media hora antes.  ;Apropiado para niños; Metro: Colón (línea 4)  Bus: 5, 14, 21, 27, 45, 53, 15  Renfe: Recoletos ;RECOLETOS;PASEO;41;28004;CENTRO;40.424.403.779.665.300;-36.914.362.030.084.800;913 199 330;Museo
Museo de Farmacia Militar;Superficie de 600  m/2  donde se exponen fondos de carácter histórico y científico. Las colecciones abarcan desde los orígenes de la ciencia farmacéutica, recreado en el laboratorio yatroquímico del siglo  XVII , hasta los actuales procesos para la elaboración de preparados.; De lunes a viernes de 10 a 13 horas, sólo visitas concertadas ;; Metro: Embajadores (línea 3)  Bus: 6, 27, 34, 36, 41, 55, 59, 60, 78, 85, 116, 118, 119, 148, C2. E1  Renfe :  Embajadores ;EMBAJADORES;CALLE;75;28012;ARGANZUELA;40.403.202.661.477.100;-37.008.825.895.813.100;"915 399 503 / 915 273 623                    
";Museo
Museo de Historia de la Comunidad Judía de Madrid;; Visitas guiadas    De lunes a jueves de 16 a 19 horas.  Viernes, sábados y domingos cerrado.  Para realizar las  visitas tienen que solicitarlas previamente llamando al teléfono: 915 913 131  ;; Metro: Iglesia (línea 1)  Bus: 5, 12, 16, 37, 61, 149  ;BALMES;CALLE;3;28010;CHAMBERI;4.043.534.317.115.620;-3.700.013.620.203.680;915 913 131 ;Museo
Museo de Historia de Madrid;;"   Exposición    &quot;Cervantes a la luz: imágenes del hallazgo&quot;:   de martes a domingo de 10:00 a 20 horas.   Salas de exposición permanente y de Cartografía y maquetas : de martes a domingo de 10:00 a 20 horas.  Cerrado : todos los lunes y los días 1 y 6 de enero, 1 de mayo, 24, 25 y 31 de diciembre.   ";  Biblioteca de investigación  Servicio de documentación  Guardarropa  Zona wifi  ; Metro: Tribunal (líneas 1 y 10), Bilbao (líneas 1 y 4), Alonso Martínez (4, 5, 10)  Bus: 3, 21, 37, 40, 147, 149  Aparcamiento público: Barceló ;FUENCARRAL;CALLE;78;28004;CENTRO;4.042.577.054.821.340;-3.700.845.660.719.600;917 011 863;Museo
Museo de la Biblioteca Nacional; El Museo cuenta con unos 1.400 m2 y se distribuye en ocho salas.  ; De martes a sábados de 10 a 20 horas. Domingos y festivos de 10 a 14 horas. Último pase 30 minutos antes del cierre.  Cerrados: 1 de mayo, 12 de octubre, 9 de noviembre, 8, 24, 25 y 31 de diciembre.  ; Talleres escolares y para público en general, visitas guiadas, piezas del mes, etc.  ; Metro: Colón, Serrano (línea 4)  Bus: 1, 5, 9, 14, 19, 21, 27, 37, 45, 51, 53, 74, 150  Cercanías: Recoletos ;RECOLETOS;PASEO;20;28001;SALAMANCA;4.042.299.290.045.960;-3.690.844.141.741.060;"915 807 759 / 915 168 967     
";Museo
Museo de la Catedral de la Almudena;;  De lunes a sábado de 10 a 14:30 horas  Cerrado los domingos, fiestas de precepto y días de actos de culto especiales  ;;Bus: 3, 148, L3;BAILEN;CALLE;10;28013;CENTRO;40.415.538.770.017.400;-37.136.931.154.460.500;915 592 874;Museo
Museo de la Farmacia Hispana; Entre sus fondos destacan las colecciones de botes cerámicos, morteros y cajas de madera policromadas, relacionados con la práctica docente, cuatro boticas históricas y tres instalaciones que recrean un laboratorio alquimista, una botica árabe y la botica del Hospital de San Juan de las Afueras (Toledo). ; De lunes a viernes de 9 a 14 horas (periodo lectivo).  ;; Metro: Ciudad Universitaria  Bus: 82 , 132 , G ;RAMON Y CAJAL;PLAZA;0;28040;MONCLOA-ARAVACA;404.445.328.804.645;-37.262.160.043.788.100;913 941 797;Museo
Museo de la Guardia Civil;" El Museo se crea por Orden General del Cuerpo de 23 de junio de 1982 y se inaugura el día 12 de octubre de 1982.  Los fondos que forman el Museo han sido aportados o depositados bien por entidades públicas o privadas, bien por las distintas Unidades del Cuerpo, todos los cuales están vinculados de alguna manera a las vicisitudes e historia de la Guardia Civil desde su creación hasta nuestros días. Existen cuatro salas denominadas: banderas (rellano de la  2&ordf;  Planta), sala de arma, sala de uniformes y maniquies, sala de objetos varios y dioramas.  Los primeros indicios y escritos en los que se refleja la inquietud de recopilar objetos de marcado carácter histórico relacionados con las actividades de la Guardia Civil datan del año 1914 (desaparecerá en 1936 con motivo de la Guerra Civil), si bien sería a principios de 1982, cuando por iniciativa del entonces Director General, Jose Luis Aramburu Topete, se inician las labores para la formación del actual Museo de la Guardia Civil. ";  De lunes a viernes de 9 a 14 horas  Sábados, domingos y festivos cerrado    Visita:  previa identificación personal   Visita de grupos:  debe concertarse cita previa por escrito ;; Metro: Guzmán el Bueno (línea 6, 7)  Bus: 2,  44, 45, C1, C2 ;GUZMAN EL BUENO;CALLE;110;28003;CHAMBERI;4.044.454.745.648.480;-37.122.900.396.933.800;915 146 000 (extensiones 8477 / 8495 /48477);Museo
Museo de la Real Academia de Bellas Artes de San Fernando;Construido inicialmente para palacio de D. Juan de Goyeneche, el edificio fue adquirido por la Academia de Bellas Artes en 1773 y reformado bajo la dirección de Fernando Chueca Goitia en 1973 y la fachada por Diego de Villanueva en 1774.;"  Colección permanente:  de martes a domingos de 10 a 15 horas., incluyendo festivos. Lunes cerrado.      Exposiciones temporales:  consultar telefónicamente  Cerrado mes de agosto y días 1 y 6 de enero, 1 y 30 de mayo, 9 de noviembre; 24, 25 y 31 de diciembre.  ";Sala de exposiciones - Accesible a personas con minusvalía (física).; Metro: Sol (línea 3), Sevilla (línea 2)  Bus: 3, 5, 15, 20, 50, 51, 55, 53, 150 ;ALCALA;CALLE;13;28014;CENTRO;4.041.764.548.040.700;-3.700.667.044.636.170;"915 240 864 (Centralita)                                    
";Museo
Museo de Mineralogía;Presenta colecciones de minerales clasificados por su composición química, y vitrinas murales con ejemplares de exhibición procedentes de todo el mundo.;  Jueves de 10:30 a 14:30 horas, (conviene concertar previamente la visita).   Visitas guiadas por el personal del museo para grupos.   ;;Renfe: Cantoblanco Universidad;COLMENAR VIEJO;CARRETERA;19000;28049;FUENCARRAL-EL PARDO;;;914 974 132 / 914 974 800;Museo
Museo de San Isidro. Los orígenes de Madrid; Este espacio museográfico propone un viaje por la historia de la ciudad de Madrid desde la Prehistoria hasta el establecimiento de la Corte, a través de distintas salas como la de San Isidro, el Patio Renacentista, el Jardín Arqueobotánico o el Almacén Visitable.  ;   General:  de martes a domingo y festivos de 9:30 a 20 horas   Agosto:  de martes a viernes de 9:30 a 14:30 horas y sábados, domingos y festivos de 9:30 a 20 horas   Cerrado:  todos los lunes, 1 y 6 de enero, 1 de mayo y 24, 25 y 31 de diciembre  ;"  Sala de investigadores - Biblioteca especializada en arqueología e historia madrileña - Archivo documental - El almacén visitable (más de 600 piezas arqueológicas) y el Jardín arqueobotánico (con información documentada sobre las especies de la ciudad)  Exposición permanente: &quot;Orígenes: Un viaje al pasado de Madrid&quot;. Un recorrido a través de la evolución del territorio madrileño y de sus pobladores hasta el establecimiento de la Corte en 1561. Con proyecciones en 3D estereoscópicas que permiten a los visitantes interactuar con animales de hace 40.000 años procedentes de excavaciones madrileñas.      Otros espacios visitables: las estancias de San Isidro, así como una importante colección de iconografía de San Isidro y de Santa María de la Cabeza.   Investigadores: los fondos del Museo están a disposición de la comunidad científica y los investigadores podrán acceder a ella con una simple petición formal a la dirección.  Visitas guiadas por voluntarios culturales. Talleres didácticos para grupos escolares.  Zona wifi  "; Metro: Latina , Tirso de Molina  Bus: 3 , 17 , 18 , 23 , 35 , 60 , 65 , 148 ;SAN ANDRES;PLAZA;2;28005;CENTRO;40.412.069.631.779.300;-3.710.874.934.826.830;913 667 415;Museo
Museo de Sanidad e Higiene Pública; Con sede en el Instituto de Salud Carlos III, ocupa las antiguas dependencias del Laboratorio de Microbiología del Hospital del Rey. 300  m2  conservados tal cual su antiguo uso, con fondos de mobiliario, instrumental y bibliografía de los antiguos hospitales para enfermos infecciosos del complejo. Se resaltan hitos históricos relevantes en salud pública mediante láminas enmarcadas.  ; Sólo visitas de grupo con cita previa: de lunes a viernes, de 10 a 14 horas.  Cita previa por teléfono: 918 222 414  o a través del correo electrónico:  museodesanidad@isciii.es  ;; Metro: Chamartín (líneas 1, 10), Plaza de Castilla (1, 9, 10)  Bus: 67, 124, 134, 135, 147  Renfe: Chamartín ;MONFORTE DE LEMOS;AVENIDA;5;28029;FUENCARRAL-EL PARDO;4.047.546.597.881.760;-36.900.603.941.123.100;918 222 414  (Cita previa);Museo
Museo del Atlético de Madrid;" En el Museo del Atlético de Madrid &amp; Colección Pablo Ornaque se puede disfrutar de un recorrido histórico por el fútbol en general, y del Atlético de Madrid, en particular, donde los aficionados al fútbol no sólo contemplarán trofeos y objetos, sino también  un museo deportivo con piezas de gran valor museístico que alberga en sus vitrinas.   Se realizan visitas guiadas al estadio y a las instalaciones del Museo ";   Horarios del Museo    De martes a domingo, de 11 a 19 horas.  Días de partido: desde las 11 horas hasta el inicio del encuentro.     Horarios de las visitas guiadas    De martes a domingo a las 12, 13, 16:30 y 17:30 horas  Verano (de 28 de junio al 14 de septiembre): de martes a domingo a las 12, 13, 16:30 y 17:30 horas    ;; Metro: Pirámides (línea 5), Marqués de Vadillo (línea 5)  Bus: 23, 34, 35, 36, 50, 116, 118, 119 ;VIRGEN DEL PUERTO;PASEO;67;28005;ARGANZUELA;40.401.455.987.482.600;-3.721.215.933.848.040;913 650 931 / 902 260 403;Museo
Museo del Ferrocarril de Madrid;Edificio de caracter monumental. Construido como cabecera de la línea Madrid - Extremadura - Portugal en el año 1880 por E. Cachelievre.;  De martes a viernes de 9:30 a 15 horas.   Sábados de 10 a 15 horas.   Domingos de 10 a 15 horas.   Cerrado los lunes (incluidos festivos), del 16 al 31 de agosto (ambos inclusive), y los días 1 y 6 de enero, 1 de mayo y 25 de diciembre.  ;"  Tienda  Teatro  Librería  Cafetería  Archivo y Biblioteca  Parque ferroviario  Salas de Tracción, de Modelismo Ferroviario, de Infraestructura y de Relojes    Actividades    Feria de coleccionismo &lsquo;La Estación&rsquo; (los primeros sábados de cada mes, excepto en agosto)  Mercadillo de modelismo (primeros domingos de cada mes, excepto en agosto)   Actividades para escolares  Teatro familiar (todos los sábados, domingos y festivos, excepto julio y agosto)  Trenes de jardín (todos los domingos, excepto julio y agosto)    "; Metro: Delicias (línea 3)  Bus: 8, 19, 45, 47, 59, 85, 86  Renfe: Delicias ;DELICIAS;PASEO;61;28045;ARGANZUELA;40.400.281.290.485.500;-3.693.817.192.160.560;"902 228 822                                                                                           
";Museo
Museo del Prado; Construido inicialmente como Museo de Ciencias Naturales, este edificio neoclásico fue transformado en pinacoteca de las Colecciones Reales en 1818 con colecciones de pintura, dibujos, grabados, monedas y medallas desde el Románico hasta el siglo  XIX . ;  De lunes a sábado de 10 a 20 horas  Domingos y festivos de 10 a 19 horas  Cerrado los días 1 de enero, 1 de mayo y 25 de diciembre  Horario reducido, de 10 a 14 horas, los días 6 de enero, 24 y 31 de diciembre  Acceso al museo hasta 30 minutos antes del cierre (el desalojo de las salas comienza 10 minutos antes del cierre)  ;  Accesible a personas con discapacidad física  Audioguías temáticas y audioguía infantil  Itinerarios y visitas didácticas  Librería  Tienda  Cafetería  Restaurante  Guardarropa  ; Metro: Atocha (línea 1), Banco de España (línea 2), Retiro (línea 2)  Bus: 9, 10, 14, 19, 27, 34, 37, 45  Renfe: Atocha ;RUIZ DE ALARCON;CALLE;23;28014;RETIRO;4.041.357.557.281.160;-36.913.253.533.221.800;913 302 800;Museo
Museo del Reloj Grassy;  Arquitecto : Eladio Laredo Carranza (1916 - 1917).  Fundado por el relojero francés Grassy en 1955, este museo narra la historia de este aparato de medición. Sus fondos, colección privada, consta de una amplia y variada colección de diferentes nacionalidades y los más variados estilos.  ; Jueves a las 17 y viernes a las 12 horas (excepto festivos).  Las visitas se efectúan con cita previa   Inscripción telefónica: 915 321 007  Inscripción por correo electrónico:  marta@grassy.es    La visita puede ser individual o en grupos de máximo 10 a 12 personas. ;; Metro: Banco de España (línea 2), Sevilla (línea 2)  Bus: 1, 2, 3, 5, 9, 15, 20, 46, 51, 52, 53, 74, 146, 150, M2 ;GRAN VIA;CALLE;1;28013;CENTRO;4.041.913.869.883.690;-36.980.657.388.420.200;915 321 007;Museo
Museo del Robot; El Museo del Robot  nace con la idea de acercar de una forma directa y real el apasionante mundo de los robots de entretenimiento a cualquier tipo de público.;  Visitas guiadas regulares  (entrada libre NO disponible):   Martes a viernes: pases a las 13, 17 y 20 horas    Visitas guiadas para grupos:    Martes, miércoles y Jueves, pases (solo mañanas) de 10:30 a 12:00 horas  ;  Exposición permenente  Visitas guiadas  ; Metro: San Bernardo (líneas 2, 4)  Bus: 3, 21, 147 ;ALBERTO AGUILERA;CALLE;1;28015;CENTRO;4.042.949.061.464.900;-37.068.731.815.207.000;914 478 808;Museo
Museo del Romanticismo;;  Verano (del 2 de mayo al 31 de octubre):  de martes a sábados de 9:30 a 20:30 horas. Domingos y festivos de 10 a 15 horas. Jueves de agosto se cierra a las 00 horas (Museo y Café del Jardín).   De 1 de noviembre a 30 de abril:  de martes a sábado, de 9:30 a 18:30 horas. Domingos y festivos, de 10 a 15 horas.   Cerrado: todos los lunes, días 1 y 6 de enero, 1 de mayo, 24, 25 y 31 de diciembre y un festivo local (15 de mayo)  La Tienda y el Café del Jardín se regirán por el mismo horario de invierno. ;  Biblioteca   Sala de exposiciones  Salón de actos  Acceso para minusválidos   Librería  ; Metro: Tribunal (líneas 1, 10), Alonso Martínez (líneas 4, 5, 10)  Bus: 3, 37, 40, 149  Renfe: Recoletos ;SAN MATEO;CALLE;13;28004;CENTRO;4.042.585.510.296.790;-36.987.835.425.963.000;914 481 045 / 914 480 163;Museo
Museo del Seguro. Fundación Mapfre; Ubicado en el edificio de FUundación MAPFRE exhibe una amplia colección de piezas relacionadas con la historia de la actividad aseguradora desde el siglo  XVIII  hasta nuestros días.  ; De lunes a Viernes previa petición de hora.  ; Visitas guiadas y gratuitas para grupos ; Metro: Colón (línea 4)  Bus: 5, 14, 21, 27, 37, 45, 53, 150  Renfe: Recoletos ;BARBARA DE BRAGANZA;CALLE;14;28004;CENTRO;4.042.388.355.388.780;-3.694.059.645.939.100;"916 025 221 (para reservas)                                      
";Museo
Museo del Traje. Centro de Investigación del Patrimonio Etnológico (CIPE); Edificio de carácter monumental, construido por Jaime López de Asiaín en 1969. Se caracteriza por su estructura de hormigón y su exterior de placas metálicas y triple acristalamiento. ; De martes a sábado de 9:30 a 19 horas. Domingos y festivos de 10 a 15 horas.  Verano (julio y agosto): los jueves se amplia el horario hasta las 22:30 horas.  Cerrado: todos los lunes, 1 y 6 de enero, 1 de mayo, 9 de noviembre, 24, 25 y 31 de diciembre. ;  Visitas comentadas para grupos:  de 15 a 25 personas (con reserva previa) durante todo el año.   Visitas extraordinarias para grupos e individuales  se forman grupos 15 a 25 personas (con reserva previa) durante todo el año.   Visitas para personas con discapacidad visual  dos visitas específicas (con reserva previa) durante todo el año.   Visitas guiadas a la exposición permanente   Para participar en las visitas guiadas es necesario inscribirse previamente en el  teléfono 915 504 708 (de lunes a viernes de 10 a 15 horas)  o por el email en   difusion.reservas.mt@mcu.es    ; Metro: Moncloa (líneas 3, 6), Ciudad Universitaria (línea 6)  Bus: 46, 82, 83, 132, 133, G ;JUAN DE HERRERA;AVENIDA;2;28040;MONCLOA-ARAVACA;40.439.657.822.278.500;-37.278.378.564.088.200;915 504 700 (Información);Museo
Museo Geominero; Construcción típica de la arquitectura en hierro y cristal de principios del siglo XX que alberga colecciones de minerales, rocas y fósiles procedentes de todas las regiones españolas y de antiguos territorios coloniales, así como de yacimientos significados del registro mundial.   Objetivos del museo : conservar, investigar y difundir el patrimonio geológico, paleontológico y mineralógico ;  De lunes a domingo y festivos de 9 a 14 horas  Cerrado los días 1 y 6 de enero y 24, 25 y 31 de diciembre  Visitas guiadas para grupos de lunes a viernes, previa petición cita  ;; Metro: Ríos Rosas (línea 1)  Bus: 3, 5, 12, 37, 45, 149 ;RIOS ROSAS;CALLE;23;28003;CHAMBERI;4.044.205.696.051.330;-36.996.705.622.841.400;913 495 759;Museo
Museo Histórico Minero Don Felipe de Borbón y Grecia;Ubicado en la Escuela Técnica Superior de Ingenieros de Minas; Previa cita concertada para grupos   Mercadillo de minerales y fósiles:  primer domingo de cada mes de 10 a 14 horas (en este período se podrá visitar también el museo y la mina)   Exposición anual  el segundo fin de semana (viernes, sábado y domingo) de marzo (el Museo permanecerá abierto todo el día) ;  Visitas guiadas   Colección de minerales, fósiles y rocas   Sección de maquetas y utensilios utilizados tradicionalmente en la minería   Visita a mina experimental (pozo, castillete, galerías y testeros)  ; Metro: Ríos Rosas (línea 1)  Bus: 3, 12, 37, 45, 149 ;RIOS ROSAS;CALLE;21;28003;CHAMBERI;4.044.207.963.042.670;-37.003.900.716.027.700;913 367 029;Museo
Museo Los Caños del Peral. Estación de Metro Ópera;; Viernes, sábados y domingos de 11 a 13 y de 17 a 19 horas ;;Metro: Ópera (líneas 2, 5 y Ramal). ;ISABEL II;PLAZA;1;28013;CENTRO;4.041.775.560.280.740;-3.709.202.070.089.530;902 444 403 / 917 796 399  (Información);Museo
Museo Lázaro Galdiano;;  Martes a sábados de 10 a 16:30 horas.  Domingos de 10 a 15 horas.  Cerrado todos los lunes, 1 y 6 de enero, 28 y 29 de marzo, 1 y 15 de mayo, 15 de agosto, 1 de noviembre y 24, 25 y 31 de diciembre.    Visitas guiadas  al Museo fuera de horario: de 17:30 a 18:45 horas, previa reserva telefónica en el 915 616 084 (extensión 101).    Horario para reserva telefónica: de lunes a jueves, de 8:30 a 16:30 horas, viernes hasta las 14 horas.   Importe: 2 euros (entrada al museo).   Miércoles y jueves: para grupos previamente constituidos.   Viernes para visitantes individuales reunidos para la visita.   ;; Bus: 9, 12, 16, 19, 51, 61  ;SERRANO;CALLE;122;28006;SALAMANCA;40.436.750.328.725.900;-36.861.980.129.207.800;915 616 084;Museo
Museo Nacional Centro de Arte Reina Sofía (MNCARS);  Edificio Sabatini:  calle Santa Isabel 52.   Edificio Nouvel  (ampliación): ronda de Atocha, esquina a plaza del Emperador Carlos V.   Espacios en el parque del Retiro:  Palacio de Velázquez y Palacio de Cristal ;  De lunes a sábado de 10 a 21 horas y domingos de 10 a 19 horas. A partir de las 14:15 solamente permanecerá abierta la Colección 1, Richard Serra y una exposición temporal, por favor consulte en las web del Museo ( http://www.museoreinasofia.es/ ). El resto del Museo permanecerá cerrado.  Martes cerrado (incluso festivos). Las sedes del Parque del Retiro abren todos los días.  Cerrado los días 1 y 6 de enero, 1 de mayo, 15 de mayo, 9 de noviembre y 24, 25 y 31 de diciembre  ;  Biblioteca y Centro de Documentación  Acceso y servicios para personas con discapacidad  Audioguías y radioguías  Librería y tienda  Punto de información (domingos de 10 a 14 horas)  Cafetería y restaurante  Servicio de información y mediación cultural  Actividades para niños, niños con adultos, jóvenes, seminarios, conferencias, ciclos de cine y video, etc  Club de talleres infantiles (información de actividades, descuentos y promociones)  Aparcamiento para biciletas, en la entrada de la plaza Nouvel, a ambos lados del Edificio Sabatini  Aparcamientos públicos de vehículos: estación de Atocha y plaza Sánchez Bustillo  ; Metro: Atocha (línea 1)  Bus:  6 , 8 , 10 , 14 , 19 , 24 , 26 , 27 , 32 , 34 , 36 , 37 , 41 , 45 , 47 , 54 , 55 , 57 , 59 , 60 , 78 , 85 , 86 , 102 , 116 , 118 , 119 , 141 , 148 , 247 , E3 , Circular  Renfe: C2, C3, C4, C5, C7, C8, C10 ;SANTA ISABEL;CALLE;52;28012;CENTRO;4.040.853.230.723.720;-36.940.315.586.451.400;"917 741 000                                                                                                          
";Museo
Museo Nacional de Antropología; El Museo Nacional de Antropología ofrece al público una visión global de la cultura de diferentes pueblos y  establece las semejanzas o diferencias culturales que les unen o separan para poner de manifiesto la riqueza y diversidad de las culturas existentes a lo largo del mundo, favorece la comprensión intelectual y promueve la tolerancia hacia otros pueblos y otras culturas. El Museo está instalado en el edificio de estilo clasicista construido por el Marqués de Cubas en 1875 por encargo del Doctor González Velasco, fundador de la institución. ;  De martes a sábado de 9:30 a 20 horas   Domingos y festivos: de 10 a 15 horas   Cerrado todos los lunes del año, 1 y 6 de enero, 1 de mayo, 24, 25 y 31 de diciembre y un festivo local.   ;   Biblioteca especializada en Antropología:   Horario: lunes a viernes de 9 a 15horas  Servicio de fotocopias y préstamo interbibliotecario.    Programa de actividades para familias  Programa de visitas escolares para Educación Infantil,  Educación Primaria y Educación Secundaria  ; Metro: Atocha  Bus: 6, 7,10, 14, 19, 24, 26, 27, 32, 34, 37, 45, 85, 150, C  Renfe: Atocha ;ALFONSO XII;CALLE;68;28014;RETIRO;4.040.788.746.746.480;-36.888.747.083.604.800;"915 306 418                                                                                                                                      
";Museo
Museo Nacional de Artes Decorativas; Inaugurado en 1912, su sede es un típico palacete madrileño del último tercio del siglo XIX. El museo posee muebles, cerámicas, vidrios, joyas, tejidos, arte oriental, y hasta 30.000 objetos distintos que a lo largo de la historia han servido para embellecer las casas, palacios y los monumentos de distintas culturas.  El museo posee muestras como el Jarrón de Sevres regalo de Napoleón III, la Cocina Valenciana del siglo XVIII compuesta por más de 1.500 azulejos de Manises, la Mesa de plata del siglo XVI o la colección de alfombras españolas de los siglos XV al XVII. ;  De martes a sábados de 9:30 a 15 horas.   Jueves tarde de 17 a 20 horas.  Cerrado los jueves de julio y agosto.  Domingos y festivos de 10 a 15 horas.   Cerrado: todos los lunes del año, y los días 1 y 6 de enero, 1 y 15 de mayo, 24, 25 y 31 de diciembre.  ;  Exposición de piezas españolas y de procedencia extranjera.     Visitas guiadas a la colección permanente.   Los guías voluntarios del Museo Nacional de Artes Decorativas ofrecen visitas gratuitas a la colección permanente los domingos a las 11:30 horas para todos los visitantes y de martes a viernes a grupos (previa petición de hora en el 915 326 499 -  Ext.  101).   Visitas guiadas individuales  los domingos a las 11:30 horas    Información y reservas para grupos:  915 326 499.  Ext.  101 (En caso de cancelación de la visita, se ruega avisar telefónicamente) ; Metro: Banco de España (línea 2) , Retiro (línea 2)  Bus: 1, 2, 5, 9, 10, 14, 15, 16, 19, 20, 27, 28, 34, 37, 45, 51, 52, 53, 74, 146, 148, 150  Cercanías: Recoletos ;MONTALBAN;CALLE;12;28014;RETIRO;404.178.910.680.573;-3.689.790.044.810.550;915 326 499 / 915 326 845;Museo
Museo Nacional de Ciencias Naturales;Construido por Fernando de la Torriente en 1881 con hierro y cristal. De estructura muy similar a los pabellones con destino a exposiciones construídos en la época. Sus jardines albergan un estanque, el monumento a Isabel la Católica y el monumento a la Constitución de 1978.; De martes a viernes, domingos, festivos y lunes festivos de 10 a 17 horas. Sábados, domingos previos a festivos de 10 a 20 horas. Sábados de julio y agosto de 10 a 15 horas.   Cerrado : todos los lunes no festivos, 1 y 6 de enero, 1 de mayo y 25 de diciembre   Biblioteca : de lunes a viernes de 9 a 15 horas. Julio y agosto: de lunes a viernes de 9 a 14,30 horas   Mediateca  (cerrada por obras). ; Biblioteca de Zoología, Entomología, Econología, Evolución, Geología y Paleontología (consulta en sala, información y referencia, reprografía, préstamo personal e interbibliotecario), Archivo, publicaciones, consulta y asesoramiento científico y técnico, exposiciones permanentes y temporales, actividades culturales, talleres, cursos, Sala de proyecciones. Librería especializada. ; Metro: Gregorio Marañón (líneas 7, 10)  Bus: 7, 12, 14, 27, 40, 45, 147, 150 ;JOSE GUTIERREZ ABASCAL;CALLE;2;28006;CHAMARTIN;4.044.042.943.656.610;-3.690.161.856.630.630;914 111 328 (centralita);Museo
Museo Naval; Temática: historia de la navegación española  ;  De martes a domingo de 10 a 19 horas  Cerrado los lunes y los días 1 y 6 de enero, 24 y 25 diciembre  Agosto de 10 a 15 horas  ;; Metro: Banco de España (línea 2)  Bus: 1, 2, 5, 9, 10, 14, 15, 20, 27, 34, 37, 45, 51, 52, 53, 74, 146 ;PRADO;PASEO;5;28014;RETIRO;4.041.751.289.873.050;-3.692.768.317.427.530;915 238 516 (cita previa visitas grupo);Museo
Museo Postal y Telegráfico; Recorrido temático y cronológico por la evolución de los medios de comunicación y colecciones filatélicas de gran valor histórico, temáticas y por países. ;  Museo: de lunes a viernes de 9 a 14 y de 16 a 18 horas  Biblioteca: de lunes a viernes de 9 a 14 horas  ;;Bus: 161;TAPIA DE CASARIEGO;CALLE;6;28023;MONCLOA-ARAVACA;40.467.706.026.917.400;-37.690.721.403.206.700;917 400 668 / 917 400 664 (biblioteca);Museo
Museo Sorolla;;  De martes a sábado: de 9:30 a 20 horas ininterrumpido   Domingo y festivos: de 10 a 15 horas  Cerrado: todos los lunes del año, 1 de enero, 1 de mayo, 24, 25 y 31 de diciembre, y dos festivos locales.  Jueves 30 de julio, 6,13, 20 y 27 de agosto abierto hasta las 23.30 horas.  ;Autoguías, biblioteca y archivo ; Metro: Iglesia (línea 1), Rubén Darío (línea 5), Gregorio Marañón (líneas 7, 10)  Bus: 5, 7, 14, 16, 27, 40, 45, 61, 147 y 150  ;GENERAL MARTINEZ CAMPOS;PASEO;37;28010;CHAMBERI;4.043.557.863.874.970;-36.923.288.211.390.000;913 101 584;Museo
Museo Taurino de la Plaza de las Ventas; Su existencia data del día de San Isidro de 1951, creado por la extinta Diputación Provincial de Madrid. Sirve como testimonio de los momentos estelares del arte y la historia del toreo  ;  Temporada taurina  (de marzo a octubre): de lunes a viernes de 9:30 a 14:30 horas. Domingos, festivos y días de festejo de 10 a 13 horas   Fuera de temporada  (de noviembre a febrero): de lunes a viernes de 9:30 a 14:30 horas ;; Metro: Ventas (líneas 2, 5)  Bus: 12, 21, 38, 53, 106, 110, 146 ;ALCALA;CALLE;237;28028;SALAMANCA;4.043.157.110.306.010;-3.662.872.780.933.850;"917 251 857                     
";Museo
Museo Thyssen Bornemisza; El Palacio donde se ubica la colección fue el antiguo palacio del duque de Villahermosa. Edificación neoclásica. Posteriormente se adapta como entidad bancaria perdiento sus espacios interiores. Más tarde, pasó a formar parte de los edificios del Museo del Prado. Desde principios de los 90 alberga la Colección Thyssen. El museo ofrece un recorrido por la historia de la pintura europea desde sus inicios en el siglo  XIII , hasta finales del siglo  XX.       Horario general:    Colecciones permanentes:  lunes de 12 a 16 horas (acceso gratuito por patrocinio de MasterCard) y de martes a domingo de 10 a 19 horas. Los días 1 de enero, 1 de mayo y 25 de diciembre, el Museo permanecerá cerrado.   Exposiciones temporales:  de martes a domingo de 10 a 19 horas . Sábados de 10 a 21 horas   Exposiciones temporales en verano:  de martes a sábados, de 10 a 22 horas. Lunes y domingos, de 10 a 19 horas.    Montajes expositivos:  lunes de 12 a 16 horas (Carmen en las colecciones españolas y Calles y rostros de Berlín en las colecciones Thyssen- Bornemisza) y de martes a domingo de 10 a 19 horas.  El desalojo de todas las salas tendrá lugar 5 minutos antes del cierre.  ;;  Accesible a personas con discapacidad (física y sensorial)   Folleto y señalización en braille para invidentes  Librería  Tienda  Cafetería  Restaurante  Guardarropa  Servicio de venta anticipada en las taquillas  Servicio de Audio Guía  ; Metro: Banco de España (línea 2)  Bus: 1, 2,  5, 9, 10, 14, 15, 20, 27, 34, 37, 45, 51, 52, 53, 74, 146, 150  Renfe: Recoletos ;PRADO;PASEO;8;28014;CENTRO;4.041.600.553.697.800;-3.694.744.831.131.070;"902 760 511 (Información general)                                                                                                                                                                                                 
";Museo
Museo Tiflológico;Edificio con una superficie de 1.500  m2  dividido en tres zonas con maquetas de monumentos nacionales e internacionales realizadas por invidentes e instrumentos utilizados por los invidentes desde hace 200 años. Es un espacio concebido para que sus visitantes puedan ver y tocar las piezas expuestas.; Martes a viernes de 10 a 14 horas y de 17 a 20 horas. Sábados de 10 a 14 horas. Lunes, domingos y festivos cerrado.  Las visitas de grupos se realizan previa reserva, de 8 a 14:30 horas, en el teléfono de  información:+34  915 894 292 ;Apropiado para niños a partir de 10 años; Metro: Estrecho  Bus: 3, 42, 64, 66, 124, 127 ;LA CORUÑA;CALLE;18;28020;TETUAN;4.045.519.790.204.090;-37.001.960.485.997.500;915 894 290;Museo
Palacio de Liria; Construído por Ventura Rodríguez entre 1762 y 1780 para el tercer Duque de Berwick y de Liria. De estilo barroco clásico. Destaca su fachada con columnas jónicas y pilastras que descansan sobre un basamento almohadillado.  ; Viernes: visita guiada a las 10 horas, 11 horas y 12 horas.  Visitas: previa petición de cita por escrito o por fax ;; Metro: Ventura Rodríguez (línea 3)  Bus: 1, 2, 44, 74, 133, C ;PRINCESA;CALLE;20;28008;CENTRO;4.042.680.681.645.220;-37.125.979.731.032.400;91 547 53 02;Museo
Palacio Real; Construido sobre el solar del antiguo Alcázar tras un incendio en 1734. Proyectado por Juvara en 1735 y construido por Sachet de 1738 a 1764 bajo las influencias del clasicismo barroco. A partir de 1770, Sabatini añadió el ala sudeste y realizó la gran escalera. Es de destacar el gran patio que articula el edificio y la fachada principal que aloja el balcón y Escudo Real.  Dentro se encuentra el Museo Real Oficina de Farmacia (cerrado por obras de remodelación). ;  De octubre a marzo: de 10 a 18 horas.  De abril a septiembre: de 10 a 20 horas.  Cierre taquillas una hora antes.  Cerrado:   Enero: días 1, 6.  Mayo: día 1.  Octubre: día 12.  Diciembre: 25, los días 24 y 31 taquillas 14 horas cerradas y monumento a las 15 horas cerrado.    El  7 de diciembre  abierto horario de mañana y tarde.  ;" Librería. Exposición permanente Cuarteto Real (colección de cinco stradivarius). Visita incluida en el precio de la entrada. Más información: teléfono 91 542 00 59. Accesible a personas con minusvalía (física).   Iluminación del Palacio : todos los días, del atardecer hasta las 2 de la madrugada   Cambio de guardia : primer miércoles de cada mes (si la climatología lo permite) a las 12 horas, en la Plaza de la Armería. Además se producirá un cambio de guardia reducido el resto de miércoles del mes a las 12 horas, en la Puerta del Príncipe (Plaza de Oriente). Sin relevo: en julio, agosto y septiembre.   Archivo General de Palacio     Horario:  lunes, miércoles y viernes de 9 a 14:30 horas; martes y jueves de 9 a 18 horas  "; Metro: Ópera (líneas 2, 5 y Ramal Opera Norte)  Bus: 3, 25, 39, 148 ;BAILEN;CALLE;0;28013;CENTRO;4.042.075.212.551.190;-3.712.699.107.286.400;914 548 700 (Información general);Museo
Panteón de Hombres Ilustres; La construcción de este edificio responde a dos de las constantes de fines de siglo: la arquitectura historicista y la escultura funeraria. En él reposan trece personajes ilustres de la historia política y militar española. ;"  De martes a sábado de 10 a 14 y de 16 a 18:30 horas  Domingos y festivos de 10 a 15 horas. Lunes cerrado   Cerrado :    Enero los días 1 y 6  Mayo el día 1  Diciembre el día 25 ; los días 24 y 31 (desde las 14:30 horas), monumento cerrado a las 15 horas.    Cierre del acceso al monumento media hora antes.  Nota. El  7 de diciembre  abierto en horario de mañana y tarde.  ";; Metro: Atocha (línea 1)  Bus: 10, 14, 24, 32, 37, 54, 57, 141  Renfe: Atocha ;JULIAN GAYARRE;CALLE;3;28014;RETIRO;4.040.622.617.519.110;-3.683.413.041.846.520;914 548 700 (Información general);Museo
Parroquia Santa Cruz;;;; Metro: Sol (líneas 1, 2, 3), Tirso de Molina (línea 1)  Bus: 3, 6, 17, 18, 23, 26, 31, 32, 35, 50, 65, M1  Renfe: Sol ;ATOCHA;CALLE;6;28012;CENTRO;40.414.608.558.946.000;-3.705.255.882.048.690;913 691 239;Museo
Planetario de Madrid; Inaugurado el 29 de septiembre de 1986, es un centro dependiente del Área de Cultura y Deportes del Ayuntamiento de Madrid.  Siempre con el fin de contribuir a la difusión de la astronomía y de la ciencia en general, tanto entre escolares como entre el público de cualquier edad y condición, posee una variada oferta de  proyecciones  audiovisuales,  exposiciones  y  actividades  (talleres, cursos, conferencias, observaciones públicas...).  Las proyecciones que se ofrecen en el Planetario de Madrid se renuevan periódicamente, y tienen una duración aproximada de 45 minutos.  Existen dos programaciones básicas diferentes: una activa durante el verano y época de vacaciones escolares, y otra durante el curso escolar. Durante el curso escolar, las proyecciones de las mañanas de los días lectivos se reservan a  escolares . ;  Horario:     De martes a viernes (días lectivos): de 9:30 a 13:45 horas, y de 17 a 19:45 horas.  Sábados, domingos y festivos (excepto lunes): de 11 a 13:45 horas, y de 17 a 20:45 horas.    Días de cierre:     Todos los  lunes  del año .   Días 24, 25 y 31 de diciembre, y 1 de enero. Día 5 de enero (tarde), y 6 de enero (mañana).  Revisión técnica anual: para el año 2016,  del 11 al 22 de enero.   ;  2 salas de exposiciones  Sala de Astrónomos  Sala de Vídeo  Sala de Proyección  Sala de Retroproyección  Venta de catálogos de exposiciones del Planetario de Madrid  ; Metro: Méndez Álvaro (línea 6)   Bus: 148, 156 ;PLANETARIO;AVENIDA;16;28045;ARGANZUELA;4.039.227.092.120.190;-3.684.968.648.157.020;"914 673 461 (reserva grupos)                                                                                                                                                                                                                                                                                                                                                                 
914 673 898 (contestador automático de información)";Museo
Real Basílica San Francisco el Grande; Conjunto conventual que sustituyó al monasterio franciscano medieval, construido por Francisco de las Cabezas entre 1761 y 1768, que fue relevado por Antonio Polo y que concluye Francisco Sabatini en 1784 donde se exponen colecciones de pinturas de los siglos  XVII  al  XIX.  ;  Museo:     De martes a viernes de 10:30 a 12:30 y de 16 a 18 horas  Sábados de 10:30 a 12:30 y de 16 a 18 horas (si no se ofician actos religiosos).   Julio y agosto: de martes a domingo de 10:30 a 12:30 y de 17 a 19 horas.  ;; Metro: La Latina (línea 5) , Puerta de Toledo (línea 5)  Bus:  3, 17, 18, 23, 31, 35, 36, 41, 50, 60, 65, 148, 749, C1, C2 ;SAN BUENAVENTURA;CALLE;1;28005;CENTRO;4.041.084.005.024.220;-3.714.503.845.728.280;913 653 800;Museo
Real Fábrica de Tapices;; De lunes a viernes de 10 a 14 horas.   Cerrado: sábados, domingos, Semana Santa y agosto. ;Salones para eventos; Metro: Menéndez Pelayo (línea 1)  Bus: 10, 14, 26, 32, C ;FUENTERRABIA;CALLE;2;28014;RETIRO;40.406.087.329.011.600;-3.682.515.969.574.070;914 340 550;Museo
Real Monasterio de la Encarnación; Edificio construído por Juan Gómez de Mora de 1611 a 1616 como monasterio anejo al Alcázar Real, modelo de lo que se ha dado en llamar barroco madrileño. Cuenta con la reliquia de San Pantaleón. ;  De martes a sábado: de 10 a 14 horas y de 16 a 18:30 horas  Domingos y festivos: de 10 a 15 horas. Tardes cerrado  Cierre taquillas: una hora antes  Cerrado:   Enero: días 1 y 6.  Abril: del 1 al 4 inclusive, semana santa.  Mayo: día 1  Diciembre: 24,25 y 31.  El día  7 de diciembre  abierto horario de mañana y tarde.    ;; Metro:  Ópera (líneas 2, 5 y Ramal Ópera Príncipe Pío), Plaza de España (líneas 3, 10)  Bus:  1, 2, 3, 25, 39, 44, 46, 74, 75, 133, 138, 147, 148, C1, C2 ;ENCARNACION;PLAZA;1;28013;CENTRO;4.041.967.800.877.380;-3.711.567.962.866.150;914 548 700 (Información general);Museo
Real Monasterio de Santa Isabel; El Real Monasterio de Santa Isabel está situado en Madrid, dentro de la ciudad histórica, en una gran manzana, próxima a Atocha.  Santa Isabel agrupa dos fundaciones, un colegio de niñas, establecido por Felipe II, y un convento de clausura de monjas agustinas recoletas, fundado por la esposa de Felipe III, doña Margarita de Austria.   La arquitectura de la iglesia se debe a Gómez de Mora, de mediados del siglo XVIII. En la clausura se conservan numerosas obras pictóricas de los siglos XVII y XVIII. ; El acceso al templo sólo es posible en horario de culto ;;;SANTA ISABEL;CALLE;48;28012;CENTRO;4.041.213.027.498.250;-36.994.547.941.964.900;914 548 700 (Información general);Museo
Real Sitio de El Pardo; Recinto en el que se conserva el Palacio, construido sobre el castillo del siglo  XV , la Casita del Príncipe, del siglo  XVIII  y la Quinta del Duque de Arco (Palacete que fue Casa de Labor y sus tierras). Desde 1983 ha sido adecuado para residencia de Jefes de Estado extranjeros en visita oficial. ;  De octubre a marzo: todos los días de 10 a 18 horas  De abril a septiembre: todos los días de 10 a 20 horas  Cerrado:    Enero: días 1 y 6.  Mayo: día 1.  Diciembre: 24, 25 y 31.    ;;Bus: 601 (Madrid - Colonia Mingorrubio);MANUEL ALONSO;CALLE;8;28048;FUENCARRAL-EL PARDO;40.520.522.342.970.100;-37.762.390.614.462.800;914 548 700 (Información general);Museo
Templo de Debod; Templo egipcio dedicado a Amón de Debod y a Isis, construido entre 185  a. de C.  y el siglo  I  de la Era. Fue donado por Egipto a España en 1968, en agradecimiento por la ayuda en el salvamento de los templos de Abu Simbel. ;  De 1 de octubre a 31 de marzo   De martes a viernes de 9:45 a 13:45 y de 16:15 a 18:15 horas  Sábados, domingos y festivos de 9:30 a 20 hora    De 1 de abril a 30 de septiembre   De martes a viernes de 10 a 14 y de 18 a 20 horas  Sábados, domingos y festivos de 9:30 a 20 horas.     El templo permanece cerrado los lunes y los festivos 1 de enero, 1 de mayo y 25 de diciembre.  Último pase de visita 15 minutos antes del cierre.  Este horario y la apertura de salas pueden sufrir modificaciones, por favor, confírmelo en el teléfono de información del museo.  ;  No cuenta con accesos adaptados para minusválidos   Exposición permanente : Debod un templo ptolemaico  Actividades didácticas: talleres para grupos escolares, talleres de profesores, visitas guiadas, talleres para familias.  Se pueden realizar fotografías o grabaciones de vídeo libremente en el exterior o en el interior del templo, siempre y cuando no se utilicen flash o trípode y su fin no sea comercial.  ;  Metro:  Plaza de España (líneas 3 y 10) y Ventura Rodríguez (línea 3)   Autobús    Línea 74 (paradas en la calle Ferraz, frente al Templo, y en la calle Pintor Rosales)  Líneas 25, 39, 46, 75, 138 y C1 (parada en Cuesta de San Vicente-Cadarso)  Líneas 3, 44, 133, 148 y C2 (parada en Plaza de España)  Líneas 1, 2, 74 (parada en Princesa-Ventura Rodríguez)    Renfe:  Príncipe Pío   Bus turístico:  Ruta 1. PARADA 10 - Templo de Debod   Otras formas de acceso:    Aparcamiento de bicicletas: Calle Ferraz, junto al acceso principal a los jardines del Templo.  Aparcamiento de coches: dentro del Área de Estacionamiento Regulado de la ciudad de Madrid.  El aparcamiento público más cercano está situado en Plaza de España.  ;FERRAZ;CALLE;1;28008;MONCLOA-ARAVACA;4.042.425.096.551.590;-3.716.531.855.540.270;913 667 415 (Museo de San Isidro / Templo de Debod));Museo
Yacimiento paleontológico. Estación de Metro Carpetana;; Visitas todos los días durante la apertura de la estación, de 6 a 1:30 horas ;;;VIA CARPETANA;CALLE;328;28047;LATINA;4.039.150.793.405.890;-37.428.839.286.586.100;902 444 403 (Información);Museo
