NOMBRE;DESCRIPCION-ENTIDAD;HORARIO;EQUIPAMIENTO;TRANSPORTE;NOMBRE-VIA;CLASE-VIAL;NUM;CODIGO-POSTAL;DISTRITO;LATITUD;LONGITUD;TELEFONO;TIPO
Bululú 2120;;;; Metro: Palos de la Frontera (línea 3)  Bus: 6, 8, 19, 45, 47, 55, 59, 85, 86, 247  Cercanías: Delicias y Atocha ;CANARIAS;CALLE;16;28045;ARGANZUELA;40.401.958.738.062.300;-36.965.212.526.388.800;913 600 193 (Información y reservas) ; Teatro
Centro de Enseñanza Réplika Teatro. Academia del Actor;;;  Cursos de interpretación y canto  Talleres de teatro para niños  ; Metro: Guzmán el Bueno  (líneas 6, 7)  Bus: 44, 45, 127, C1, C2, F ;PEDRO JUSTO DORADO DELLMANS;CALLE;8;28040;MONCLOA-ARAVACA;40.448.692.123.387.000;-37.122.040.788.250.800;915 350 570; Teatro
Centro de Nuevos Creadores (Sala Mirador); El Centro de Nuevos Creadores cuenta desde el año 1985 con producciones propias y con un espacio de exhibición: El Teatro CNC- Sala Mirador. Este teatro ofrece una programación estable durante todo el año que combina teatro, danza, música, proyecciones audiovisuales y muestras de jóvenes estudiantes.  ; Días de cierre: domingo ;; Metro: Lavapiés (línea 3), Embajadores (línea 3)  Bus: 27, 34, 36, 41, 119, C1, C2, E1, M1  Renfe: Embajadores ;DOCTOR FOURQUET;CALLE;31;28012;CENTRO;4.040.706.148.755.640;-36.989.073.365.849.700;915 289 504; Teatro
DT Espacio Escénico;DT Espacio Escénico es un lugar para exhibir espectáculos con lenguaje escénico mixto y utilización de escenarios no convencionales. Ofrece una programación continuada y varios ciclos de teatro, danza y cabaret;;; Metro: Gran Vía (líneas 1, 3)  Bus: 1, 2, 3, 46, 74, 146, M2 ;REINA;CALLE;9;28004;CENTRO;4.042.040.457.289.980;-3.700.283.103.997.510;915 217 155 ; Teatro
Escuela y Sala de teatro. La Usina;Este local es a su vez una sala teatral y un espacio de formación donde todos sus profesores son profesionales del ámbito teatral, ya sean actores, directores o dramaturgos. Se caracteriza por ser un lugar de creación e investigación, donde los alumnos pueden desarrollar con libertad y autonomía sus propios proyectos teatrales, y en su programación ocupan un lugar destacado las obras dedicadas al público infantil. ;;; Metro: Embajadores (línea 3)  Bus: 6, 55, 59, 60, 78, 85, 148, E1  Renfe: Embajadores ;PALOS DE LA FRONTERA;CALLE;4;28012;ARGANZUELA;4.040.262.160.672.360;-3.700.134.139.930.530;914 684 754; Teatro
Espacio Labruc; Espacio Labruc es un lugar de creación, experimentación, investigación y formación escénica y visual ubicado en el barrio madrileño de Malasaña que nace con la intención de difundir la creación y el pensamiento contemporáneos. Centra su actividad en el comisariado de artes escénicas y visuales como plataforma de exhibición de piezas de pequeño formato, sin dejar de lado la performance, los conciertos acústicos o la danza contemporánea. ;;; Metro: Bilbao (líneas 1, 4), Alonso Martínez (líneas 4, 5, 10)  Bus: 40, 149, M2 ;PALMA;CALLE;18;28004;CENTRO;40.426.279.583.153.400;-37.030.672.051.282.800;; Teatro
Extensión AVAM. Matadero Madrid; La Asociación de Artistas Visuales de Madrid dispone de un espacio en Matadero destinado a  la participación, debate y visibilidad de las producciones de los artistas. ;;; Metro :  Legazpi (líneas 6, 3)  Bus: 6 , 8 , 18 , 19 , 45 , 78 , 148  Renfe: Embajadores ;CHOPERA;PASEO;14;28045;ARGANZUELA;4.039.241.367.848.800;-3.697.259.467.865.360;; Teatro
Factoría cultural. Matadero Madrid; El nuevo vivero de industrias creativas, con capacidad para más de 100 puestos de trabajo, ofrece a los emprendedores creativos la posibilidad de llevar a cabo sus proyectos en un espacio flexible y multidisciplinar, en el entorno privilegiado de Matadero Madrid. ;;; Metro :  Legazpi (líneas 6, 3)  Bus: 6 , 8 , 18 , 19 , 45 , 78 , 148  Renfe: Embajadores ;CHOPERA;PASEO;14;28045;ARGANZUELA;4.039.241.367.848.800;-3.697.259.467.865.360;"636 54 68 50                                
"; Teatro
Fernán Gómez. Centro Cultural de la Villa;;   Atención general:  de 9 a 15 y de 16 a 21 horas.   Oficinas:  de lunes a viernes de 9:30 a 14:30 y de 17 a 19 horas.   Venta anticipada de entradas en taquillas:  de martes a domingo de 11 a 13:30 y de 17 a 19 horas. Lunes cerrado   Exposiciones:  varia según la exposición, consultar en la  página web del Centro   ;  Sala Guirau (aforo 689 personas)  Sala Jardiel Poncela (aforo desde 95 hasta 175 personas, depende de la disposición de la obra que represente)  Sala de exposiciones (1500  m2 )  Espacios exteriores (21.402  m2 )  Cafe Colón  Venta de catálogos de exposiciones y de libros editados por el Teatro   En todas las salas y en las taquillas del teatro se dispone del sistema de Bucle Inductivo de audio, para que las personas con problemas de audición puedan comprar sus entradas y disfrutar de los espectáculos en programación.  Las personas con movilidad reducida, deben comunicarlo antes de adquirir sus localidades. ; Metro: Colón (línea 4), Serrano (línea 4)  Bus: 1, 5, 9, 14, 19, 21, 27, 45,  51, 53,  74, 150  Renfe: Recoletos ;COLON;PLAZA;4;28001;SALAMANCA;40.424.926.347.610.700;-36.899.208.519.663.400;"914 362 540 Ext. 200 (Información general) / Ext. 208 (precios grupos, Amigos del Fernán Gómez y promociones)                         
"; Teatro
Karpas Teatro; Karpas es una pequeña sala, con 60 butacas, que ofrece producciones propias y de compañías invitadas. Además, colabora y participa en certámenes y festivales. Nace como teatro de cámara independiente en los años 70. Sus fundadores fueron Julio Pascual y Javier Franquelo, dos profesionales del mimo. Su escuela-taller forma cada año en el arte de la interpretación a jóvenes actores.  ; Días de cierre: lunes ; Objetos perdidos ; Metro: Anton Martín (línea 1), Atocha (línea 1)  Bus: 6, 26, 32 ;SANTA ISABEL;CALLE;19;28012;CENTRO;4.041.045.615.490.080;-36.977.049.393.895.800;915 396 236; Teatro
Kubik Fabrik;" &shy;&shy;&shy;Situada en una antigua nave industrial en el barrio de Usera,  la sala de teatro Kubik Fabrik es un espacio innovador que acoge proyectos de carácter local realizados por compañías y artistas alternativos. Por su escenario han pasado espectáculos recién salidos del horno y que más tarde se han ido estrenando en otras salas de la capital.   Además, la sala es un espacio que fomenta la integración a través de la exhibición de obras de compañías que trabajan con personas discapacitadas como La fundación de psicoballet Maite León.  Kubik Fabrik también ha producido sus propias obras entre las que destacan Metro cúbico, El gran atasco o Los mundos posibles. ";;; Metro. Plaza Elíptica (líneas 6, 11)  Bus: 6, 60, 81  Renfe: Hospital 12 de Octubre ;"PRIMITIVA GA&Ntilde;AN";CALLE;5;28026;USERA;4.038.091.743.834.920;-37.092.161.504.993.100;917 921 025; Teatro
Microteatro Por Dinero; Un nuevo concepto de formato teatral: micro obras de entre diez y quince minutos, sobre un mismo tema, representadas en espacios pequeños para menos de quince espectadores por pase y seis sesiones al día. De esta forma, el espectador puede elegir tanto el tiempo que quiere pasar en el teatro, según el número de obras que quiera ver, como el precio que quiere pagar, ya que cada visita a una sala se paga de forma individual. Microteatro es también un espacio multifuncional en el centro de Madrid donde también se puede asistir a microteatro infantil, conciertos, proyección de películas inéditas, arte, experimentación, alquiler de espacios para todo tipo de eventos, un bar... todo esto en un local que en su día fue un burdel y que ahora es un centro para la cultura y el ocio. ;;  Tienda  Restauración  ; Metro: Callao (líneas 3, 5), Gran Vía (líneas 1, 5), Santo Domingo (línea 2)  Bus: 1, 2, 3, 44, 46, 74, 75, 133, 147, 148 ;LORETO Y CHICOTE;CALLE;9;28004;CENTRO;4.042.152.574.011.690;-37.040.668.231.939.400;915 218 874; Teatro
Multiespacio La Strada;;;  Actividades en familia  Teatro, cuentacuentos, danza para niños  ; Metro: Quevedo (línea 2)  Bus: 16, 61, 149 ;MAGALLANES;CALLE;23;28015;CHAMBERI;40.435.344.224.129.600;-3.705.767.250.398.430;"914 464 849   
"; Teatro
Naves del Español; Espacio escénico ubicado en el  Matadero Madrid,  gestionado por el Teatro Español y concebido por el creador de espacios escénicos Jean Guy Lecat. Las naves forman un conjunto dotado de gran flexibilidad, que permite el funcionamiento autónomo de tres espacios interconectados. ;;"  Servicio de bar abierto media hora antes del inicio de la función  Los asientos están instalados sobre gradas  Las personas con movilidad reducida deben comunicarlo al adquirir su localidades  Salas   Sala Fernando Arrabal: especio escénico inaugurado en 2006. La sala es totalmente polivalente, lo cual permite realizar espectáculos con diferente planteamiento esec&acute;nico  Sala Max Aub: incorpora 2.500 m/2 al complejo escénico  Café teatro: funciona como vestíbulo del conjunto del complejo ese&acute;cnico, constituyendo un espacio de cogida, con cafetería y con la posibilidad de ofrecer cierto tipo de espectáculos de aforo reducido: caf&ccedil;e concert, música en vivo, muic hall, espectáculos de pequeño formato, etc.    "; Metro :  Legazpi (líneas 6, 3)  Bus: 6 , 8 , 18 , 19 , 45 , 78 , 148  Renfe: Embajadores ;CHOPERA;PASEO;14;28045;ARGANZUELA;4.039.241.367.848.800;-3.697.259.467.865.360;"914 730 957 (taquilla)                                
"; Teatro
Nuevo Teatro Alcalá;" La sala nació bajo el nombre de Coliseo Pardiñas en 1927 y fue obra de Luis Ferrero. Posteriormente se llamó Coliseo Alcalá  y transcurridos unos años Teatro Alcalá Palace.  Bajo este último nombre el teatro vivió años de esplendor  y por su programación no faltaban importantes zarzuelas y más destacadas figuras del flamenco. Durante la década de los 70 se estrenó el musical &quot;Jesucristo Superstar&quot;, exitoso a la vez que polémico.  En los años ochenta tuvo que cerrar y no fue abierto hasta el año 2001.  Después de catorce años el empresario Alejandro Romay, junto con la arquitecta Margarita Massó, levantó el actual Nuevo Teatro Alcalá donde antes se erguía el antiguo Teatro Alcalá Palace.  El nuevo teatro cuenta con dos salas. La más importante es la más grande con su estilo y disposición tradicional a la italiana, su gran patio de butacas y la distribución de los espacios la convierten en un sala única con buena visibilidad en todos sus ángulos. La siguiente sala es un espacio polivalente de teatro y está ubicada en el subsuelo del edificio. Tiene una disposición y estilo más modernos, perfecta para acoger obras de corte más vanguardista. "; Cerrado el lunes ;  Restaurante  Objetos perdidos  Ascensor   Consigna /guardarropa  ; Metro: Príncipe de Vergara (líneas 2, 9), Goya (líneas 2, 4)  Bus: 2, 15, 28, 29, 30, 43, 63, 146, C1 ;JORGE JUAN;CALLE;62;28009;SALAMANCA;4.042.340.075.550.410;-3.678.258.596.986.860;914 264 779 ; Teatro
Off de la Latina; Este espacio cultural se encuentra situado en pleno corazón de Madrid, en el barrio de La Latina. En él se puede disfrutar de diferentes espectáculos de teatro, danza y música, en especial jazz y flamenco. El local tiene una superficie de 320 metros cuadrados repartidos en tres zonas bien diferenciadas: la planta principal, donde se encuentra en bar, la cava alta donde se sitúa el teatro, y la cava baja, antigua carbonería del siglo XVII reservada para los eventos más íntimos y especiales.  ; Días de cierre: lunes y martes ;; Metro: La Latina (línea 5)  Bus: 3, 31, 50, 60, 65, 148 ;MANCEBOS;CALLE;4;28005;CENTRO;4.041.204.479.812.580;-37.119.825.698.992.800;911 691 419; Teatro
Sala Azarte;;;; Metro: Chueca (línea 5)  Bus: 1, 2, 3, 46, 74, 146, M2 ;SAN MARCOS;CALLE;19;28004;CENTRO;4.042.140.719.770.070;-3.698.360.306.512.040;915 226 768 (reserva de localidades); Teatro
Sala Clan;;;  Restaurante   Bar de copas  ; Metro: Acacias (línea 5), Embajadores (línea 3)  Bus: 34, 36, 41, 60, 62, 116, 118, 119, 148, C1, C2  Renfe: Embajadores ;TOLEDO;RONDA;20;28005;ARGANZUELA;40.405.455.383.460.900;-3.706.727.738.985.040;915 288 401; Teatro
Sala el Montacargas;Sala de teatro alternativo;;; Metro: Puerta del Ángel (Línea 6)  Bus: 31, 33, 36, 39, 65, 138 ;ANTILLON;CALLE;19;28011;LATINA;40.411.774.419.017.800;-3.727.914.502.030.770;915 261 173; Teatro
Sala La Escalera de Jacob; Situado en Lavapiés, es un espacio con vocación intercultural en el que tienen cabida todo tipo de expresiones artísticas concebidas para un público exigente y alejadas de los circuitos convencionales. Teatro, cine, conciertos, exposiciones, etc. ;;Bar ; Metro: Tirso de Molina (línea 1), Antón Martín (línea 1), Lavapiés (línea 3)  Bus: 6, 26, 32, 65, M1 ;LAVAPIES;CALLE;11;28012;CENTRO;4.041.121.799.500.780;-37.028.161.421.960.300;695 263 509; Teatro
Sala La Pensión de las Pulgas;;  De lunes a domingo de 11 a 14 y de 17 a 20 horas  ;; Metro: Antón Martín (línea 1)  Bus: 6, 26, 32 ;HUERTAS;CALLE;48;28014;CENTRO;40.413.234.253.652.100;-36.971.561.016.982.700;638 752 812; Teatro
Sala La Puerta Estrecha;;;; Metro: Lavapiés (línea 3), Embajadores (líneas 3)  Bus: 27, 34, 36, 41, 60, 78, 116, 118, 119, 148, C1, C2, E1, M1  Renfe: Embajadores ;AMPARO;CALLE;94;28012;CENTRO;40.406.339.903.345.900;-3.700.538.007.164.600;914 672 224; Teatro
Sala Maravillas Club;La antigua sala Nasty, en pleno barrio de Malasaña, es hoy un local dedicado a las artes escénicas. Mientras su Espacio Artefacto ofrece microteatro, clásicos indies o teatro para niños y adolescentes, el espacio Stand The Pace programa música en vivo, con actuaciones de grupos de rock y pop indie, y conciertos en formato íntimo de solistas y dúos. Esta sala también ofrece sesiones temáticas de música como PartyMonster, MarnieClub, Viva Las Vegas, Hard Candy (BCN) o Gran Ganga.;;  Servicios complementarios    Espectáculo  Guardarropa   ; Metro: Noviciado (línea 2), Tribunal (línea 1, 10)  Bus: 3, 40, 147, 149, M2 ;SAN VICENTE FERRER;CALLE;33;28004;CENTRO;4.042.576.743.226.590;-3.704.323.244.994.760;674 256 152; Teatro
Sala Milagros; Esta sala se ha especializado en teatro radiofónico por lo que cuidan especialmente el sonido con una amplia gama de micrófonos y también con una cúpula de sonido envolvente para los conciertos en directo, que hace que los espectadores sientan que están dentro de la banda de música.  Desde La Sala Milagros buscan apoyar a los nuevos creadores produciendo espectáculos originales y novedosos. Aquí se quieren apoyar nuevas propuestas y ese es el empeño de esta sala que nace con el respaldo de Tholma, la emisora de radio por internet Aire y también de una asociación de vecinos. ;;; Bus: 23, 116 ;INMACULADA CONCEPCION;CALLE;35;28019;CARABANCHEL;4.039.176.330.264.340;-37.123.227.018.660.000;600 402 818; Teatro
Sala Nave 73;Espacio multicultural, situado en el barrio de Embajadores, que ofrece una programación variada de conciertos que van desde el jazz o el blues hasta el indie. Cuenta además con una pequeña galeria de exposiciones donde se muestra la obra de autores nacionales e internacionales.;;Cafetería; Metro: Embajadores (línea 3), Palos de la Frontera (línea 3)  Bus: 8, 19, 45, 47, 60, 78, 86, 148 ;PALOS DE LA FRONTERA;CALLE;5;28012;ARGANZUELA;4.040.316.180.456.700;-36.987.020.172.137.400;917 049 583; Teatro
Sala Tarambana;La compañía Tarambana ofrece en su sala todo tipo de espectáculos y producciones para todo tipo de público, con música, danza o teatro infantil.;;; Metro: Carabanchel (línea 5)  Bus: 17, 34, 35 ;DOLORES ARMENGOT;CALLE;31;28025;CARABANCHEL;4.038.580.301.942.370;-37.432.218.183.125.800;914 618 334; Teatro
Sala Triángulo;Espacio escénico para la comunicación, creación, formación y difusión de la cultura, el arte y el ocio alternativos, actual (en tiempo y acción) y abierto. Es sede y referencia obligada para todas aquellas compañias de pequeño y mediando formato, nacionales e internacionales, que quieran trabajar en Madrid.;Cerrado los lunes;; Metro: Lavapiés (línea 3), Antón Martín (línea 1)  Bus: 10, 26, 27, 36, 37, 57, 119 ;ZURITA;CALLE;20;28012;CENTRO;4.040.967.281.072.630;-3.699.122.921.978.140;915 306 891; Teatro
Sala Tú;" Esta sala de teatro dedicada a los espectáculos de pequeño y mediano formato, está situada en el corazón de Malasaña y es gestionada de manera privada por  profesionales de las artes escénicas. El espacio cuenta con una pequeña sala para las representaciones y un café-ambigú donde tomar algo después.  Además de una programación regular de obras de teatro y diversos espectáculos tanto para público adulto como infantil, SALA TÚ ofrece formación para actores  a través de cursos trimestrales y &lsquo;master classes' de interpretación, canto o danza.  ";;; Metro: Tribunal (líneas 1, 10), Bilbao (líneas 1, 4), Noviciado (línea 2)  Bus: 3, 21, 40, 147, 149 ;VELARDE;CALLE;15;28004;CENTRO;4.042.680.028.110.070;-3.703.367.344.935.000;910 176 802 ; Teatro
Tablao Flamenco Café de Chinitas; Descendiente del malagueño primer Café Chinitas del siglo pasado, este local ofrece un novísimo tablao flamenco acompañado con una cocina selecta ; De lunes a sábado de 19 horas a 00 horas   Actuaciones    Dos actuaciones de lunes a sábado a las 20:15 horas y 22:30 horas   ;  Tablao flamenco  Restaurante  ; Metro: Santo Domingo (línea 2), Ópera (líneas 2, 5)  Bus: 1, 2, 3, 25, 39, 44, 46, 74, 75, 133, 138, 146, 147, 148, C1, C2 ;TORIJA;CALLE;7;28013;CENTRO;404.207.390.288.608;-37.104.357.404.041.300;915 595 135; Teatro
Tablao Flamenco Casa Patas;; Cerrado los domingos   Actuaciones :    De lunes a jueves a las 22:30 horas  Viernes y sábado a las 21 y a las 24 horas  ;Tablao flamenco, restaurante; Metro: Tirso de Molina (línea 1), Sol (líneas 1, 2, 3)  Bus: 6, 26, 32, 50, 65, M1 ;"CA&Ntilde;IZARES";CALLE;10;28012;CENTRO;40.412.729.068.876.000;-37.017.357.416.661.100;913 690 496; Teatro
Tablao flamenco Las Tablas; Espacio escénico: flamenco, jazz, blues, teatro y actuaciones para niños... ;;; Metro: Plaza de España (líneas 3, 10)  Bus: 3, 25, 39, 46, 74, 75, 138, 148, C1, C2, SE730 ;ESPAÑA;PLAZA;9;28008;MONCLOA-ARAVACA;4.042.198.032.023.040;-3.713.678.674.361.510;915 420 520; Teatro
Teatro Alfil; Es una sala con más de medio siglo de historia. Actualmente, se encuentra a mitad de camino entre lo comercial y lo alternativo. El escenario es de reducidas dimensiones y carece de 'peine', por lo que no permite montar escenografías aparatosas, pero los espectadores gozan de completa visibilidad desde cualquier localidad y los artistas trabajan con sensación de cercanía al público.  ;;  Objetos perdidos  Restaurante  ; Metro: Noviciado (líneas 2, 3, 10)  Bus: 1, 2, 44, 46, 74, 75, 133, 147, 148 ;PEZ;CALLE;10;28004;CENTRO;404.231.448.936.827;-37.044.727.114.319.800;915 214 541; Teatro
Teatro Amaya;Alberga además de grandes producciones teatrales, exposiciones de pintura, fotografía, etc. Busca de esta manera, abrir una puerta más a la cultura de la ciudad.; Cerrado los lunes ;  Restaurante  Consigna / guardarropa  ; Metro: Iglesia (línea 1)  Bus: 16, 53, 61 ;GENERAL MARTINEZ CAMPOS;PASEO;9;28010;CHAMBERI;4.043.513.498.732.230;-3.697.193.610.846.830;915 934 005 (Taquillas); Teatro
Teatro Arlequín Gran Vía;Fue proyectado por  Enrique López-Izquierdo . Está situado muy  cerca de la Gran Vía , en el bajo de un gran edificio conocido como Los Sótanos. El Arlequín, como el Bellas Artes y el Príncipe, tiene la singularidad de estar bajo el nivel de la calle. Es actualmente una sala con capacidad para unos  350 espectadores , confortable, de planta rectangular. La mayor parte de su aforo se ubica en el patio de butacas, aunque tiene un pequeño anfiteatro. Tanto el escenario como los camerinos han sido totalmente  reconstruidos y dotados de comodidades.  Viene a ser como un hermano pequeño de los enormes cines y teatros que lo rodean en las manzanas vecinas de la Gran Vía.;; Consigna, guardarropa ; Metro: Santo Domingo (línea 2), Callao (líneas 3, 5)  Bus: 1, 2, 3, 44, 46, 74, 75, 133, 146, 147, 148 ;SAN BERNARDO;CALLE;5;28013;CENTRO;40.421.022.372.676.000;-37.083.051.475.459.900;915 470 430 ; Teatro
Teatro Arteria Coliseum;Situado en el Gran Vía madrileña, el Teatro Coliseum tiene más de ochenta años de historia. Desde el año 2000 ha acogido importantes producciones.;;  Restaurante  Objetos perdidos  Tienda  Ascensor  ; Metro: Plaza de España (líneas 2, 3, 10)  Bus: 1, 2, 3, 25, 33, 39, 40, 41, 44, 46, 74, 75, 133, 138, 146, 147, 148, 149, 202 ;GRAN VIA;CALLE;78;28013;CENTRO;40.423.271.055.213.300;-37.103.562.860.569.200;915 476 612; Teatro
Teatro Bellas Artes;Presenta una completa programación que combina espectáculos de empresas privadas con teatro público, textos clásicos con contemporáneos, juventud frente a veteranía, tanto de actrices, actores, directores de escena, etc.;Cerrado los lunes;; Metro: Banco de España (línea 2), Sevilla (línea 2)  Bus: 1, 2, 3, 5, 9, 10, 14, 15, 20, 27, 34, 37, 45, 46, 51, 52, 53, 74, 146, 202 ;MARQUES DE CASA RIERA;CALLE;2;28014;CENTRO;4.041.832.880.748.660;-36.964.189.422.517.200;915 324 437 / 915 324 438; Teatro
Teatro Calderón;;;; Metro : Tirso de Molina (línea 1), Sol (líneas 1, 2, 3)   Bus : 6, 26, 32, 50, 65;ATOCHA;CALLE;18;28012;CENTRO;4.041.396.242.769.230;-3.703.363.300.804.260;914 203 797; Teatro
Teatro Circo Price; Toma su nombre del que existió, durante casi un siglo, en el Paseo de Recoletos. A comienzos del 2000, el ayuntamiento recuperó el antiguo edificio industrial de una fábrica, de estilo neomudéjar, para ubicar el nuevo Teatro Circo Price que desde 2007 ofrece una variada programación de circo, música y teatro.   Teléfono de taquilla: 915 288 122 ;  Taquilla    De martes a viernes   Desde las 18 horas hasta las 21 horas   Lunes, festivos y fines de semana   Desde 2 horas antes del espectáculo hasta el comienzo del mismo.   ;  Aparcamiento propio y vigilado, entrada por la  Juan Sebastián Elcano, 25, de uso exclusivo para los espectadores y con horario limitado sujeto al espectáculo. Precio único de tique de aparcamiento.  Cafetería  Tienda  Guardarropa  ; Metro: Embajadores (línea 3) , Lavapiés (línea 3), Atocha (línea 1)  Bus: C, 27, 34, 36, 41, 119  Renfe: Embajadores ;ATOCHA;RONDA;35;28012;ARGANZUELA;4.040.596.423.138.830;-3.698.601.359.753.860;915 279 865 ; Teatro
Teatro Cofidis Alcázar;Fue construido en 1921. En sus comienzos era conocido como Palacio de Recreos. Tiene una espectacular fachada, restaurada en el 2004.; Cerrado los lunes ;; Metro: Sevilla (línea 2)  Bus: 3, 5, 9, 15, 20, 51, 52, 52, 150 ;ALCALA;CALLE;20;28014;CENTRO;4.041.779.939.064.290;-3.699.053.803.017.360;915 320 616 (Taquilla); Teatro
Teatro Compac Gran Vía (Pequeño teatro Gran Vía);; Cerrado los lunes. ; Aparcamiento de pago ; Metro: Plaza de España (líneas 3, 10), Santo Domingo (línea 2), Callao (línea 5)  Bus: 1, 2, 3, 44, 46, 74, 75, 133, 143 ;GRAN VIA;CALLE;66;28013;CENTRO;4.042.240.577.324.940;-37.089.562.066.882.300;915 415 569; Teatro
Teatro de Cámara Cervantes; Nace en el 2008 impulsado por la Sociedad Cervantina con la intención de recueprar para el público de hoy obras teatrales de uno de los mejores autores de la lengua española, Miguel de Cervantes.  También quiere ser un espacio de investigación escénica desde donde apoyar a los jóvenes talentos del teatro español. ;;; Metro: Antón Martín (línea 1)  Bus: 6, 26, 32 ;ATOCHA;CALLE;87;28012;CENTRO;4.041.137.942.819.410;-36.969.837.415.117.800;914 203 437; Teatro
Teatro de Cámara Chéjov; El teatro de Cámara Chéjov es un centro estable de producción teatral y de formación artística, además de sala abierta al público con una programación continuada. Se presenta como foco difusor y aglutinador de arte, cultura y pensamiento. ;;; Metro: Ventilla (línea 9)  Bus: 42, 177 ;MARTIRES DE LA VENTILLA;CALLE;68;28029;TETUAN;4.047.140.264.085.200;-36.931.212.805.993.800;915 270 954; Teatro
Teatro de la Abadía; El Teatro de La Abadía es una casa de teatro y estudios que aspira a incidir en la vida social y cultural a través del teatro. Aquí se aspira a aunar la creación y exhibición de espectáculos con la búsqueda artística y humana mediante talleres y encuentros, todo ello bajo la dirección de José Luis Gómez que, en la tradición de los teatros de arte europeos, ha configurado un equipo teatral.  ; Día de cierre: lunes ;  Audioguías  Tiendas  ; Metro: Quevedo (línea 2), Canal (líneas 2, 7)  Bus: 2, 16, 61 ;FERNANDEZ DE LOS RIOS;CALLE;42;28015;CHAMBERI;4.043.522.406.333.120;-3.709.208.726.699.300;914 481 181; Teatro
Teatro de la Comedia. Compañía Nacional de Teatro Clásico;;;; Metro: Sevilla (línea 2)  Bus: 3, 5, 6, 9, 15, 20, 26, 32, 51, 52, 53, 57, 65, 150 ;PRINCIPE;CALLE;14;28012;CENTRO;4.041.566.504.361.920;-37.004.107.649.636.100;915 327 927 / 915 282 819 (taquilla); Teatro
Teatro de la Zarzuela; El Teatro de la Zarzuela es el primer y único teatro de la lírica española. Situado en pleno centro, detrás de las Cortes, en él siempre se ha cultivado la música del género lírico español, y actualmente se siguen cantando y oyendo las mejores obras de su repertorio. ;;  Aparcamiento de pago  Consigna, guardarroopa  Restauración  ; Metro: Banco de España (línea 2), Sevilla (línea 2)  Bus: 5, 9, 10, 14, 15, 20, 27, 34, 37, 45, 51, 53, 150, 203, M1, M2 ;JOVELLANOS;CALLE;4;28014;CENTRO;404.171.909.688.133;-36.968.669.041.846.700;915 245 400; Teatro
Teatro del Arte;Sala de teatro alternativo situada en el centro de Madrid, en el barrio de Lavapiés, una zona que destaca por el espíritu independiente en muchas de sus propuestas culturales. El objetivo de esta sala es conseguir una programación de calidad, a través de la representación de obras de teatro contemporáneas y comprometidas.;;; Metro: Lavapies (línea 3), Antón Martín (línea 1)  Bus: 6, 26, 32 ;SAN COSME Y SAN DAMIAN;CALLE;3;28012;CENTRO;40.409.373.215.131.000;-3.698.011.968.601.930;915 284 536; Teatro
Teatro del Barrio;La sala alternativa Triángulo ha dado paso a El Teatro del Barrio. Un proyecto que nace con la vocación de saber qué está pasando y con la intención de ser una asamblea permanente mediante el teatro, la poesía, el baile, los talleres y la Universidad del Barrio.;;; Metro: Lavapiés (línea 3), Antón Martín (línea 1)  Bus: 6, 26, 32, M1  Renfe: Embajadores ;ZURITA;CALLE;20;28012;CENTRO;40.409.681.819.217.600;-3.699.123.015.201.170;910 843 692; Teatro
Teatro Español; Denominado, hasta 1849, Teatro del Principe ampliamente reformado en los últimos años del siglo XIX.   Es uno de los teatros madrileños mas emblemáticos, con una trayectoria, casi ininterrumpida, de programación durante mas de 400 años ;;  Servicio de bar   Venta de publicaciones del Teatro Español abierto media hora antes de la función.   Salas   Principal: sala por la que el Teatro Español existe, antiguo corral de comedias, lleva 400 años en activo. Actualmente alberga 740 espectadores cada función  Margarita Xirgú: espacio inaugurado en 2005. Consta de un aforo de 107 butacas situadas sobre gradas, de este modo el espectador se sitúa con gran proximidad al espacio escénico  Sala de exposiciones: polivalente, utilizada para exposiciones, conferenciasy ruedas de prensa  Salón de té: en otro tiempo verdadero ambígú del Teatro Español, es actualmente una sala que se utiliza para la convocatoria de ruedas de prensa     Las personas con movilidad reducida deben comunicarlo al adquirir sus localidades ; Metro: Sevilla (línea 2), Sol (líneas 1, 2, 3)  Bus: 3, 5, 6, 9, 15, 20, 26, 32, 51, 52, 53, 57, 65, 150  Renfe: Sol ;PRINCIPE;CALLE;25;28012;CENTRO;4.041.482.868.269.550;-37.001.663.599.562.100;913 601 480 (centralita) /  913 601 484 (taquilla); Teatro
Teatro Fígaro - Adolfo Marsillach;Situado en la zona céntrica y turística de Madrid: el barrio de las Letras. Acoge lo mejor de la comedia actual nacional e internacional.;Cerrado los lunes y los martes;Restaurante; Metro: Tirso de Molina (línea 1), Sol (líneas 1, 2, 3)  Bus: 6, 26, 32, 50, 65 ;DOCTOR CORTEZO;CALLE;5;28012;CENTRO;4.041.345.601.671.210;-3.703.676.260.061.590;913 600 829 ; Teatro
Teatro Galileo;Se encuentra dentro del Centro Cultural Galileo del Ayuntamiento de Madrid, gestionado por el Grupo Smedia. Una sala, dedicada a la representación de obras de teatro de arte y ensayo y al teatro familiar durante los fines de semana, ubicada en el distrito de Chamberí.;;  Aparcamiento de pago  Ascensor  ;" Metro: Quevedo (línea 2), Arg&uuml;elles (líneas 3, 4, 6)  Bus: 2, 16, 21 , 61 ";GALILEO;CALLE;39;28015;CHAMBERI;4.043.371.190.964.790;-37.104.543.597.957.700;915 913 901; Teatro
Teatro Guindalera;Con un aforo de 75 localidades, esta sala apuesta por recuperar un teatro de arte y ensayo, punto de encuentro y de reflexión. En ella se reivindica la imaginación compartida con el espectador. Frente al despliegue de medios y frente a los grandes espacios se busca el acercamiento y un ambiente íntimo.;  Cerrado lunes y martes  ;  Objetos perdidos  ; Metro: Diego de León (líneas 4, 5, 6)  Bus: 1, 12, 43, 48, 56, 74, C1, C2 ;MARTINEZ IZQUIERDO;CALLE;20;28028;SALAMANCA;4.043.339.686.680.230;-36.696.580.993.972.800;913 615 521; Teatro
Teatro Infanta Isabel; El Teatro Infanta Isabel, conocido antes como 'Cinema Nacional' o 'Petit Palais', es una de las salas de teatro más antiguas de la ciudad, está situado en la calle Barquillo muy cerca de la Gran Vía. ; Días de cierre: lunes. ; Aparcamiento de pago. ; Metro: Banco de España (línea 2), Chueca (línea 5)  Bus: 3, 5, 14, 37, 45, 53, 146, 150  Renfe: Recoletos ;BARQUILLO;CALLE;24;28004;CENTRO;4.042.221.671.356.560;-36.955.867.306.586.300;915 210 212; Teatro
Teatro la Latina; Con casi un siglo de actividad escénica, desde que en 1919 fuera inaugurado como cinematógrafo, ha sido estirpe de artistas que forman parte del patrimonio teatral español, sede de empresarios, centro de trabajo de miles de profesionales y receptor de los aplausos de millones de espectadores.  Obra del arquitecto Pedro Muguruza. Ha sido uno de los escenarios más importantes para la representación de comedia y revista en la historia del teatro a lo largo del siglo  XX .   Debe su nombre a Beatriz Galindo, llamda 'la Latina', escritora y humanista española del siglo  XV . ; Cerrado: los lunes. ;  Objetos perdidos  Restauración  ; Metro: La Latina (Línea 5)  Bus: 17, 18, 23, 31, 35, 50, 60, 61, M1 ;CEBADA;PLAZA;2;28005;CENTRO;40.411.397.795.053;-3.708.781.739.576.840;913 652 835; Teatro
Teatro Lagrada; Sala de teatro alternativo, situada en la zona de Embajadores, donde se apuesta por la mezcla de diferentes manifestaciones artísticas como la fotografía, la música, la pintura y el propio teatro, haciendo especial hincapié en la representación de obras de nuevos autores.   Además de ser un espacio de representación artística, también lo es de formación, ya que, cuenta con una academia de actores donde se trabajan la interpretación, el entrenamiento corporal y vocal, la música y el canto. ;;; Metro: Embajadores (línea 3)  Bus: 34, 36, 60, 62, 78, 116, 118, 119, 148, E1  Renfe: Embajadores ;ERCILLA;CALLE;20;28005;ARGANZUELA;4.040.268.595.360.090;-370.289.238.039.068;915 179 698; Teatro
Teatro Lara; Es un espacio plural que da cabida a la música, a la poesía o a cualquier expresión artística, y que congrega a un público fiel y exigente.   Fue construido en 1879 e inaugurado el 3 de septiembre del año siguiente. Es uno de los teatros más llamativos de la Comunidad de Madrid desde el punto de vista arquitectónico. ;;; Metro: Callao (líneas 3, 5), Santo Domingo (línea 2)  Bus: 1, 2, 44, 46, 74, 75, 133, 146, 147, 148, M2 ;CORREDERA BAJA DE SAN PABLO;CALLE;15;28004;CENTRO;4.042.208.196.713.360;-37.044.498.348.290.200;915 239 027; Teatro
Teatro Lope de Vega; Se trata de un escenario legendario especializado en musicales de gran formato y montajes espectaculares. Su privilegiada ubicación en la Gran Vía y la ambición de sus producciones hacen de ella una de las salas más significativas y reconocidas del circuito madrileño.  ;;  Ascensor  Restauración  ; Metro: Santo Domingo (línea 2), Plaza de España (línea 3, 10), Callao (líneas 3, 5)  Bus: 1, 2, 3, 44, 46, 74, 75, 133, 138, 146, 147, 148, C1, C2 ;GRAN VÍA;CALLE;57;28013;CENTRO;4.042.189.272.510.080;-37.088.800.933.302.700;915 472 011; Teatro
Teatro Maravillas;Situado en el céntrico barrio de Malasaña. Inaugurado en 1886, tras cinco años de obras, vuelve a abrir sus puertas en el 2005, .;Días de cierre: lunes y martes; Ascensor ; Metro: Bilbao (línea 1, 4), San Bernardo (línea 2, 4)  Bus: 3, 21, 40, 147, 149 ;MANUELA MALASAÑA;CALLE;6;28004;CENTRO;40.428.675.760.717.700;-3.703.103.946.758.170;914 468 405; Teatro
Teatro María Guerrero. Centro Dramático Nacional; El teatro María Guerrero fue inaugurado en 1885 como teatro de la Princesa y declarado por el Ministerio de Cultura en 1996 Bien de Interés Cultural. En la actualidad cuenta con un segundo espacio para espectáculos de pequeño formato, con una capacidad máxima de 120 espectadores. ;;  Ascensor  Tienda  Consigna / guardarropa  Visitas guiadas  ; Metro: Colón (línea 4), Banco de España (línea 2), Chueca (línea 5).  Bus: 5, 14, 27, 37, 45, 53, 150.  Renfe: Recoletos. ;TAMAYO Y BAUS;CALLE;4;28004;CENTRO;4.042.288.948.179.910;-3.693.071.021.887.210;913 101 500; Teatro
Teatro Marquina;Inaugurado en 1962. En 1996 fue derribado para levantarlo nuevamente con más adelantos. Dos años más tarde se reinauguró.; Cerrado los lunes. ;; Metro: Banco de España (línea 2), Chueca (línea 5).  Bus: 5, 14, 27, 37, 45, 53, 150.  Renfe: Recoletos. ;PRIM;CALLE;11;28004;CENTRO;4.042.195.750.772.570;-36.937.451.531.542.600;915 328 554; Teatro
Teatro Monumental;Es el teatro donde la Orquesta y el Coro de Radio Televisión Española realiza sus actuaciones desde los años 60;Día de cierre: lunes;  Aparcamiento de pago  ; Metro: Antón Martín (Línea 1)  Bus: 6, 26, 32, M1 ;ATOCHA;CALLE;65;28012;CENTRO;4.041.248.331.678.500;-36.991.755.805.601.400;914 291 281; Teatro
Teatro Municipal de Títeres de El Retiro al Aire Libre;Dentro del parque de El Retiro, muy cerca de la entrada desde la plaza de la Independencia, donde se encuentra la Puerta de Alcalá, está el Teatro de Títeres, toda una institución para el público infantil madrileño.   Este teatro permanente de títeres ofrece casi todos los sábados y domingos un espectáculo en el que las artes plásticas, la interpretación, la música y la literatura se conjugan de manera magistral.;;; Metro: Retiro (línea 2).  Bus: 1, 2, 9, 15, 19, 20, 28, 51, 52, 79, 146 y 202. ;MÉXICO;AVENIDA;4;28009;RETIRO;4.041.878.362.561.590;-36.866.519.471.003.600;670 723 360 / 917 924 112 (sólo mañanas) (Asociación Cultural Titirilandia) ; Teatro
Teatro Muñoz Seca;El teatro Muñoz Seca se encuentra en pleno centro de Madrid, en una ubicación privilegiada y muy turística. La sala ofrece una amplia variedad de obras teatrales. ; Cerrado los lunes. ;; Metro: Sol (línea 1, 2, 3), Gran Vía (línea 1, 5).  Bus: 1 , 2 , 3, 46, 50, 51, 74, 146, M2.  Renfe: Sol. ;CARMEN;PLAZA;1;28013;CENTRO;4.041.840.439.358.010;-37.032.798.991.593.800;915 232 128 ; Teatro
Teatro Nuevo Apolo; El teatro Nuevo Apolo, con 1000 butacas, es el teatro musical por excelencia de la ciudad. Situado en la zona centro, en la plaza de Tirso de Molina, en él se han representado grandes producciones como Los Miserables o Chicago. También tienen lugar espectáculos de humor y danza. ; Cerrado los lunes. ;  Objetos perdidos  Aparcamiento de pago  Restauración  ; Metro: Tirso de Molina (línea 1).  Bus: 6, 26, 32, 65, M1. ;TIRSO DE MOLINA;PLAZA;1;28012;CENTRO;4.041.234.075.831.110;-3.703.369.987.899.470;918 554 162; Teatro
Teatro Pavón (Compañía Nacional de Teatro Clásico); El teatro Pavón, inaugurado en 1925, vivió una época de decadencia y cerró durante unos años. Fue reinaugurado en el año 2000. Este escenario acoge temporalmente los montajes de la Compañía Nacional de Teatro Clásico, con representaciones de obras de autores clásicos como Tirso de Molina, Lope de Vega, Rojas Zorrilla o Calderón de la Barca. ;;  Objetos perdidos  Tienda  ; Metro: Latina (línea 5)  Bus: 17, 18, 23, 35, M1 ;EMBAJADORES;CALLE;9;28012;CENTRO;40.410.026.211.183.400;-37.061.980.491.148.600;915 282 819 (taquilla); Teatro
Teatro Pradillo; Teatro Pradillo reabrió sus puertas como centro de investigación y creación en abril de 2012 con la intención de ofrecerse como un espacio vivo que aspira a incidir en la vida pública y cultural, y a estar permanentemente conectado con la sociedad de la que forma parte .   ;; Tienda. ; Metro: Concha Espina (línea 9).  Bus: 9, 16, 19, 29, 52, 73. ;PRADILLO;CALLE;12;28002;CHAMARTIN;4.044.856.560.554.620;-36.747.261.219.408.600;914 169 011; Teatro
Teatro Príncipe Gran Vía; Este teatro madrileño lleva en su nombre el de la calle con la que prácticamente hace esquina, llamándose: Príncipe Gran Vía. Está especializado en comedia.  ; Cerrado los lunes. ;  Restauración  Consigna  Objetos perdidos  ; Metro: Gran Vía (líneas 1, 5), Callao (líneas 3, 5), Sol (líneas 1, 2, 3).  Bus: 1, 2, 3, 46, 74, 146, M2.  Renfe: Sol. ;TRES CRUCES;CALLE;8;28013;CENTRO;4.041.941.656.735.490;-3.702.760.005.318.700;915 318 514; Teatro
Teatro Quevedo;El Teatro Quevedo es una apuesta personal del productor Luis Antonio Rodríguez.  El teatro cuenta con 150 butacas y, además de las artes escénicas, tiene otro protagonista, el microcine. El nombre de este espacio hace referencia a uno de los literatos más importantes del Siglo de Oro, Francisco de Quevedo, y aprovecha su proximidad de la glorieta dedicada al mismo.; Taquillas:   Mañanas: miércoles a domingos de 11 a 15 horas   Tardes:  2 horas antes de cada función  ;; Metro: Quevedo (línea 2), Canal (líneas 2, 7)  Bus: 3, 16, 37, 61, 149 ;BRAVO MURILLO;CALLE;18;28015;CHAMBERI;4.043.560.652.525.370;-3.704.119.358.317.500;"914 457 193                  
                       
"; Teatro
Teatro Reina Victoria; Inaugurado el 10 de junio de 1916, fue construido según los planos del arquitecto José Espelius. Para la apertura, presidida por los reyes don Alfonso XIII y doña Victoria Eugenia, se eligió la obra El capricho de las damas.   La fachada es una de las más singulares de los teatros madrileños, con vidrieras de Maumejean y mosaicos de Talavera.  Tiene capacidad para más de 600 espectadores. De la decoración original del interior no queda ningún elemento. Sobre el patio de butacas se ve una claraboya que en sus primeros años se abría para ventilar la sala.  Durante la II República se llamó simplemente Victoria y en octubre de 1936 fue rebautizado con el nombre del dramaturgo Joaquín Dicenta. Aunque en su primera etapa produjo numerosos espectáculos musicales, acabó por ser uno de los teatros especializados en alta comedia. Y así sigue, dirigido actualmente por el empresario Enrique Cornejo. ; Días de cierre: lunes ;; Metro: Sol (líneas 1, 2 , 3) , Sevilla (línea 2)  Bus: 3, 5, 9, 15, 20, 46, 51, 52, 53, 150, M1, M2  Renfe: Sol ;SAN JERONIMO;CARRERA;24;28014;CENTRO;4.041.651.548.060.070;-3.699.818.451.104.120;913 692 288; Teatro
Teatro Rialto;El teatro, situado en pleno corazón de la Gran Vía, tiene una capacidad para 1000 espectadores y es resultado de las obras de transformación del antiguo cine en un moderno escenario teatral. ;;; Metro: Santo Domingo (línea 2) , Callao (líneas 3, 5), Gran Via (líneas 1, 5), Plaza de España (líneas 3, 10)  Bus: 1, 2, 3, 44, 46, 74, 75, 133, 146, 147, 148 ;GRAN VIA;CALLE;54;28013;CENTRO;4.042.138.841.205.710;-3.707.377.753.413.240;910 839 500 (Taquilla); Teatro
Teatro Sala Cuarta Pared; Centro de formación, investigación y producción teatral independiente creado en 1985 por un grupo de personas de diferentes procedencias teatrales. Entonces apostaron por una línea de continuidad frente a proyectos efímeros de mero interés económico. Su objetivo era convertirse en un núcleo dinamizador en una situación teatral con síntomas de parálisis. Hoy en día es un lugar de encuentro para todos los que pretenden vivir y conocer el teatro de una forma diferente.  ;;  Equipamientos:    Objetos perdidos  Restauración    Servicios:    Exhibición de espectáculos  Cursos de formación  Campañas de teatro para escolares  Escuela de teatro para niños y jóvenes  ; Metro: Embajadores (línea 3), Acacias (línea 5)  Bus: 27, 34, 36, 41, 60, 78, 116, 118, 119, 148, C  Renfe: Embajadores ;ERCILLA;CALLE;17;28005;ARGANZUELA;40.402.777.112.937.400;-37.027.165.608.127.700;915 172 317; Teatro
Teatro Sanpol; El teatro Sanpol es pionero en España al dedicarse en exclusiva al público infantil y juvenil. Dispone de una programación anual estable, que va de septiembre a junio.  ;;  Sala de lactancia  Objetos perdidos  Restauración  ; Metro: Príncipe Pío (Líneas 6, 10, R)  Bus: 41, 46, 75  Renfe: Príncipe Pío ;SAN POL DE MAR;CALLE;1;28008;MONCLOA-ARAVACA;404.239.449.097.705;-37.265.957.347.882.100;915 419 089; Teatro
Teatro Tribueñe; De la mano del joven director y artista Hugo Pérez Rodríguez de la Pica y de la directora ucraniana Irina Kouberskaya , nace el Teatro Tribueñe en 2003. Un antiguo almacén de ferretería convertido en espacio teatral.  Se trata de una sencilla y acogedora sala, situada en los alrededores de la plaza de toros de las Ventas, cuya programación combina textos dramáticos con algunas obras más innovadoras y actuales.  Algunas de las obras representadas en el teatro han sido:  La casa de Bernarda Alba,   Por los ojos de Raquel Meller ,  Bodas de sangre ,  Dónde mira el ruiseñor cuando cruje una rama,  entre otras. Tanto Hugo Pérez como Irina Kouberskaya han recibido galardones como  El Ojo Crítico  de  RNE  en 2012 y el premio a la Mejor Dirección por  La casa de Bernarda Alba  de Federico García Lorca, entre otros.  ;;; Metro: Ventas (líneas 2, 5), Manuel Becerra (líneas 2, 6)  Bus: 12, 110, 210 ;SANCHO DAVILA;CALLE;31;28028;SALAMANCA;40.425.569.368.259.800;-36.615.996.399.032.000;912 427 727 / 913 553 390; Teatro
Teatro Valle Inclán. Centro Drámatico Nacional; Antiguo edificio del Teatro Olimpia, que se inauguró en 1926 para inmediatamente después funcionar como sala cinematográfica. En 1974 se estrenó como sala de teatro y treinta años después pasa a depender del Centro Dramático Nacional. Tras una intensa remodelación y modernización de las instalaciones, en 2006 se reinaugura como Teatro Valle-Inclán en el barrio de Lavapiés.  Cuenta con dos modernos escenarios, el principal con aforo de 510 butacas y la denominada Sala Francisco Neiva, con disposición a la italiana y 150 butacas. Funciona como segunda sede del Centro Dramático Nacional y acoge la representación de la mitad de las obras de su programa, así como la visita de compañías extranjeras. ;;  Objetos perdidos  Aparcamiento de pago  ; Metro: Lavapiés (línea 3)  Bus: 27, 34, 36, 41, 78, 119, C1, C2, E1, M1  Renfe: Embajadores ;VALENCIA;CALLE;1;28012;CENTRO;4.040.800.690.285.840;-37.004.845.788.684.900;915 058 801 ; Teatro
Teatro Victoria;" El Teatro Victoria, situado en el barrio de  Malasaña , ofrece una cuidada selección de obras de teatro; comedias, monólogos, musicales y teatro infantil. Pretende rescatar obras clásicas intentando aportar en ellas las nuevas técnicas y aportaciones artísticas que ofrece la modernidad ";  Días de cierre: lunes y martes  ;  Aparcamiento de pago  ; Metro: Noviciado (línea 2) Santo Domingo (línea 2), Plaza de España (líneas 2, 3, 10)  Bus: 1, 2, 3, 44, 46, 74, 75, 133, 146, 147, 148, M2 ;PEZ;CALLE;17;28004;CENTRO;4.042.378.660.181.590;-3.705.611.071.847.050;915 228 730 ; Teatro
Teatro. ArtEspacio Plot Point; Plot Point tiene su propia compañía teatral y ofrece un programa muy completo de representaciones. Además de sala de  espectáculos, también es escuela de teatro, cine y televisión donde los nuevos talentos pueden desarrollarse y vivir la interpretación de forma apasionada.  ;;; Metro: Embajadores (línea 3), Acacias (línea 5)  Bus: 34, 36, 55, 60, 78, 116, 118, 119, 148 ;ERCILLA;CALLE;29;28005;ARGANZUELA;4.040.192.531.437.170;-37.020.477.784.084.700;914 749 765; Teatro
Teatros del Canal; Moderno complejo de 35.200 metros cuadrados dedicados a las artes escénicas. El edificio, Premio Nacional de Arquitectura, es obra del arquitecto Juan Navarro Baldeweg y fue inaugurado en 2009 con las últimas novedades tecnológicas en el barrio de Chamberí.   Se compone de dos modernos teatros (Sala Roja y Sala Verde), una sala de ensayos (Sala Negra) y el Centro Danza Canal.  Su programación apuesta por la calidad técnica y la excelencia artística. La sala acoge desde textos clásicos y piezas modernas hasta conciertos, danza, flamenco, zarzuela, ópera, circo o cabaret. ;  Taquillas  (Calle Cea Bermúdez, 1): de 14:30 h a 21 horas., todos los días. La taquilla estará cerrada del 6 de julio al 5 de agosto (inclusive). ;"  Espacios escénicos:  los Teatros del Canal acogen dos grandes teatros abiertos al público, la Sala Roja y la Sala Verde, que, desde su apertura en febrero de 2009  han recibido a más de 600.000 espectadores, más de 1.500 representaciones y  331 montajes. Además, los Teatros disponen de una Sala Negra o de Ensayos, de uso interno, cuyo escenario reproduce las dimensiones de la Sala Roja.    Sala Roja     Aforo: 863 localidades (platea, 595; anfiteatro, 248 y palcos, 20)  Aforo con foso de orquesta: 799 localidades     Sala Verde     Aforo máximo: 777 localidades   Configuración clásica: 441 localidades   Configuración con público en laterales de escenario: 605 localidades  Configuración con público en 4 lados del escenario: 777 localidades     Sala Negra     Superficie escenario: 22 x 8 metros  Aforo: 180 localidades    Centro Danza Canal:  es un  espacio artístico dedicado a la creación y difusión de la danza en todas sus variedades, lenguajes y estilos. Entre sus objetivos principales, se encuentra el de apoyar a las compañías de danza, dinamizando su actividad y ofreciendo el entorno de trabajo más apropiado a sus profesionales. "; Metro: Canal (líneas 2, 7)  Bus: 3, 12, 37, 149 ;CEA BERMUDEZ;CALLE;1;28003;CHAMBERI;4.043.854.675.141.600;-3.705.057.921.443.050;"913 089 999  / 913 089 950                  
                  
"; Teatro
