NOMBRE;DESCRIPCION-ENTIDAD;HORARIO;EQUIPAMIENTO;TRANSPORTE;NOMBRE-VIA;CLASE-VIAL;NUM;CODIGO-POSTAL;DISTRITO;LATITUD;LONGITUD;TELEFONO;TIPO
Arte Público (Museo al Aire Libre de la Castellana);;;; Metro: Rubén Darío (línea 5)  Bus: 5, 14, 27, 45, 150 ;CASTELLANA;PASEO;40;28046;SALAMANCA;40.433.219.398.671.100;-36.876.122.680.805.900;;Monumento
Banco de España; El Banco de España es el banco central nacional y el supervisor del sistema bancario español. Su actividad está regulada por la Ley de Autonomía del Banco de España. ;;; Metro: Banco de España (línea 2)  Bus: 1, 2, 9, 10, 15, 20, 34, 51, 52, 53, 74, 146, 202, 203 ;ALCALA;CALLE;48;28014;CENTRO;404.188.339.187.439;-369.482.107.480.432;913 385 000 (centralita);Monumento
Basílica Pontificia de San Miguel;;;; Metro: Ópera (líneas 2 y 5), Puerta del Sol (líneas 1, 2 y 3), Tirso de Molina (línea 1), La Latina (línea 5)  Renfe: Puerta del Sol (líneas 3 y 4)  Bus: 31, 50, 65 ;SAN JUSTO;CALLE;4;28005;CENTRO;40.414.203.159.177.600;-37.096.715.906.562.700;915 484 011;Monumento
Biblioteca Nacional de España; Fundada por Felipe  V  en 1712 como Biblioteca Pública de Palacio. En 1836 dejó de ser propiedad de la Corona y pasó a depender del Ministerio de la Gobernación y recibió por primera vez el nombre de Biblioteca Nacional y en 1896 se abrió al público.   Horario     Salas de lectura y Servicios:    De lunes a viernes de 9 a 21 y sábados de 9 a 14 horas.  La petición de fondos en el Salón General y en la Sala de Prensa y Revistas es de 9:30 a 13:30 y de 15 a 19 horas.  La tramitación presencial de carnés es de lunes a viernes de 9 a 19 y sábados de 9 a 13:45 horas.     Exposiciones y Museo:    De martes a sábado de 10 a 20 horas.  Domingos y festivos de 10 a 14 horas.      Calendario cierre:    Exposiciones y museo: días 1, 6 de enero, 1 de mayo, 10 de noviembre y 8, 24, 25 y 31 de diciembre.   Biblioteca: 1, 6 y de 20 al 25 de enero, del 17 al 19 de abril, 1, 2 y 15 de mayo, 19 de junio, 15 de agosto, 1 y 10 de noviembre, 6, 8, 24, 25 y 31 de diciembre.    ;;  Servicios bibliotecarios:    Orientación e información general sobre la institución y sobre otras bibliotecas.  Información bibliográfica sobre su colección y las de otras bibliotecas o sistemas bibliotecarios.  Acceso a su catálogo automatizado.  Consulta en sala de sus fondos.  Préstamo interbibliotecario.  Reproducción de fondos.     Otros servicios a los lectores:    Sala de exposiciones.  Museo.  Préstamo interbibliotecario.  Oficina de reprografía.  Registro.  Tienda.     Salas:    Salón general de lectura.  Sala de prensa y revistas  Sala Cervantes: manuscritos, incunables e impresos reservados.  Sala Goya: bellas artes y cartografía.  Sala Barbieri: música.  ;;RECOLETOS;PASEO;20;28001;SALAMANCA;4.042.299.290.045.960;-3.690.844.141.741.060;"915 807 800                                                                                      
                                                                                      
";Monumento
Bolsa de Madrid; Es el principal mercado de valores de España. Tiene su sede en el Palacio de la Bolsa de Madrid. ;;  Información sobre títulos admitidos a cotización en materia de pago de dividendos   Ampliaciones de capital  Datos sobre balances y cuentas de resultados de las empresas cotizantes   Boletines diarios  ; Metro: Banco de España (línea 2)  Bus: 1, 2, 5, 9, 10, 15, 20, 34 ;LEALTAD;PLAZA;1;28014;RETIRO;4.041.687.675.488.160;-3.692.184.230.357.610;"917 095 000 (Bolsas y mercados españoles, centralita)     
915 891 162 / 915 891 020 (Visitas)          
915 891 659 (Atención al inversor)   
";Monumento
Casa de América; Antiguo Palacio de Linares, diseñado por Carlos Colubí en 1872. De estilo rococó, destaca la escalera de mármol de Manuel Aníbal Álvarez y toda la decoración interior. ;;  Celebración de actividades culturales: conciertos, conferencias, mesas redondas, actividades infantiles, exposiciones  Sala de exposiciones  Anfiteatro  Centro de información y documentación  Cine  Restauración   Restaurante Le Cabrera Casa de América, abierto todos los días de 13:30 a 15:30 y de 20:30 a 00 horas. Dispone de reservado.  Coctelería Le Cabrerita ,  abierta de lunes a domingo de 13:30 a 2 horas. Acceso por Paseo de Recoletos, 2.  Cafetería Le Cabrera Casa de América, abierta de lunes a domingo de 9 a 12 horas. Acceso por Marqués del Duero.  Terraza de verano.     La programación puede ser consultada en  http://www.casamerica.es/  ; Metro: Banco de España (línea 2)  Bus: 1, 2, 5, 9, 10, 14, 15, 20, 27, 34, 37, 45, 51, 52, 53, 74, 146, 150, 202  Renfe: Recoletos ;CIBELES;PLAZA;4;28014;SALAMANCA;40.419.749.969.504.000;-36.922.961.903.054.300;915 954 800 (información) / 915 775 955 (reservas para el restaurante);Monumento
Casa de Cisneros; Es uno de los pocos palacios renacentistas del siglo XVI conservados en Madrid, aunque con muchas modificaciones. ;;; Metro: Sol (líneas 1, 2, 3), Ópera (líneas R, 2, 5)  Bus: 3, 5, 20, 25, 33, 39, 50, 51, 52, 53, 150 ;VILLA;PLAZA;4;28005;CENTRO;4.041.490.075.227.330;-37.105.039.839.947.300;;Monumento
Casa de La Panadería;Iniciada por Antonio Sillero en 1590 para el gremio del pan, será acabada y transformada en 1617 por Gómez de Mora al integrarla en el conjunto de la Plaza Mayor. La planta baja era completamente libre permitiendo el paso entre la calle Mayor y la Plaza. A finales del siglo  XVIII   Juan de Villanueva la restauró tras el incendio de la plaza en 1672. Es de destacar el balcón y Escudo Real de la fachada, así como sus pinturas.;;; Metro: Sol (líneas 1, 2, 3)  Bus: 3, 5, 15, 17, 18, 20, 23, 31, 35, 50, 51, 52, 53, 65, 150  Renfe: Sol (líneas 3, 4) ;MAYOR;PLAZA;27;28012;CENTRO;4.041.583.855.082.180;-37.074.257.084.323.600;;Monumento
Casa de La Villa. Casas Consistoriales del Ayuntamiento de Madrid; Sede del Ayuntamiento de Madrid desde el año 2007 ;;; Metro: Sol (líneas 1, 2, 3), Ópera (líneas R, 2, 5)  Bus: 3, 5, 20, 25, 33, 39, 50, 51, 52, 53, 150 ;VILLA;PLAZA;5;28005;CENTRO;4.041.518.829.867.040;-37.106.248.754.622.500;;Monumento
Casa de Las Siete Chimeneas; Casa palacio construida en 1577 por Antonio Sillero. Ha sufrido numerosas reformas, siendo las más destacadas las del siglo XIX, a cargo de Agustín Ortiz de Villajos y Antonio Capó. Posteriormente ha sido reformada por Chueca Goitia y Domínguez Salazar. Destaca por las chimeneas que coronan el tejado. Es un ejemplo de la arquitectura doméstica del siglo XV.  En la actualidad están ubicadas dependencias del Ministerio de Cultura. ;;; Metro: Banco de España (línea 2)  Bus: 1, 2, 5, 9, 10, 14, 15, 20, 27, 34, 37, 45, 46, 51, 52, 53, 74, 146, 150, 202, M2,  Renfe: Recoletos ;REY;PLAZA;1;28004;CENTRO;4.042.020.264.263.880;-36.964.264.776.282.300;;Monumento
Casa de Velázquez; Centro de creación artística y de investigación situado en un palacete de estilo neoclásico de 1920. ;; Desarrollo de actividades creadoras e investigaciones relacionadas con las artes, las lenguas, las literaturas y las sociedades de países ibéricos, iberoamericanos y del Magreb. ;Bus: 83 , 133;PAUL GUINARD;CALLE;3;28040;MONCLOA-ARAVACA;40.441.013.640.676.600;-37.299.866.834.370.900;914 551 580;Monumento
Casón del Buen Retiro; Edificio que forma parte del Museo Nacional del Prado, donde pueden consultarse fondos de la Biblioteca, del Archivo y del Servicio de Documentación de la colección del Museo y de otras fuentes relativas a la historia del arte. ;  Mañanas    De lunes a jueves, de 9 a 15 horas. (Servicio de libros y otros materiales hasta las 14:30 horas)   Viernes, de 9 a 14:30 horas. (Servicio de libros y otros materiales hasta las 14 horas)     Tardes.  Lunes y miércoles, de 15 a 18 horas. (Servicio de libros y otros materiales hasta las 17:30 horas)   Horario de verano     Desde el 16 de junio al 15 de septiembre  Lunes a viernes, de 9 a 14:30 horas   ;; Metro: Atocha (Línea 1)  Bus: 19, 10, 14, 27, 34, 37, 45  Renfe: Atocha ;ALFONSO XII;CALLE;28;28014;RETIRO;40.415.263.749.471.500;-3.689.232.811.717.630;902 107 077;Monumento
Castillo de la Alameda;"El edificio está incorporado al sistema &quot;museosdemadrid&quot; donde se realizan talleres para escolares y actividades en verano.";  Abierto fines de semana y festivos (incluso los lunes festivos)  De abril a septiembre: sábados, domingos y festivos de 10 a 21 horas  De octubre a marzo: sábados, domingos y festivos de 10 a 18 horas  Cerrado: 24, 25, 31 de diciembre, 1 de enero, 6 de enero, 1 de mayo.  ;  Accesibilidad    Rampas de acceso  Servicios para minusválidos  Información en Braille para invidentes  ; Metro: Alameda de Osuna (línea 5), El Capricho (línea 5)  Autobuses: 101, 105, 112, 114, 115 y 151 ;ANTONIO SANCHA;CALLE;1;28042;BARAJAS;4.045.835.460.563.490;-35.932.903.820.278.700;"913 667 415                                                                   
";Monumento
Catedral Santa María la Real de la Almudena; Su construcción comienza a finales del siglo XIX por el Marqués de Cubas, sobre el primer recinto amurallado del Madrid musulmán, y finaliza en el año 1993. ;;; Metro: Ópera (líneas 2, 5, Ramal), Sol (Línea 1, 2, 3)   Bus: 3, 31, 41, 50, 62, 65, 148, C1, C2 ;MAYOR;CALLE;90;28013;CENTRO;4.041.521.119.054.690;-37.142.200.549.476.700;915 480 930;Monumento
Centro Conde Duque; Centro Conde Duque es un espacio cultural vinculado a la memoria y a la la difusión de Madrid.  Entre sus fines se encuentran: la difusión de la historia de Madrid, el intercambio de conocimientos históricos con la sociedad, la conservación de  los fondos históricos y artísticos del Ayuntamiento y la producción y exhibición de manifestaciones artísticas relacionadas con el mundo de la escena y de la música. ;  Exposiciones (entrada gratuita)    De martes a sábado de 10 a 14 y de 17:30 a 21 horas.  Domingos y festivos de 10:30 a 14 horas.  ;   Salas de Exposiciones:  espacios expositivos con más de mil quinientos metros cuadrados, caracterizada por sus muros de ladrillo y por los espacios abovedados.   Auditorio Conde Duque:  1300 metros cuadrados, renovados en el 2011.   Teatro Conde Duque : espacio escénico moderno y versátil, con una escena de 12 por 17 metros de superficie y un peine de 5,99 metros de altura. Cuenta, además, con dos grandes salas de ensayo adyacentes.    Salon de Actos: u na gran sala de doble altura, totalmente forrada de madera, que está preparada para la realización de conferencias, presentaciones, congresos y seminarios. Ocupa las plantas primera y segunda de la zona del edificio que se sitúa encima del vestíbulo general desde el que tiene acceso. Dotado de medios de audición y gran pantalla de proyección, dispone de una capacidad de 293 asientos.     Zona wifi .   ; Metro: Ventura Rodríguez (línea 3), San Bernardo (línea 2 y 4) y Noviciado (línea 2).  Bus: 1, 2, 44, 74, 133, 202, 749, Minibús M-2 ;CONDE DUQUE;CALLE;09-nov;28015;CENTRO;40.427.938.443.518.200;-3.710.240.346.719.510;;Monumento
Centro de Estudios Políticos y Constitucionales;Construido por Sabatini en 1776. Tipología singular sin apartarse de los criterios clásico-barrocos, propios de la época de Carlos III. Destaca su escalera barroca. Fue creado para alojamiento y vivienda de Grimaldi. En 1819 se instaló la Biblioteca Real, y posteriormente las Secretarías, llamándose entonces Casa de los Ministerios.;; Centro de Documentación - Publicaciones - Biblioteca (abierta de lunes a viernes de 9 a 20 horas) - Fotocopiadora - Catálogo colectivo de publicaciones periódicas - Información bibliográfica - Lector reproductor - Préstamo interbibliotecario - Búsquedas bibliográficas y referencia  Materias: Derecho constitucional y público - Ciencia política - Teoría del Estado - Historia política de España - Teoría de la Constitución - Historia de las Ideas Políticas - Posee una amplia colección de repertorios de legislación y jurisprudencia españolas y de los paises de nuestro entorno ; Metro: Santo Domingo (línea 2), Plaza de España (línea 3), Ópera (línea R, 2, 5)  Bus: 1, 2, 25, 33, 39, 44, 46, 74, 75, 133 , 138, 148 ;"MARINA ESPA&Ntilde;OLA";PLAZA;9;28013;CENTRO;4.042.063.654.129.450;-37.124.503.472.242.300;915 401 950;Monumento
Centro Social y Cultural la Casa Encendida; Edificio de carácter monumental. De estilo neomudéjar, fue diseñado por el arquitecto Fernando Arbós e inaugurado en el año 1913. Cuenta con más de 6.000 metros cuadrados de instalaciones divididas en 4 plantas y una azotea. ;  De lunes a domingo de 10 a 22 horas (todos los días del año, excepto festividades nacionales y de la Comunidad de Madrid)  Exposiciones: de 10 a 21:45 horas  ;   Biblioteca  (consulta catálogo  http://catalogo.bibliotecas.obrasocialcajamadrid.es/ )   Sala de consulta y Hemeroteca: de lunes a domingos, de 10 a 21:15 horas  Mediateca y Sala de trabajo Ofimática: de lunes a domingos, de 10 a 21:15 horas  Biblioteca joven: de lunes a viernes, de 10 a 20:30, sábados y domingos de 10 a 13:30  Bebeteca: sábados y domingos de 10 a 13:30 horas     Estudio multimedia : cuenta con equipos profesionales para la edición de video con Final Cut Studio, Premiere, etc. Su uso tendrá un precio de cinco a ocho euros por turno de cinco horas dependiendo del tipo de asistencia técnica.   Laboratorio de radio:  dispone de un equipo completo de grabación y equipamiento profesional. Su uso tendrá un precio de diez euros por turnos de cinco horas.   Laboratorio fotográfico    Tienda solidaria:  consultar horario   Cafetería:  todos los días, excepto festivos, de 10 a 21:45 horas  ; Metro: Embajadores (línea 3), Lavapies (línea 3), Atocha (línea 1)   Bus: 27, 34, 36, 41, 68, 69, 119   Renfe: Embajadores ;VALENCIA;RONDA;2;28012;CENTRO;4.040.595.710.517.700;-3.699.779.793.558.760;"902 430 322                                              
";Monumento
Círculo de Bellas Artes;;"  Salas de exposiciones:  de 11 a 14 y de 17 a 21 horas. (martes a domingo). Lunes cerrado.    Azotea:  de lunes a jueves de 9 a 21:00, viernes y vísperas de festivos de 9 a 21:30, sábados de 11:00 a 21:30 y domingos de 11 a 21 horas. (horario sujeto a cambios).   Taquilla:  de 16 a 22 horas (miércoles a domingo). Horario sujeto a cambios   Cafetería &quot;La Pecera&quot;:  de 8 a 1 horas (viernes, sábado y domingo hasta las 3 horas )  ";  Acceso para minusválidos, excepto para Sala Goya.  Terraza - azotea visitable  Cafetería  Teatro  ; Metro: Banco de España (línea 2)  Bus: 1, 2, 3, 5, 9, 46, 51, 52, 53, 74, 146, 150, 202 ;ALCALÁ;CALLE;42;28014;CENTRO;4.041.842.683.569.730;-36.965.967.618.484.400;"913 605 400 (Información general)                                                                           
";Monumento
Congreso de los Diputados; El Congreso de los Diputados está configurado por un complejo de cinco edificios con una superficie de cerca de setenta mil metros cuadrados. ;;; Metro: Sevilla (línea 2), Banco de España (línea 2)  Bus: 5, 9, 10, 14, 15, 20, 27, 34, 37, 45, 51, 52, 53,150 ;CORTES;PLAZA;1;28014;CENTRO;4.041.626.174.493.480;-3.697.081.267.552.520;913 906 296;Monumento
Consejo de Estado; Es el supremo órgano consultivo del Gobierno. Actualmente se rige por la  Ley Orgánica 3/1980, de 22 de abril, y su Reglamento es de 18 de julio del mismo año.  (Modificados por Ley Orgánica 3/2004 de 28 de diciembre) y (Real Decreto 449/2005 de 22 de abril).   No forma parte de la Administración activa ni está integrado en ninguno de los Departamentos ministeriales y, aunque la Constitución de 1978 lo califique literalmente de órgano consultivo del Gobierno, tiene en realidad el carácter de órgano del Estado (Sentencia del Tribunal Constitucional 56/1990, de 29 de marzo).  ;;  Archivo y Biblioteca:    Teléfonos: 915 166 356 / 915 166 357  Fax: 915 166 364  Correo electróncio:  archivo.biblioteca@consejo-estado.es   ; Bus: 148, 3 ;MAYOR;CALLE;79;28013;CENTRO;404.149.668.099.875;-37.129.445.136.801.300;915 166 240 / 915 166 241 (asuntos en tramitación);Monumento
Convento de las Comendadoras de Santiago; El templo fue construido entre 1667 y 1679 por Manuel del Olmo y José del Olmo. El convento data del siglo  XVIII   y es obra de Francisco de Sabatini. Es destacable la iglesia de planta cruciforme con gran cúpula central y cuatro exedras semicirculares, así como la sacristía de planta elíptica construida entre 1745 y 1754 por Francisco Moradillo. ;;; Metro: San Bernardo (líneas 2, 4), Ventura Rodríguez (línea 3)  Bus: 1, 2, 21, 44, 74, 133, 147, C ;COMENDADORAS;PLAZA;10;28015;CENTRO;404.273.968.151.307;-3.708.949.668.437.210;;Monumento
Edificio Metrópolis; Arquitectos : Jules y Reymond Fevrier y Luis Esteve (1906 - 1910)  Edificio de carácter monumental de estilo clasicista - francés de fin de siglo, aporta una buena solución de esquina para el arranque de la Gran Vía en la rotonda de columnas corintias de orden gigante que sostienen un tercer piso profuso en grupos escultóricos de Saint Marceux, Landousky, Lambert y Benlliure.   La Compañía Metrópolis sustituyó en 1975 el grupo escultórico de la Unión y el Fénix que coronaba la cúpula por una victoria alada de Federico Coullaut Valera.  ;;; Metro: Sevilla (línea 2), Banco de España (línea 2)  Bus: 1, 2, 5, 9, 15, 20, 51, 52, 53, 74, 146, 150, 202 ;ALCALA;CALLE;39;28014;CENTRO;4.041.866.416.622.280;-36.975.775.550.486.100;;Monumento
Ermita de San Antonio de la Florida (Museo); Ermita dedicada a San Antonio de Padua y pequeño museo. Las pinturas murales que la decoran son de Francisco de Goya. Alberga los restos mortales del artista desde 1919. Para preservar sus pinturas, en 1929 se trasladó el culto a una ermita gemela construida a su lado, dejando el edificio original como museo. ;  De martes a domingos y festivos de 9:30 a 20 horas.   Cerrado  los lunes, incluidos festivos, y los días 1 y 6 de enero, 1 de mayo y 24, 25 y 31 de diciembre.   Último pase de visita:  20 minutos antes del cierre (el desalojo de las salas comenzará 10 minutos antes)   Por motivos de conservación, el aforo máximo es de 50 personas en el interior de la capilla.  Los sábados que se celebren Visitas animadas para familias se interrumpirá la visita durante el desarrollo de las mismas.  Este horario y la apertura de salas pueden sufrir modificaciones, por favor, confírmelo en el teléfono de información del museo.  ; Tienda, en la que se pueden adquirir las guías y publicaciones sobre la ermita editadas por el Museo y otros organismos públicos, así como catálogos y publicaciones de instituciones culturales del Ayuntamiento de Madrid. ; Metro: Príncipe Pío (líneas 5, 10 y ramal Ópera - Príncipe Pío)  Bus: 41, 46 y 75 (Intercambiador Príncipe Pío)  Renfe: Príncipe Pío ;SAN ANTONIO DE LA FLORIDA;GLORIETA;5;28008;MONCLOA-ARAVACA;40.425.256.682.855.800;-3.725.725.718.176.110;"915 420 722 / 917 011 863                                                                                                                              
";Monumento
Ermita de San Isidro;;   Ermita:  sábados de 11 a 13 horas (celebración de la Eucaristía a las 12 horas).   Fuente del Santo:  sólo permanece abierta desde la semana anterior a la fiesta de San Isidro hasta la semana posterior.   Oficio en rito hispano mozárabe:  los días 2 de enero a las 18 horas (comienzo del año Caput anni) y 11 de mayo a las 18,30 horas (aniversario de la dedicación).  ;; Metro: Laguna (línea 6), Urgel (línea 5)  Renfe: Laguna (línea 5)  Bus: 25 ;ERMITA DEL SANTO;PASEO;78;28019;CARABANCHEL;4.039.949.832.410.480;-373.168.274.610.084;915 690 055;Monumento
Ermita de Santa María la Antigua;;;;Bus: 34, 108;MONSEÑOR OSCAR ROMERO;CALLE;1;28025;CARABANCHEL;40.380.299.379.931.600;-3.741.676.977.905.720;914 628 536 (Parroquia de San Sebastián Mártir);Monumento
Ermita Virgen del Puerto;;;; Metro: Puerta del Ángel (línea 6), Príncipe Pio (líneas 6 y 10)  Renfe: Príncipe Pío (líneas 1, 7 y 10)  Bus: 25, 31, 33, 39, 41, 62, 65, 138 ;VIRGEN DEL PUERTO;PASEO;4;28005;CENTRO;4.041.556.461.689.200;-37.211.426.105.677.400;;Monumento
Estación ferroviaria Madrid Puerta de Atocha; Edificio con carácter monumental construído en 1889 por Alberto del Palacio para la Compañía Madrid - Zaragoza - Alicante, en sustitución de la de los años 50 ;  Horario de la estación: de 5 a 1 horas  Horario de atención al cliente: de 6:30 a 22:30 horas  Horario de información: de 6:30 a 22:30 horas  Venta inmediata de billetes: de 5:30 a 22:30 horas  Venta anticipada de billetes: de lunes a viernes, excepto festivos: de 10 a 20 horas  Horario recogida venta telefónica: de 5:30 a 22:30 horas  Máquinas autoventa multiproducto: de 5:30 a 23:50 horas  Horario consignas: de 5:30 a 22:20 horas  ; Aseos, cafetería restaurante, cajeros automáticos, aparcamiento, comisaría de Policía Nacional, consigna, tiendas, servicios de alquiler de coches y de cambio de moneda, información turística, librería, recogida de billetes de venta telefónica e internet y sala Club   Servicios adaptados : atención a viajeros con discapacidad - aseos para personas con discapacidad - Vestíbulo zona comercial - Sillas de ruedas - Ascensores adaptados  - Andenes adpatados   Servicio Dialoga : información telefónica de Adif a través del móvil con conexión de datos para personas sordas y con discapacidad auditiva:  telesor.es  ; Metro: Atocha Renfe (línea 1)  Bus: 10, 19, 24, 47, 55, 57, 85, 102  Renfe: Atocha ;EMPERADOR CARLOS V;PLAZA;S/N;28012;CENTRO;40.409.567.615.732.200;-3.692.651.480.759.630;"902 432 343 (Información de estaciones) /                                         
902 320 320 (Renfe: información, reserva, venta, cambio y anulación de billetes) /                                      
902 240 505 (Viajeros con discapacidad) ";Monumento
Fundación BBVA. Palacio del Marqués de Salamanca;;;;;RECOLETOS;PASEO;10;28001;SALAMANCA;4.042.144.182.034.700;-36.910.993.927.829.500;91 537 69 64 (Fundación BBVA);Monumento
Fundación de los Ferrocarriles Españoles (Palacio de Fernán Núñez);  Fines:  tiene encomendada la recuperación, custodia y difusión del patrimonio histórico, cultural, científico y tecnológico ferroviario. ;;Biblioteca; Metro: Antón Martín (línea 1), Atocha (línea 1) , Lavapiés (línea 3).  Bus: 6 , 10 , 14 , 26 , 27 , 32 , 34 , 37 , 45 , 59 , 85 , C1.  Renfe: Atocha. ;SANTA ISABEL;CALLE;44;28012;CENTRO;4.040.981.202.127.930;-36.969.557.849.817.500;"915 276 172      
";Monumento
Galeria de Cristal del Palacio de Cibeles;" Una gran bóveda acristalada, de geometría irregular y forma orgánica, cobija  2.800  m&sup2;    de este lugar de representación, celebración y encuentro para los ciudadanos, bajo el cielo de Madrid. Eleva a 30 metros de altura su transparente levedad (500 toneladas). Etá construida con casi 2.000 cristales triangulares, todos diferentes entre sí, formados por 2.966 barras y 1.034 nudos unidos uno a uno.  Tras haber sufrido diversas alteraciones, este espacio, que nace al cubrir el antiguo pasaje Ruiz de Alarcón, antes ocupado por vehículos de reparto de correo, restaurado y rehabilitado, constituye un elemento esencial de la sede del Ayuntamiento de Madrid. "; Domingos y festivos de 11 a 20 horas ;; Metro: Banco de España (línea 2)  Bus: 1, 2, 5, 9, 10, 15, 20, 27, 34, 45, 51, 52, 53, 74, 146, 150   Renfe: Recoletos ;MONTALBAN;CALLE;1;28014;RETIRO;40.418.291.440.980.200;-369.213.979.278.398;"915 217 170          
";Monumento
Iglesia Catedral de las Fuerzas Armadas;;;; Metro: Ópera (Líneas , Ramal , 2 , 5)  Bus: 3 , 17 , 25 , 31 , 33 , 39 , 41 , 50 , 65 , 138 , 148  ;SACRAMENTO;CALLE;11;28005;CENTRO;40.414.889.947.123.700;-37.122.600.779.776.700;915 473 624;Monumento
Iglesia Corpus Christi (Jerónimas Recoletas);;;; Metro: Ópera ( Lineas, Ramal , 2 , 5 )  Sol ( Líneas, 1 , 2 , 3 ) La Latina ( Línea, 5 )  Bus: 3 , 6 , 17 , 18 , 23 , 25 , 26 , 31 , 32 , 39 , 50  , 51 ,  65 , 148 ,                     ;CONDE DE MIRANDA;PLAZA;3;28005;CENTRO;4.041.481.486.646.870;-37.098.194.568.632.300;915 483 701;Monumento
Iglesia de las Calatravas (Concepción Real de Calatrava);;;; Metro: Sevilla (línea 2)  Bus: 1, 2, 3, 5, 9, 14, 15, 20, 27, 37, 40, 45, 46, 50, 51, 52, 53, 74, 146, 150, 202 ;ALCALA;CALLE;25;28014;CENTRO;40.418.196.333.786.000;-3.698.963.613.858.250;915 218 035;Monumento
Iglesia Madres Redentoristas;;;; Metro: Carabanchel Alto ( Línea, 11)  Bus: 34 , 35 , 47 , 121 , 131 , 139 ;MADRE CELESTE;CALLE;1;28044;CARABANCHEL;4.037.319.952.563.820;-3.755.699.003.858.800;915 086 800;Monumento
Iglesia San Antonio de los Alemanes;;;; Metro: Callao (líneas 3 y 5), Gran Vía (líneas 1 y 5)  Bus: 1, 2, 46, 74, 146, 202        ;PUEBLA;CALLE;22;28004;CENTRO;4.042.195.996.338.600;-37.022.913.826.706.000;915 223 774;Monumento
Iglesia San Ildefonso (Monasterio de las Trinitarias Descalzas);;; El monumento conmemorativo alberga los restos hallados en la cripta del convento. Con la colocación de los restos de Miguel de Cervantes en la nave de la actual iglesia del siglo  XVIII   se cumple la voluntad testamentaria del autor de 'El Quijote'. Miguel de Cervantes, que fue enterrado en la primitiva iglesia el 23 de abril de 1616, expresó en su última voluntad descansar allí en agradecimiento a los Trinitarios que le liberaron de los cinco años y medio de cautiverio en Argel, en manos de los piratas berberiscos.  ; Metro: Antón Martín (Línea 1), Sevilla (Línea 2)  Bus: 5,  6, 9, 10, 14, 15, 20, 26, 27, 32, 34, 37, 45, 51, 52, 53, 150  ;LOPE DE VEGA;CALLE;18;28014;CENTRO;4.041.367.254.153.840;-36.976.792.276.700.900;914 295 671;Monumento
Iglesia San Pedro el Viejo;;;; Metro: La Latina (Línea 5) Tirso de Molina (Línea 1)  Bus: 3 , 6 , 17 , 18 , 23 , 26 , 31 , 32 , 35 , 41 , 50 , 60 , 65 , 148 , 749 ;NUNCIO;CALLE;14;28005;CENTRO;4.041.320.112.124.680;-371.000.286.701.288;913 651 284;Monumento
Instituto Cervantes; El antiguo Banco Español del Río de la Plata eligió para su construcción el solar en el que estuvo situado el palacio de Casa Irujo y seleccionó a dos arquitectos de la época, Palacios y Otamendi. Para algunos autores es su mejor edificio, dentro de ese característico estilo grandioso y monumental que incorpora los órdenes clásicos con vigor, rotundidad y correcta modulación y los conjuga con la innovación de las superficies lisas de grandes vanos acristalados. En el chaflán, un grupo de cariátides preside la entrada. Ese mismo argumento de monumentalidad fue el que se utilizó para conceder la licencia constructiva, pues el exceso de altura (25 metros en vez de los 18 permitidos) retrasó el permiso para iniciar las obras. La gran carga simbólica del edificio se subrayaba en el patio central de operaciones, que abarcaba la altura de todas las plantas y se remataba con una magnífica cúpula vidriera. En torno a él se abrían perimetralmente las distintas dependencias bancarias, conjugando asimismo modernidad y monumentalidad en los elementos constructivos. Ese grandioso espacio central se perdió con la reforma y ampliación de la década de 1940, en la que se añadió un nuevo edificio por la calle del Barquillo y se cambió por completo el interior. La fachada de esta ampliación aspira a repetir el esquema de Palacios y Otamendi sin mimetizarlo. ;  Recepción: 8 a 19 horas  Registro:   lunes a jueves: de 8 a 15 horas  Viernes: de 9 a 14 horas    Exposiciones: consultar programa  ;  Biblioteca  Canal de televisión a través de internet (24 horas de emisión)  cervantestv.es   ; Metro: Banco de España (línea 2)  Bus: 1, 2, 5, 20, 51, 52, 53, 74  Renfe: Recoletos ;ALCALA;CALLE;49;28014;CENTRO;40.419.245.261.976;-36.953.321.647.484.300;914 367 600;Monumento
Instituto Italiano de Cultura de Madrid;  Objetivo : promover y difundir la lengua y la cultura italianas en España a través de la organización de actividades culturales para favorecer la circulación de las ideas, de las artes y de las ciencias.  ; Invierno: de lunes a viernes de 9 a 18 horas  Verano: de 9 a 14 horas ;  Biblioteca  Cafetería  Exposiciones  Ciclos de cine  Enseñanza del  iItaliano  Salón de actos  ; Metro: Opera (líneas 2, 5, R)  Bus: 3, 25, 39, 148 ;MAYOR;CALLE;86;28013;CENTRO;4.041.523.808.103.920;-37.127.823.633.086.300;"915 475 205  / 915 478 603 (Centralita)                 
";Monumento
Ministerio de Hacienda y Administraciones Públicas. Dirección General de Patrimonio del Estado;;;; Metro: Sol (líneas 1, 2, 3)  Bus: 5, 150   Renfe: Sol ;ALCALA;CALLE;9;28014;CENTRO;40.417.489.335.230.300;-37.011.604.823.997.800;915 958 000;Monumento
Ministerio de Hacienda y Administraciones Públicas. Sede calle Alcalá; Edificio declarado bien de interés cultural, con categoría de monumento.  Construido por Francisco Sabatini en 1769 para Real Casa de Aduanas. Es uno de los primeros edificios neoclásicos de Madrid. Destaca su fachada romana y escalera que forma el núcleo del edificio, lugar de intersección de toda la circulación dentro de la organización de los tres patios. ;; Biblioteca ; Metro: Sol (líneas 1, 2, 3), Sevilla (línea 5)  Bus: 5, 150   Renfe: Sol ;ALCALA;CALLE;9;28014;CENTRO;40.417.489.335.230.300;-37.011.604.823.997.800;915 958 000;Monumento
Ministerio de Justicia;Edificio construido por el arquitecto Evaristo del Castillo para la Marquesa de Sonora en 1797, sobre el solar donde se encontraba la casa de Don Bernardo Grimaldo, destruida en un incendio en 1789. En 1851 pasa a ser propiedad del Estado y entre 1942 y 1947 es transformado por Javier Barroso, que le da el estilo nacionalista - herreriano, introduciendo las torres con sus chapiteles y revistiendo éstas con piedra. ; Atención telefónica:  de lunes a viernes  de 9 a 17 horas;; Metro: Noviciado (línea 2), Plaza de España (líneas 3, 10)  Bus: 147 ;SAN BERNARDO;CALLE;45;28015;CENTRO;4.042.412.618.887.780;-3.707.536.103.996.870;"913 902 000 (Centralita)               
";Monumento
Monasterio de las Descalzas Reales; Convento fundado por la Princesa Juana de Austria, transformando un antiguo palacio de su madre Isabel de Portugal. ; Sólo con visita guiada.    De martes a sábado de 10 a 14 horas y de 16 a 18:30 horas  Domingos y festivos, de 10 a 15 horas. Cerrado los lunes  Cierre de taquillas una hora antes  Cerrado:   Enero: días 1, 6.  Abril: del 1 al 4 inclusive, semana santa.  Mayo: día 1.  Diciembre: 24, 25 y 31 de diciembre.    El  7 de diciembre  abierto en horario de mañana y tarde.     Atención telefónica:    De lunes a sábados de 9:30 a 17 horas  Domingos y festivos de 9 a 14 horas  ;; Metro: Callao (líneas 3, 5) , Santo Domingo (línea 2) , Sol (líneas 1, 2, 3) Gran Vía (líneas 1, 5)  Bus: 1, 2, 3, 5, 15, 20, 25, 39, 40, 44, 46, 50, 51, 52, 53, 74, 75, 133, 146, 147, 148, 149, 150, 202 ;DESCALZAS;PLAZA;3;28013;CENTRO;40.418.233.359.889.400;-3.706.213.134.639.160;"914 548 700                                                      
";Monumento
Monasterio de San Plácido;;;; Metro: Noviciado (línea 2)  Bus: 3, 147 ;SAN ROQUE;CALLE;9;28004;CENTRO;40.422.820.373.636.300;-3.704.504.689.941.360;915 317 999;Monumento
Monumento Homenaje a las Víctimas del 11 de marzo;; De martes a domingos, de 11 a 14 horas y de 17 a 19 horas. Lunes Cerrado. ;Acceso para personas discapacitadas;;Emperador Carlos V;GLORIETA;;28014;RETIRO;4.040.774.080.279.230;-36.892.974.870.165.900;;Monumento
Museo de Historia de Madrid;;"   Exposición    &quot;Cervantes a la luz: imágenes del hallazgo&quot;:   de martes a domingo de 10:00 a 20 horas.   Salas de exposición permanente y de Cartografía y maquetas : de martes a domingo de 10:00 a 20 horas.  Cerrado : todos los lunes y los días 1 y 6 de enero, 1 de mayo, 24, 25 y 31 de diciembre.   ";  Biblioteca de investigación  Servicio de documentación  Guardarropa  Zona wifi  ; Metro: Tribunal (líneas 1 y 10), Bilbao (líneas 1 y 4), Alonso Martínez (4, 5, 10)  Bus: 3, 21, 37, 40, 147, 149  Aparcamiento público: Barceló ;FUENCARRAL;CALLE;78;28004;CENTRO;4.042.577.054.821.340;-3.700.845.660.719.600;917 011 863;Monumento
Museo de la Real Academia de Bellas Artes de San Fernando;Construido inicialmente para palacio de D. Juan de Goyeneche, el edificio fue adquirido por la Academia de Bellas Artes en 1773 y reformado bajo la dirección de Fernando Chueca Goitia en 1973 y la fachada por Diego de Villanueva en 1774.;"  Colección permanente:  de martes a domingos de 10 a 15 horas., incluyendo festivos. Lunes cerrado.      Exposiciones temporales:  consultar telefónicamente  Cerrado mes de agosto y días 1 y 6 de enero, 1 y 30 de mayo, 9 de noviembre; 24, 25 y 31 de diciembre.  ";Sala de exposiciones - Accesible a personas con minusvalía (física).; Metro: Sol (línea 3), Sevilla (línea 2)  Bus: 3, 5, 15, 20, 50, 51, 55, 53, 150 ;ALCALA;CALLE;13;28014;CENTRO;4.041.764.548.040.700;-3.700.667.044.636.170;"915 240 864 (Centralita)                                    
";Monumento
Museo del Ferrocarril de Madrid;Edificio de caracter monumental. Construido como cabecera de la línea Madrid - Extremadura - Portugal en el año 1880 por E. Cachelievre.;  De martes a viernes de 9:30 a 15 horas.   Sábados de 10 a 15 horas.   Domingos de 10 a 15 horas.   Cerrado los lunes (incluidos festivos), del 16 al 31 de agosto (ambos inclusive), y los días 1 y 6 de enero, 1 de mayo y 25 de diciembre.  ;"  Tienda  Teatro  Librería  Cafetería  Archivo y Biblioteca  Parque ferroviario  Salas de Tracción, de Modelismo Ferroviario, de Infraestructura y de Relojes    Actividades    Feria de coleccionismo &lsquo;La Estación&rsquo; (los primeros sábados de cada mes, excepto en agosto)  Mercadillo de modelismo (primeros domingos de cada mes, excepto en agosto)   Actividades para escolares  Teatro familiar (todos los sábados, domingos y festivos, excepto julio y agosto)  Trenes de jardín (todos los domingos, excepto julio y agosto)    "; Metro: Delicias (línea 3)  Bus: 8, 19, 45, 47, 59, 85, 86  Renfe: Delicias ;DELICIAS;PASEO;61;28045;ARGANZUELA;40.400.281.290.485.500;-3.693.817.192.160.560;"902 228 822                                                                                           
";Monumento
Museo Lázaro Galdiano;;  Martes a sábados de 10 a 16:30 horas.  Domingos de 10 a 15 horas.  Cerrado todos los lunes, 1 y 6 de enero, 28 y 29 de marzo, 1 y 15 de mayo, 15 de agosto, 1 de noviembre y 24, 25 y 31 de diciembre.    Visitas guiadas  al Museo fuera de horario: de 17:30 a 18:45 horas, previa reserva telefónica en el 915 616 084 (extensión 101).    Horario para reserva telefónica: de lunes a jueves, de 8:30 a 16:30 horas, viernes hasta las 14 horas.   Importe: 2 euros (entrada al museo).   Miércoles y jueves: para grupos previamente constituidos.   Viernes para visitantes individuales reunidos para la visita.   ;; Bus: 9, 12, 16, 19, 51, 61  ;SERRANO;CALLE;122;28006;SALAMANCA;40.436.750.328.725.900;-36.861.980.129.207.800;915 616 084;Monumento
Museo Nacional de Artes Decorativas; Inaugurado en 1912, su sede es un típico palacete madrileño del último tercio del siglo XIX. El museo posee muebles, cerámicas, vidrios, joyas, tejidos, arte oriental, y hasta 30.000 objetos distintos que a lo largo de la historia han servido para embellecer las casas, palacios y los monumentos de distintas culturas.  El museo posee muestras como el Jarrón de Sevres regalo de Napoleón III, la Cocina Valenciana del siglo XVIII compuesta por más de 1.500 azulejos de Manises, la Mesa de plata del siglo XVI o la colección de alfombras españolas de los siglos XV al XVII. ;  De martes a sábados de 9:30 a 15 horas.   Jueves tarde de 17 a 20 horas.  Cerrado los jueves de julio y agosto.  Domingos y festivos de 10 a 15 horas.   Cerrado: todos los lunes del año, y los días 1 y 6 de enero, 1 y 15 de mayo, 24, 25 y 31 de diciembre.  ;  Exposición de piezas españolas y de procedencia extranjera.     Visitas guiadas a la colección permanente.   Los guías voluntarios del Museo Nacional de Artes Decorativas ofrecen visitas gratuitas a la colección permanente los domingos a las 11:30 horas para todos los visitantes y de martes a viernes a grupos (previa petición de hora en el 915 326 499 -  Ext.  101).   Visitas guiadas individuales  los domingos a las 11:30 horas    Información y reservas para grupos:  915 326 499.  Ext.  101 (En caso de cancelación de la visita, se ruega avisar telefónicamente) ; Metro: Banco de España (línea 2) , Retiro (línea 2)  Bus: 1, 2, 5, 9, 10, 14, 15, 16, 19, 20, 27, 28, 34, 37, 45, 51, 52, 53, 74, 146, 148, 150  Cercanías: Recoletos ;MONTALBAN;CALLE;12;28014;RETIRO;404.178.910.680.573;-3.689.790.044.810.550;915 326 499 / 915 326 845;Monumento
Museo Nacional de Ciencias Naturales;Construido por Fernando de la Torriente en 1881 con hierro y cristal. De estructura muy similar a los pabellones con destino a exposiciones construídos en la época. Sus jardines albergan un estanque, el monumento a Isabel la Católica y el monumento a la Constitución de 1978.; De martes a viernes, domingos, festivos y lunes festivos de 10 a 17 horas. Sábados, domingos previos a festivos de 10 a 20 horas. Sábados de julio y agosto de 10 a 15 horas.   Cerrado : todos los lunes no festivos, 1 y 6 de enero, 1 de mayo y 25 de diciembre   Biblioteca : de lunes a viernes de 9 a 15 horas. Julio y agosto: de lunes a viernes de 9 a 14,30 horas   Mediateca  (cerrada por obras). ; Biblioteca de Zoología, Entomología, Econología, Evolución, Geología y Paleontología (consulta en sala, información y referencia, reprografía, préstamo personal e interbibliotecario), Archivo, publicaciones, consulta y asesoramiento científico y técnico, exposiciones permanentes y temporales, actividades culturales, talleres, cursos, Sala de proyecciones. Librería especializada. ; Metro: Gregorio Marañón (líneas 7, 10)  Bus: 7, 12, 14, 27, 40, 45, 147, 150 ;JOSE GUTIERREZ ABASCAL;CALLE;2;28006;CHAMARTIN;4.044.042.943.656.610;-3.690.161.856.630.630;914 111 328 (centralita);Monumento
Museo Thyssen Bornemisza; El Palacio donde se ubica la colección fue el antiguo palacio del duque de Villahermosa. Edificación neoclásica. Posteriormente se adapta como entidad bancaria perdiento sus espacios interiores. Más tarde, pasó a formar parte de los edificios del Museo del Prado. Desde principios de los 90 alberga la Colección Thyssen. El museo ofrece un recorrido por la historia de la pintura europea desde sus inicios en el siglo  XIII , hasta finales del siglo  XX.       Horario general:    Colecciones permanentes:  lunes de 12 a 16 horas (acceso gratuito por patrocinio de MasterCard) y de martes a domingo de 10 a 19 horas. Los días 1 de enero, 1 de mayo y 25 de diciembre, el Museo permanecerá cerrado.   Exposiciones temporales:  de martes a domingo de 10 a 19 horas . Sábados de 10 a 21 horas   Exposiciones temporales en verano:  de martes a sábados, de 10 a 22 horas. Lunes y domingos, de 10 a 19 horas.    Montajes expositivos:  lunes de 12 a 16 horas (Carmen en las colecciones españolas y Calles y rostros de Berlín en las colecciones Thyssen- Bornemisza) y de martes a domingo de 10 a 19 horas.  El desalojo de todas las salas tendrá lugar 5 minutos antes del cierre.  ;;  Accesible a personas con discapacidad (física y sensorial)   Folleto y señalización en braille para invidentes  Librería  Tienda  Cafetería  Restaurante  Guardarropa  Servicio de venta anticipada en las taquillas  Servicio de Audio Guía  ; Metro: Banco de España (línea 2)  Bus: 1, 2,  5, 9, 10, 14, 15, 20, 27, 34, 37, 45, 51, 52, 53, 74, 146, 150  Renfe: Recoletos ;PRADO;PASEO;8;28014;CENTRO;4.041.600.553.697.800;-3.694.744.831.131.070;"902 760 511 (Información general)                                                                                                                                                                                                 
";Monumento
Palacio de Buenavista. Cuartel General del Ejército; El actual Cuartel General del Ejército está formado por un conjunto de edificios entre los cuales destaca por su importancia y tamaño el palacio de Buenavista. Fue construido por el duodécimo duque de Alba, que compró en 1769 una finca situada en el lugar conocido como Altillo de Buenavista, que había tenido varios propietarios, entre ellos la Corona.  En 1847 se amplía con un nuevo cuerpo que se destina a Ministerio de la Guerra. El grupo escultórico de la fachada es obra de Aniceto Marías.  ; Relevo de la Guardia: último viernes de cada mes, a las 11 horas en la fachada de la calle de Alcala. ;; Metro: Banco de España (línea 2)  Bus: 1, 2, 5, 9, 10, 14, 15, 20, 27, 37, 45, 51, 52, 53, 74, 146, 150, 202 ;CIBELES;PLAZA;3;28014;CENTRO;40.419.660.627.134.100;-36.936.744.082.913.000;;Monumento
Palacio de Cibeles;;;  Sede de la Alcaldía de Madrid  CentroCentro Cibeles de Cultura y Ciudadanía. 5Cs  Cafetería Colección Cibeles (planta 2)  Restaurante Palacio de Cibeles (planta 6)  Galería de cristal   ; Metro: Banco de España (línea 2)  Bus: 1 , 2 , 5 , 9 , 10 , 15 , 20 , 27 , 34 , 45 , 51 , 52 , 53 , 74 , 146 , 150  Renfe: Recoletos ;CIBELES;PLAZA;1;28014;RETIRO;40.419.011.767.401.000;-3.692.206.111.679.650;;Monumento
Palacio de Liria; Construído por Ventura Rodríguez entre 1762 y 1780 para el tercer Duque de Berwick y de Liria. De estilo barroco clásico. Destaca su fachada con columnas jónicas y pilastras que descansan sobre un basamento almohadillado.  ; Viernes: visita guiada a las 10 horas, 11 horas y 12 horas.  Visitas: previa petición de cita por escrito o por fax ;; Metro: Ventura Rodríguez (línea 3)  Bus: 1, 2, 44, 74, 133, C ;PRINCESA;CALLE;20;28008;CENTRO;4.042.680.681.645.220;-37.125.979.731.032.400;91 547 53 02;Monumento
Palacio de Santoña; Es una construcción del siglo  XVI , reformada posteriormente en el siglo  XVIII   por el arquitecto Pedro de Ribera, y en el siglo  XIX  por Antonio Ruiz de Salces. ;;; Metro: Antón Martín (línea 1)  Bus: 6, 26, 32, 50, 65 ;HUERTAS;CALLE;13;28012;CENTRO;40.413.979.743.685.400;-3.700.511.154.527.750;;Monumento
Palacio Real; Construido sobre el solar del antiguo Alcázar tras un incendio en 1734. Proyectado por Juvara en 1735 y construido por Sachet de 1738 a 1764 bajo las influencias del clasicismo barroco. A partir de 1770, Sabatini añadió el ala sudeste y realizó la gran escalera. Es de destacar el gran patio que articula el edificio y la fachada principal que aloja el balcón y Escudo Real.  Dentro se encuentra el Museo Real Oficina de Farmacia (cerrado por obras de remodelación). ;  De octubre a marzo: de 10 a 18 horas.  De abril a septiembre: de 10 a 20 horas.  Cierre taquillas una hora antes.  Cerrado:   Enero: días 1, 6.  Mayo: día 1.  Octubre: día 12.  Diciembre: 25, los días 24 y 31 taquillas 14 horas cerradas y monumento a las 15 horas cerrado.    El  7 de diciembre  abierto horario de mañana y tarde.  ;" Librería. Exposición permanente Cuarteto Real (colección de cinco stradivarius). Visita incluida en el precio de la entrada. Más información: teléfono 91 542 00 59. Accesible a personas con minusvalía (física).   Iluminación del Palacio : todos los días, del atardecer hasta las 2 de la madrugada   Cambio de guardia : primer miércoles de cada mes (si la climatología lo permite) a las 12 horas, en la Plaza de la Armería. Además se producirá un cambio de guardia reducido el resto de miércoles del mes a las 12 horas, en la Puerta del Príncipe (Plaza de Oriente). Sin relevo: en julio, agosto y septiembre.   Archivo General de Palacio     Horario:  lunes, miércoles y viernes de 9 a 14:30 horas; martes y jueves de 9 a 18 horas  "; Metro: Ópera (líneas 2, 5 y Ramal Opera Norte)  Bus: 3, 25, 39, 148 ;BAILEN;CALLE;0;28013;CENTRO;4.042.075.212.551.190;-3.712.699.107.286.400;914 548 700 (Información general);Monumento
Panteón de Hombres Ilustres; La construcción de este edificio responde a dos de las constantes de fines de siglo: la arquitectura historicista y la escultura funeraria. En él reposan trece personajes ilustres de la historia política y militar española. ;"  De martes a sábado de 10 a 14 y de 16 a 18:30 horas  Domingos y festivos de 10 a 15 horas. Lunes cerrado   Cerrado :    Enero los días 1 y 6  Mayo el día 1  Diciembre el día 25 ; los días 24 y 31 (desde las 14:30 horas), monumento cerrado a las 15 horas.    Cierre del acceso al monumento media hora antes.  Nota. El  7 de diciembre  abierto en horario de mañana y tarde.  ";; Metro: Atocha (línea 1)  Bus: 10, 14, 24, 32, 37, 54, 57, 141  Renfe: Atocha ;JULIAN GAYARRE;CALLE;3;28014;RETIRO;4.040.622.617.519.110;-3.683.413.041.846.520;914 548 700 (Información general);Monumento
Parroquia Nuestra Señora del Buen Consejo;;;; Metro: La Latina (línea 5)   Bus: 17, 18, 23, 31, 35, 50, 65 ;TOLEDO;CALLE;37;28005;CENTRO;40.412.964.921.671.900;-3.707.383.827.213.780;913 692 037;Monumento
Parroquia San Fermín de los Navarros;;;; Metro:  Rubén Darío (Línea 5)  Bus: 5, 7, 14, 16, 27, 40, 45, 61, 147, 150 ;EDUARDO DATO;PASEO;10;28010;CHAMBERI;40.432.757.364.795.800;-3.692.571.049.214.640;913 197 148;Monumento
Parroquia San Ginés;;;; Metro:  Sol (líneas 1, 2, 3) , Opera (líneas 2, 5, Ramal) , Callao (líneas 3, 5)   Bus:  3, 25, 39  Renfe: Sol ;ARENAL;CALLE;13;28013;CENTRO;4.041.728.242.858.590;-3.707.028.284.837.050;913 664 875;Monumento
Parroquia San José;;;; Metro: Banco de España (línea 2) ,  Gran Vía (líneas 1, 5)  Bus: 1, 2, 3, 5, 9, 15, 20, 46, 51, 52, 53, 74, 146, 150,   Renfe: Sol, Recoletos ;ALCALA;CALLE;43;28014;CENTRO;4.041.904.792.380.410;-36.966.856.794.698.700;915 226 784;Monumento
Parroquia San Manuel y San Benito;;;; Metro: Retiro (línea 2), Príncipe de Vergara (líneas 2, 9)  Bus: 1, 2, 9, 15, 19, 20, 28, 51, 52, 74, 146, 203 ;ALCALA;CALLE;83;28009;SALAMANCA;4.042.074.217.866.130;-36.860.471.147.515.600;914 357 682;Monumento
Parroquia San Marcos;;;; Metro: Plaza de España (líneas 3, 10), Noviciado (línea 2)  Bus: 1, 2, 3, 44, 46, 74, 75, 133, 138, 148, C1, C2, M2 ;SAN LEONARDO;CALLE;10;28015;CENTRO;4.042.476.160.196.840;-37.111.617.863.516.700;915 471 079 ;Monumento
Parroquia San Millán y San Cayetano;;;; Metro: Latina (línea 5) Tirso de Molina (línea 1)  Bus: 6 , 17 , 18 , 23 , 26 , 32 , 35 , 41 , 60 , 65 , 148 , C , M-1 (minibús)  Renfe: Embajadores ;EMBAJADORES;CALLE;15;28012;CENTRO;40.409.461.123.751.500;-3.705.791.428.982.770;915 270 790;Monumento
Parroquia San Nicolás de Bari de los Servitas;;;Parroquia personal de los italianos; Metro: Opera (líneas 2, 5, ramal)  Bus: 3, 25, 31, 39, 50, 65, 148 ;SAN NICOLAS;PLAZA;6;28013;CENTRO;40.415.793.260.849.800;-37.118.688.527.171.200;915 594 064;Monumento
Parroquia Santa Bárbara;;;; Metro: Colon (línea 4), Alonso Martínez (líneas 4, 5, 10)  Bus: 3, 5, 14, 21, 27, 37, 45, 53, 150  Renfe: Recoletos ;"GENERAL CASTA&Ntilde;OS";CALLE;2;28004;CENTRO;4.042.428.879.388.520;-36.940.873.878.242.100;913 194 811;Monumento
Parroquia Santa Cruz;;;; Metro: Sol (líneas 1, 2, 3), Tirso de Molina (línea 1)  Bus: 3, 6, 17, 18, 23, 26, 31, 32, 35, 50, 65, M1  Renfe: Sol ;ATOCHA;CALLE;6;28012;CENTRO;40.414.608.558.946.000;-3.705.255.882.048.690;913 691 239;Monumento
Parroquia Santiago y San Juan Bautista;;;; Metro: Ópera (línea 2, 5, Ramal)  Bus: 3, 25, 39, 148 ;SANTIAGO;PLAZA;24;28013;CENTRO;4.041.652.031.892.380;-37.108.392.672.110.600;915 480 824;Monumento
Plaza de Oriente; Diseñada por González Velázquez. Se empieza a construir en 1816, tomándose como eje el Teatro Real enfrentado al Palacio Real. Su trazado definitivo se realiza en 1850 por Narciso Pascual Colomer. Entre 1994 y 1997 se llevó a cabo la remodelación que integra en un conjunto peatonal el Palacio Real y el Teatro de la Opera, siguiendo el proyecto de los arquitectos Miguel Oriol e Ibarra y Miguel Botella Ruiz-Castillo. Los jardines situados frente al Palacio Real. En el centro de la plaza se encuentra la estatua ecuestre de Felipe IV, obra fundida por Pietro Tacca según cálculos de Galileo Galilei. ;;; Metro: Ópera (líneas 2, 5, R)  Bus: 3, 25, 33, 39, 148 ;ORIENTE;PLAZA;0;28013;CENTRO;;;;Monumento
Plaza Mayor;Lugar emblemático de Madrid con origen en la antigua Plaza del Arrabal, extramuros del recinto medieval y foco comercial del primitivo Madrid. Tuvo forma irregular debido a su crecimiento espontáneo,  y fue objeto de varios proyectos de regularización. Al ser elegida Madrid como capital, se vio la necesidad de crear una auténtica Plaza Mayor y Felipe  II   se lo encargó a Juan de Herrera. En el siglo  XIX   se colocó la estatua de Felipe  III  a cuyo reinado pertenece la construcción de la plaza. ;; Todos los domingos de 9 a 14 horas se celebra un mercadillo filatélico (sellos) ; Metro: Sol (líneas 1, 2, 3), Tirso de Molina (línea 1)  Bus: 3, 17, 18, 23, 31 ;MAYOR;PLAZA;0;28012;CENTRO;4.041.498.735.934.110;-3.706.662.448.203.060;;Monumento
Plaza Monumental de Toros de las Ventas; De estilo neomudéjar se terminó de construir en el año 1931. Basada en un proyecto de José Espelius, quien murió antes de la conclusión de las obras, fue terminada por Manuel Muñoz Monasterio. El terreno se presenta en talud, salvado desde la Avenida de los Toreros mediante escalinatas que interrumpen el trazado ajardinado. ;  La plaza de toros de Las Ventas está abierta  todos los días de 10 a 17:30 horas, para realización de visitas guiadas , excepto días de cierre excepcional.   Los días de corrida se cierra 4 horas antes del inicio del espectáculo, que se celebran:   Todos los domingos de finales de marzo hasta principios de octubre  Durante la Feria de San Isidro  Durante la Feria de Otoño en octubre  Días de cierre: 25 de diciembre y 1 de enero     Por motivos de organización, el Tour podrá variar su recorrido y horario informando al visitante antes del acceso. Teléfono de información: 687 73 90 32 ;; Metro: Ventas (líneas 2, 5)  Bus: 12, 21, 38, 53, 106, 110, 146 ;ALCALA;CALLE;237;28028;SALAMANCA;4.043.117.134.669.580;-36.634.583.301.342.300;913 562 200 ;Monumento
Puerta del Sol;Toma su nombre de un postigo de la antigua muralla medieval que estaba decorado con un Sol y que se derribó en el siglo XVII, el lugar conservó el nombre. En origen fue un punto exterior de la ciudad, aunque debido al crecimiento de Madrid y a su  situación fue convirtiéndose poco a poco en el centro de la capital. En 1857 ,el Ministerio de Fomento  convoca un concurso quedando aprobada la reforma de Lucio del Valle, Juan Rivera y José Morer, que conservaba la alineación de la antigua Casa de Correos en uno de los lados, mientras que el otro adoptaba una forma semicircular.;;; Metro: Sol (líneas 1, 2, 3)  Bus: 15, 20, 51, 52, 53 ;PUERTA DEL SOL;PLAZA;1;28013;CENTRO;40.416.887.979.993.900;-37.022.740.027.977.300;;Monumento
Real Academia de Ciencias Morales y Políticas;Ubicada en una de las pocas casas-palacio del siglo  XV  conservadas en Madrid. La torre y la casa fueron mandadas construir por Álvaro de Luján antes de 1471. Su planta, de forma irregular, se distribuye en torno a un gran patio central y tiene triple fachada. El edificio ha sufrido múltiples reformas, una de las cuales fue para la instalación de la  Real Academia , llevada a cabo en 1858.;;  Actividades: disertaciones privadas para los académicos. Actos públicos cuando ingresa un nuevo académico.  Biblioteca: acceso restringido a académicos e investigadores.   ; Metro: Sol (líneas 1, 2, 3), Ópera (líneas 2, 5)  Bus: 3, 25, 31, 39, 50, 65, 148, N16, N26  Renfe: Sol ;DE LA VILLA;PLAZA;2;28005;CENTRO;404.151.547.271.264;-371.022.377.531.515;915 481 330;Monumento
Real Academia de Jurisprudencia y Legislación;;;  Salón de actos   Biblioteca  Archivo   Sala de conferencias   Actividades: conferencias, seminarios y coloquios  ; Metro: Banco de España (línea 2)  Bus: 1, 2, 5, 9, 10, 14, 27, 34, 37, 45, 46, 51, 52, 53, 146, 150, 202, N9, N1, N4,  N10, N11, N12, N13, N14, N15, N17, N25, N26. ;MARQUÉS DE CUBAS;CALLE;13;28014;CENTRO;4.041.749.648.159.220;-36.955.027.540.085.200;915 222 069;Monumento
Real Academia Española de Historia;;;; Metro: Antón Martín (línea 1), Sevilla (línea 2).  Bus: 6, 15, 20, 26, 32, M1, N25. ;DE LEÓN;CALLE;21;28014;CENTRO;4.041.346.631.071.610;-3.699.008.959.181.700;914 290 611 ;Monumento
Real Academia Nacional de Farmacia;;;  Museo de farmacia   Biblioteca  ; Metro: Chueca (línea 5), Tribunal (línea 1 y 10), Alonso Martínez (línea 4, 5 y 10).  Bus: 3, 37, 40, 149, M2.  ;FARMACIA;CALLE;9;28004;CENTRO;40.423.966.629.698.400;-36.997.070.566.405.600;915 310 307  / 915 223 147;Monumento
Real Basílica San Francisco el Grande; Conjunto conventual que sustituyó al monasterio franciscano medieval, construido por Francisco de las Cabezas entre 1761 y 1768, que fue relevado por Antonio Polo y que concluye Francisco Sabatini en 1784 donde se exponen colecciones de pinturas de los siglos  XVII  al  XIX.  ;  Museo:     De martes a viernes de 10:30 a 12:30 y de 16 a 18 horas  Sábados de 10:30 a 12:30 y de 16 a 18 horas (si no se ofician actos religiosos).   Julio y agosto: de martes a domingo de 10:30 a 12:30 y de 17 a 19 horas.  ;; Metro: La Latina (línea 5) , Puerta de Toledo (línea 5)  Bus:  3, 17, 18, 23, 31, 35, 36, 41, 50, 60, 65, 148, 749, C1, C2 ;SAN BUENAVENTURA;CALLE;1;28005;CENTRO;4.041.084.005.024.220;-3.714.503.845.728.280;913 653 800;Monumento
Real Colegio Santa Isabel - La Asunción;;; Horario ampliado - Comedor ; Metro: Atocha , Antón Martín   Bus: 6 , 19 , 26 , 27 , 32 , 34 , 37 , 41 , 45 , 119 , C   Renfe: Atocha ;SANTA ISABEL;CALLE;46;28012;CENTRO;4.040.962.511.552.300;-36.965.767.139.076.400;915 273 183 - 915 273 181;Monumento
Real Fábrica de Tapices;; De lunes a viernes de 10 a 14 horas.   Cerrado: sábados, domingos, Semana Santa y agosto. ;Salones para eventos; Metro: Menéndez Pelayo (línea 1)  Bus: 10, 14, 26, 32, C ;FUENTERRABIA;CALLE;2;28014;RETIRO;40.406.087.329.011.600;-3.682.515.969.574.070;914 340 550;Monumento
Real Jardín Botánico; Centro de investigación del  CSIC  que alberga cuatro terrazas con plantas de América, Europa y el Pacífico, así como una colección de bonsáis.  ; El Jardín está abierto al público todos los días del año, excepto los días de Navidad y Año Nuevo.   Enero y febrero: de 10 a 18 horas  Marzo: de 10 a 19 horas  Abril: de 10 a 20 horas  De mayo a agosto de 10 a 21 horas  Septiembre: de 10 a 20 horas  Octubre: de 10 a 19 horas  Noviembre y diciembre: de 10 a 18 horas  ;; Metro: Atocha (línea 1)  Bus: 10, 14, 19, 24, 26, 27, 32, 34, 45, 57, 140, Circular  RENFE: Atocha ;MURILLO;PLAZA;2;28014;RETIRO;4.041.238.214.985.830;-3.692.032.097.926.270;914 203 017 (centralita);Monumento
Real Monasterio de la Encarnación; Edificio construído por Juan Gómez de Mora de 1611 a 1616 como monasterio anejo al Alcázar Real, modelo de lo que se ha dado en llamar barroco madrileño. Cuenta con la reliquia de San Pantaleón. ;  De martes a sábado: de 10 a 14 horas y de 16 a 18:30 horas  Domingos y festivos: de 10 a 15 horas. Tardes cerrado  Cierre taquillas: una hora antes  Cerrado:   Enero: días 1 y 6.  Abril: del 1 al 4 inclusive, semana santa.  Mayo: día 1  Diciembre: 24,25 y 31.  El día  7 de diciembre  abierto horario de mañana y tarde.    ;; Metro:  Ópera (líneas 2, 5 y Ramal Ópera Príncipe Pío), Plaza de España (líneas 3, 10)  Bus:  1, 2, 3, 25, 39, 44, 46, 74, 75, 133, 138, 147, 148, C1, C2 ;ENCARNACION;PLAZA;1;28013;CENTRO;4.041.967.800.877.380;-3.711.567.962.866.150;914 548 700 (Información general);Monumento
Real Monasterio de Santa Isabel; El Real Monasterio de Santa Isabel está situado en Madrid, dentro de la ciudad histórica, en una gran manzana, próxima a Atocha.  Santa Isabel agrupa dos fundaciones, un colegio de niñas, establecido por Felipe II, y un convento de clausura de monjas agustinas recoletas, fundado por la esposa de Felipe III, doña Margarita de Austria.   La arquitectura de la iglesia se debe a Gómez de Mora, de mediados del siglo XVIII. En la clausura se conservan numerosas obras pictóricas de los siglos XVII y XVIII. ; El acceso al templo sólo es posible en horario de culto ;;;SANTA ISABEL;CALLE;48;28012;CENTRO;4.041.213.027.498.250;-36.994.547.941.964.900;914 548 700 (Información general);Monumento
Real Oratorio del Caballero de Gracia;" Construído por Juan de Villanueva entre 1786 y 1795 de planta basilical y en un sentir muy cercano al de las iglesias venecianas de Palladio. La fachada es de Custodio Moreno.  Entre 1976 y 1981 el arquitecto Fernando Chueca Goitia emprendió un proyecto de restauración  con polémicos resultados. Los trabajos se interrumpieron durante largos años; convocándose finalmente un concurso de arquitectura que fue ganado en 1987 por Javier Feduchi Benlliure. ";;; Metro: Gran Vía (líneas 1 y 5), Sevilla (línea 2), Sol (líneas 1, 2, 3)  Bus: 1, 2, 3, 46, 74, 146 ;CABALLERO DE GRACIA;CALLE;5;28013;CENTRO;4.041.953.675.995.830;-3.700.769.178.078.410;915 326 937 / 915 240 664;Monumento
Real Sitio de El Pardo; Recinto en el que se conserva el Palacio, construido sobre el castillo del siglo  XV , la Casita del Príncipe, del siglo  XVIII  y la Quinta del Duque de Arco (Palacete que fue Casa de Labor y sus tierras). Desde 1983 ha sido adecuado para residencia de Jefes de Estado extranjeros en visita oficial. ;  De octubre a marzo: todos los días de 10 a 18 horas  De abril a septiembre: todos los días de 10 a 20 horas  Cerrado:    Enero: días 1 y 6.  Mayo: día 1.  Diciembre: 24, 25 y 31.    ;;Bus: 601 (Madrid - Colonia Mingorrubio);MANUEL ALONSO;CALLE;8;28048;FUENCARRAL-EL PARDO;40.520.522.342.970.100;-37.762.390.614.462.800;914 548 700 (Información general);Monumento
Sala Canal de Isabel II;Singular espacio expositivo ubicado en un antiguo depósito de agua, construido entre 1907 y 1911 por el ingeniero Diego Martín Montalvo y el arquitecto Ramón de Aguinaga, de estilo ecléctico con una estructura exterior de ladrillo en planta circular, restaurado en 1986 por los arquitectos Javier Alau y Antonio Lopera.; De martes a sábados de 11 a 14 y de 17 a 20:30 horas. Domingos y festivos de 11 a 14 horas. Lunes cerrado.   Consultar horario específico de cada exposición. ;Exposiciones de fotografía. ; Metro: Ríos Rosas (línea 1), Alonso Cano (línea 7)  Bus: 3, 5, 12, 37, 45, 149 ;SANTA ENGRACIA;CALLE;125;28003;CHAMBERI;4.043.917.634.033.890;-37.007.844.119.216.200;915 451 000 (ext. 2505);Monumento
Sala de exposiciones las Alhajas de la Fundación Montemadrid;;De martes a domingo de 10 a 14 y de 16 a 20 horas. Lunes cerrado;; Metro: Sol (líneas 1, 2, 3), Callao (líneas 3, 5), Ópera (líneas R, 2, 5)  Bus: 3, 5, 15, 20, 50, 51, 52, 53, 75, 133, 146, 150 ;SAN MARTIN;PLAZA;1;28013;CENTRO;4.041.814.767.353.350;-37.069.666.193.996.400;913 685 948 ;Monumento
Senado;;  Oficina de información:     De lunes a jueves de 9:30 a 14 horas y de 16 a 18:30 horas   Viernes de 9:30 a 14 horas  ;; Metro: Plaza España (líneas 3, 10)  Bus: 25, 39, 46, 68, 69, 74, 75, 138, 148 ;BAILEN;CALLE;3;28013;CENTRO;4.042.145.565.624.760;-3.712.565.078.821.230;900 103 038 / 915 381 852 / 53 / 54 / ;Monumento
Sociedad General de Autores y Editores (SGAE); La SGAE, Sociedad General de Autores y Editores, es una entidad privada dedicada a la  defensa y gestión colectiva de los derechos de propiedad intelectual  de sus más de 106.000 socios. Su misión fundamental es la protección y reparto de la remuneración de los socios por la utilización de sus obras (reproducción, distribución, comunicación pública, transformación y copia privada) y la gestión de licencias entre los clientes para su uso. ;;; Metro: Alonso Martínez (líneas 4, 5, 10), Tribunal (líneas 1, 10)  Bus: 3, 37,  ;FERNANDO VI;CALLE;4;28004;CENTRO;40.425.444.297.155.700;-36.966.927.307.702.500;"913 499 550 / 00          
";Monumento
Templo de Debod; Templo egipcio dedicado a Amón de Debod y a Isis, construido entre 185  a. de C.  y el siglo  I  de la Era. Fue donado por Egipto a España en 1968, en agradecimiento por la ayuda en el salvamento de los templos de Abu Simbel. ;  De 1 de octubre a 31 de marzo   De martes a viernes de 9:45 a 13:45 y de 16:15 a 18:15 horas  Sábados, domingos y festivos de 9:30 a 20 hora    De 1 de abril a 30 de septiembre   De martes a viernes de 10 a 14 y de 18 a 20 horas  Sábados, domingos y festivos de 9:30 a 20 horas.     El templo permanece cerrado los lunes y los festivos 1 de enero, 1 de mayo y 25 de diciembre.  Último pase de visita 15 minutos antes del cierre.  Este horario y la apertura de salas pueden sufrir modificaciones, por favor, confírmelo en el teléfono de información del museo.  ;  No cuenta con accesos adaptados para minusválidos   Exposición permanente : Debod un templo ptolemaico  Actividades didácticas: talleres para grupos escolares, talleres de profesores, visitas guiadas, talleres para familias.  Se pueden realizar fotografías o grabaciones de vídeo libremente en el exterior o en el interior del templo, siempre y cuando no se utilicen flash o trípode y su fin no sea comercial.  ;  Metro:  Plaza de España (líneas 3 y 10) y Ventura Rodríguez (línea 3)   Autobús    Línea 74 (paradas en la calle Ferraz, frente al Templo, y en la calle Pintor Rosales)  Líneas 25, 39, 46, 75, 138 y C1 (parada en Cuesta de San Vicente-Cadarso)  Líneas 3, 44, 133, 148 y C2 (parada en Plaza de España)  Líneas 1, 2, 74 (parada en Princesa-Ventura Rodríguez)    Renfe:  Príncipe Pío   Bus turístico:  Ruta 1. PARADA 10 - Templo de Debod   Otras formas de acceso:    Aparcamiento de bicicletas: Calle Ferraz, junto al acceso principal a los jardines del Templo.  Aparcamiento de coches: dentro del Área de Estacionamiento Regulado de la ciudad de Madrid.  El aparcamiento público más cercano está situado en Plaza de España.  ;FERRAZ;CALLE;1;28008;MONCLOA-ARAVACA;4.042.425.096.551.590;-3.716.531.855.540.270;913 667 415 (Museo de San Isidro / Templo de Debod));Monumento
Tribunal de Cuentas; Supremo órgano fiscalizador de las cuentas y de la gestión económica del Estado, así como del Sector Público, sin perjuicio de su propia jurisdicción. ;;; Metro: Tribunal  Bus: 3, 40, 149 ;FUENCARRAL;CALLE;81;28004;CENTRO;4.042.577.734.085.190;-3.701.211.175.757.090;"914 478 701         
";Monumento
Tribunal Supremo;;;Sala Civil, Sala Penal, Sala Contencioso- Administrativo, Sala Social, Sala Militar, Secretaría de Gobierno y Gabinete Técnico.; Metro: Colón (línea 4)  Bus: 5, 14, 21 , 27, 45, 53, 150  ;MARQUES DE LA ENSENADA;CALLE;1;28004;CENTRO;4.042.413.357.076.740;-369.293.054.384.027;"913 971 200 (Centralita) / 913 971 050 (Atención al ciudadano) / 913 973 228 (Oficina de Prensa) / 913 971 129 (Archivo) / 913 971 245 (Biblioteca) / 913 971 064 (Registro General)     
     
 ";Monumento
